name,hotel_address,city,latitude,longitude
London Bridge Hotel,8 18 London Bridge St Southwark London SE1 9SG United Kingdom,London,51.5052188,-0.088166
Grange Langham Court Hotel,31 35 Langham Street Westminster Borough London W1W 6BU United Kingdom,London,51.5189077,-0.1421957
H tel L Echiquier Op ra Paris MGallery by Sofitel,38 rue de l Echiquier 10th arr 75010 Paris France,Paris,48.8719889,2.3492913
Boscolo Milano Autograph Collection,Corso Giacomo Matteotti 4 6 Milan City Center 20121 Milan Italy,Milan,45.46676,9.194293
Arbor City,12 Osborn Street Aldgate East Tower Hamlets London E1 6TE United Kingdom,London,51.5166755,-0.0697897
Best Western Premier Hotel Dante,Mallorca 181 Eixample 08036 Barcelona Spain,Barcelona,41.3894195,2.1564886
Mercure London Hyde Park,8 14 Talbot Sq Paddington Westminster Borough London W2 1TS United Kingdom,London,51.5151149,-0.1743857
Pol Grace Hotel,Guillem Tell 49 Sarri St Gervasi 08006 Barcelona Spain,Barcelona,41.4017465,2.1477365
Wilson Boutique Hotel,Avenida Diagonal 568 Sarri St Gervasi 08021 Barcelona Spain,Barcelona,41.3944029,2.150194
The Arch London,50 Great Cumberland Place Westminster Borough London W1H 7FD United Kingdom,London,51.5159214,-0.1598794
Montagu Place Hotel,2 Montagu Place Westminster Borough London W1H 2ER United Kingdom,London,51.5191009,-0.1592
Washington Mayfair Hotel,5 Curzon St Westminster Borough London W1J 5HL United Kingdom,London,51.5060237,-0.151078
Hotel Mercure Milano Centro,Piazza Oberdan 12 Milan City Center 20129 Milan Italy,Milan,45.4747809,9.2059385
art otel Amsterdam,Prins Hendrikkade 33 Amsterdam City Center 1012 TM Amsterdam Netherlands,Amsterdam,52.377743,4.897057
every hotel Piccadilly,39 Coventry Street Westminster Borough London W1D 6BZ United Kingdom,London,51.5101462,-0.1315061
Mercure Hotel Raphael Wien,Wallgasse 23 06 Mariahilf 1060 Vienna Austria,Vienna,48.1919288,16.3391395
Charlotte Street Hotel,15 17 Charlotte Street Hotel Westminster Borough London W1T 1RJ United Kingdom,London,51.5184158,-0.1348509
Tryp Barcelona Apolo Hotel,Avenida Paralelo 57 59 Sants Montju c 08004 Barcelona Spain,Barcelona,41.3747031,2.1707106
Grosvenor House Suites by Jumeirah Living,86 Park Lane Westminster Borough London W1K 7TN United Kingdom,London,51.509841,-0.1552193
Worldhotel Cristoforo Colombo,Corso Buenos Aires 3 Milan City Center 20124 Milan Italy,Milan,45.4758842,9.205791
La Suite West Hyde Park,41 51 Inverness Terrace Westminster Borough London W2 3JN United Kingdom,London,51.5126758,-0.1867828
Sunotel Club Central,Valencia 157 Eixample 08011 Barcelona Spain,Barcelona,41.38793,2.1568061
St George s Hotel Wembley,43 51 Wembley Hill Road Brent London HA9 8AU United Kingdom,London,51.5553678,-0.2864945
Residence Du Roy,8 Rue Francois 1Er 8th arr 75008 Paris France,Paris,48.8657687,2.3090386
Hotel J ger,Hernalser Hauptstra e 187 17 Hernals 1170 Vienna Austria,Vienna,48.2238463,16.3138357
Ca Bianca Hotel Corte Del Naviglio,Via Lodovico Il Moro 117 Navigli 20143 Milan Italy,Milan,45.443502,9.1377081
Select Hotel,1 Place De La Sorbonne 5th arr 75005 Paris France,Paris,48.8483053,2.3425596
Antares Hotel Accademia,Viale Certosa 68 Certosa 20155 Milan Italy,Milan,45.4921089,9.1476806
Le Belmont Champs Elys es,30 Rue de Bassano 16th arr 75016 Paris France,Paris,48.8691984,2.2979052
W Paris Op ra,Place de l Op ra 4 rue Meyerbeer 9th arr 75009 Paris France,Paris,48.8719697,2.3316014
Mandarin Oriental Paris,251 rue Saint Honor 1st arr 75001 Paris France,Paris,48.8671889,2.326927
NH Barcelona Stadium,Travessera de les Corts 150 152 Les Corts 08028 Barcelona Spain,Barcelona,41.3812574,2.1269078
Mercure Hotel Amsterdam Centre Canal District,Noorderstraat 46 Amsterdam City Center 1017 TV Amsterdam Netherlands,Amsterdam,52.3611852,4.8936341
Mercure Paris Bastille Saint Antoine,64 Rue Crozatier 12th arr 75012 Paris France,Paris,48.849574,2.3798518
Novotel Paris Gare De Lyon,2 Rue Hector Malot 12th arr 75012 Paris France,Paris,48.8453785,2.3753036
H tel Saint Paul Rive Gauche,43 rue Monsieur le Prince 6th arr 75006 Paris France,Paris,48.8496819,2.3402806
Hotel Duminy Vendome,3 5 rue du Mont Thabor 1st arr 75001 Paris France,Paris,48.8654726,2.3292934
City Rooms,Daungasse 1 6 7 08 Josefstadt 1080 Vienna Austria,Vienna,48.2133296,16.3471399
Hotel Vittoria,Via Pietro Calvi 32 P Vittoria 20129 Milan Italy,Milan,45.463135,9.2102
Hilton Paris Opera,108 Rue Saint Lazare 8th arr 75008 Paris France,Paris,48.8756604,2.3252075
Austria Trend Hotel Europa Wien,K rntnerstra e 18 Eingang Neuer Markt 3 01 Innere Stadt 1010 Vienna Austria,Vienna,48.2062103,16.3710387
Corinthia Hotel London,Whitehall Place Westminster Borough London SW1A 2BD United Kingdom,London,51.5045583,-0.1262584
Hotel K nig von Ungarn,Schulerstra e 10 01 Innere Stadt 1010 Vienna Austria,Vienna,48.2082215,16.3751842
Grand Royale London Hyde Park,1 Inverness Terrace Westminster Borough London W2 3JP United Kingdom,London,51.5109945,-0.1863417
U232 Hotel,Comte d Urgell 232 Eixample 08036 Barcelona Spain,Barcelona,41.3895237,2.1490307
Novotel London West,1 Shortlands Hammersmith and Fulham London W6 8DR United Kingdom,London,51.4919588,-0.2200956
Pullman Barcelona Skipper,Avenida Litoral 10 Ciutat Vella 08005 Barcelona Spain,Barcelona,41.3860183,2.19473
NH London Kensington,202 220 Cromwell Road Kensington and Chelsea London SW5 0SW United Kingdom,London,51.4948507,-0.1945544
NH Collection Barcelona Constanza,D u i Mata 66 99 Les Corts 08029 Barcelona Spain,Barcelona,41.3885274,2.1360471
Catalonia Plaza Catalunya,Bergara 11 Eixample 08002 Barcelona Spain,Barcelona,41.3865289,2.1682919
Hotel Bellevue Wien,Althanstra e 5 09 Alsergrund 1090 Vienna Austria,Vienna,48.2264063,16.3600628
Hotel Le Six,14 Rue Stanislas 6th arr 75006 Paris France,Paris,48.8438352,2.3280708
Hotel 82 London,82 Gloucester Place Westminster Borough London W1U 6HN United Kingdom,London,51.5195857,-0.1584803
Hotel de Nell,7 9 rue du Conservatoire 9th arr 75009 Paris France,Paris,48.8732788,2.3466576
Hotel de Seze,16 rue de S ze 9th arr 75009 Paris France,Paris,48.8705741,2.3264194
Vincci Mae,Avenida Diagonal 596 Sarri St Gervasi 08021 Barcelona Spain,Barcelona,41.3933943,2.1461315
AC Hotel Victoria Suites a Marriott Lifestyle Hotel,Beltran i R zpide 7 9 Les Corts 08034 Barcelona Spain,Barcelona,41.3893478,2.1209755
Hotel Domizil,Schulerstra e 14 01 Innere Stadt 1010 Vienna Austria,Vienna,48.2080479,16.375612
Thistle Hyde Park,90 92 Lancaster Gate Westminster Borough London W2 3NR United Kingdom,London,51.5112451,-0.1808938
Catalonia Eixample 1864,Roger de Ll ria 60 Eixample 08009 Barcelona Spain,Barcelona,41.393599,2.1684151
Hotel Bristol A Luxury Collection Hotel,K rntner Ring 1 01 Innere Stadt 1015 Vienna Austria,Vienna,48.2024907,16.3702656
Hotel Seven One Seven,Prinsengracht 717 Amsterdam City Center 1017 JW Amsterdam Netherlands,Amsterdam,52.3648077,4.8853962
Courthouse Hotel Shoreditch,335 337 Old Street Hackney London EC1V 9LL United Kingdom,London,51.5273442,-0.0796152
Capri by Fraser Barcelona,Sancho de vila 32 34 Sant Mart 08018 Barcelona Spain,Barcelona,41.3976233,2.188975
The Nadler Kensington,25 Courtfield Gardens Kensington and Chelsea London SW5 0PG United Kingdom,London,51.4931086,-0.190208
Ohla Barcelona,Via Laietana 49 Ciutat Vella 08003 Barcelona Spain,Barcelona,41.3870479,2.174336
Hotel West End,7 rue Cl ment Marot 8th arr 75008 Paris France,Paris,48.8671391,2.3038447
Le Pavillon des Lettres,12 rue des Saussaies 8th arr 75008 Paris France,Paris,48.8713699,2.3181191
Sofitel Paris Baltimore Tour Eiffel,88 Bis Avenue Kl ber 16th arr 75016 Paris France,Paris,48.8663089,2.289609
H tel Jos phine by Happyculture,67 rue Blanche 9th arr 75009 Paris France,Paris,48.8823141,2.3316688
London Marriott Hotel County Hall,London County Hall Westminster Bridge Road Lambeth London SE1 7PB United Kingdom,London,51.5016102,-0.1191545
The Tower A Guoman Hotel,St Katherines Way Tower Hamlets London E1W 1LD United Kingdom,London,51.5064721,-0.0716893
Shangri La Hotel at The Shard London,31 St Thomas Street Southwark London SE1 9QU United Kingdom,London,51.5044972,-0.0855562
Milan Suite Hotel,Via Varesina 124 Certosa 20156 Milan Italy,Milan,45.5000245,9.1428722
Hollmann Beletage Design Boutique,K llnerhofgasse 6 01 Innere Stadt 1010 Vienna Austria,Vienna,48.2105156,16.3760717
Hotel Omm,Rossell 265 Eixample 08008 Barcelona Spain,Barcelona,41.3962468,2.1609551
Radisson Blu Style Hotel Vienna,Herrengasse 12 01 Innere Stadt 1010 Vienna Austria,Vienna,48.2101211,16.3655537
The Grosvenor,101 Buckingham Palace Road Westminster Borough London SW1W 0SJ United Kingdom,London,51.4956657,-0.1452793
Park Hyatt Paris Vendome,5 rue de la Paix 2nd arr 75002 Paris France,Paris,48.8688155,2.3305236
Milan Marriott Hotel,Via Washington 66 Fiera Milano City 20146 Milan Italy,Milan,45.4611287,9.1542675
Colombia,Via Roberto Lepetit 15 Central Station 20124 Milan Italy,Milan,45.4829817,9.2041911
NH Collection Amsterdam Barbizon Palace,Prins Hendrikkade 59 72 Amsterdam City Center 1012 AD Amsterdam Netherlands,Amsterdam,52.3764175,4.9002201
The Belgrave Hotel,80 86 Belgrave Road Westminster Borough London SW1V 2BJ United Kingdom,London,51.4901051,-0.1381355
XO Hotel,25 Rue Theodore de Banville 17th arr 75017 Paris France,Paris,48.8827492,2.2982782
Austria Trend Hotel Lassalle Wien,Engerthstra e 173 175 02 Leopoldstadt 1020 Vienna Austria,Vienna,48.2273013,16.4001791
Le Littr ,9 Rue Littr 6th arr 75006 Paris France,Paris,48.8454447,2.3242814
Doubletree by Hilton London Kensington,100 Queen s Gate Kensington and Chelsea London SW7 5AG United Kingdom,London,51.4925138,-0.1787917
Egerton House,17 19 Egerton Terrace Knightsbridge Kensington and Chelsea London SW3 2BX United Kingdom,London,51.4968406,-0.1675498
Room Mate Aitana,IJdock 6 Amsterdam City Center 1013 MM Amsterdam Netherlands,Amsterdam,52.3846059,4.8941866
UNA Hotel Century,Via Fabio Filzi 25 B Central Station 20124 Milan Italy,Milan,45.4841371,9.2001623
Palazzo Parigi Hotel Grand Spa Milano,Corso Di Porta Nuova 1 Milan City Center 20121 Milan Italy,Milan,45.473348,9.1910733
The Level at Melia Barcelona Sky,Lope de Vega 141 Sant Mart 08005 Barcelona Spain,Barcelona,41.406146,2.2008636
Hotel Mercure Wien City,Hollandstra e 3 02 Leopoldstadt 1020 Vienna Austria,Vienna,48.2152663,16.376103
Simm s Hotel,Simmeringer Hauptstra e 55 57 11 Simmering 1110 Vienna Austria,Vienna,48.1790835,16.4116997
Victoires Opera,56 rue de Montorgueil 2nd arr 75002 Paris France,Paris,48.8648997,2.3469433
Hotel Ciutadella Barcelona,Avenida Marqu s de l Argentera 4 Ciutat Vella 08003 Barcelona Spain,Barcelona,41.3837583,2.1846933
Hotel SB Icaria Barcelona,Avinguda Icaria 195 Sant Mart 08005 Barcelona Spain,Barcelona,41.3935591,2.1993915
The Park Grand London Paddington,1 3 Queens Garden Westminster Borough London W2 3BA United Kingdom,London,51.5142184,-0.1809032
The Westin Paris Vend me,3 rue de Castiglione 1st arr 75001 Paris France,Paris,48.8657394,2.3274415
Waldorf Madeleine,12 boulevard Malesherbes 8th arr 75008 Paris France,Paris,48.8715828,2.3224853
Hotel Milano Scala,Via dell Orso 7 Milan City Center 20121 Milan Italy,Milan,45.4689376,9.1868891
NH Amsterdam Noord,Distelkade 21 Amsterdam Noord 1031 XP Amsterdam Netherlands,Amsterdam,52.3923684,4.9110442
Acad mie H tel Saint Germain,32 rue des Saints P res 7th arr 75007 Paris France,Paris,48.855263,2.3305901
Novotel London Excel,7 Western Gateway Royal Victoria Dock Newham London E16 1AA United Kingdom,London,51.5077198,0.0229805
Old Ship Inn Hackney,2 Sylvester Path Hackney London E8 1EN United Kingdom,London,51.5458476,-0.0554113
L Edmond H tel,22 avenue de Villiers 17th arr 75017 Paris France,Paris,48.8823111,2.3132374
NH Wien City,Mariahilfer Stra e 32 34 07 Neubau 1070 Vienna Austria,Vienna,48.2002872,16.3547746
Novotel Suites Paris Nord 18 me,1 Impasse Marteau 18th arr 75018 Paris France,Paris,48.9015941,2.3597783
Nolinski Paris,16 Avenue de l Opera 1st arr 75001 Paris France,Paris,48.8654874,2.3348924
Holiday Inn London Regent s Park,Carburton Street Westminster Borough London W1W 5EE United Kingdom,London,51.5222472,-0.1426128
Crowne Plaza London Kings Cross,1 Kings Cross Road Islington London WC1X 9HX United Kingdom,London,51.5263854,-0.1136042
Jaz Amsterdam,De Passage 90 Noord Holland Zuidoost 1101 AX Amsterdam Netherlands,Amsterdam,52.314371,4.9388064
Hotel 55,Hanger Lane Ealing London W5 3HL United Kingdom,London,51.5213303,-0.2915052
Mercure Paris Terminus Nord,21 rue de Dunkerque 10th arr 75010 Paris France,Paris,48.8794843,2.3556545
The Stafford London,St James s Place Westminster Borough London SW1A 1NJ United Kingdom,London,51.5059087,-0.1403795
Threadneedles Autograph Collection,5 Threadneedle Street City of London London EC2R 8AY United Kingdom,London,51.5140208,-0.0854919
Blakes Hotel,33 Roland Gardens Kensington and Chelsea London SW7 3PF United Kingdom,London,51.4892447,-0.1803196
Jumeirah Carlton Tower,Cadogan Place Kensington and Chelsea London SW1X 9PY United Kingdom,London,51.4973568,-0.1576728
Novotel Paris 14 Porte d Orl ans,15 Boulevard Romain Rolland 14th arr 75014 Paris France,Paris,48.8196885,2.3263505
Le Lavoisier,21 rue Lavoisier 8th arr 75008 Paris France,Paris,48.8737702,2.3201063
Villa d Estr es,17 rue g t le coeur 6th arr 75006 Paris France,Paris,48.8535089,2.3425787
Radisson Blu Portman Hotel London,22 Portman Square Westminster Borough London W1H 7BG United Kingdom,London,51.5161911,-0.1579487
Hilton Amsterdam,Apollolaan 138 Oud Zuid 1077 BG Amsterdam Netherlands,Amsterdam,52.351381,4.872723
Le Marquis Eiffel,15 Rue Dupleix 15th arr 75015 Paris France,Paris,48.8516619,2.2979395
Covent Garden Hotel,10 Monmouth Street Camden London WC2H 9HB United Kingdom,London,51.5145986,-0.1270336
Novotel Amsterdam City,Europaboulevard 10 Zuideramstel 1083 AD Amsterdam Netherlands,Amsterdam,52.333803,4.8884708
Royal Amsterdam Hotel,Rembrandtplein 44 Amsterdam City Center 1017 CV Amsterdam Netherlands,Amsterdam,52.3657281,4.8972883
Rubens At The Palace,39 Buckingham Palace Road Westminster Borough London SW1W 0PS United Kingdom,London,51.4981471,-0.1436492
Hotel Advance,Sep lveda 180 Eixample 08011 Barcelona Spain,Barcelona,NA,NA
Eurostars Monumental,Consell de Cent 498 500 Eixample 08013 Barcelona Spain,Barcelona,41.4006653,2.1787089
Best Western Plus Hotel Felice Casati,Via Felice Casati 18 Central Station 20124 Milan Italy,Milan,45.4787357,9.2041131
NH Amsterdam Caransa,Rembrandtplein 19 Amsterdam City Center 1017 CT Amsterdam Netherlands,Amsterdam,52.3664077,4.8969091
Lyric H tel Paris,2 rue de Gramont 2nd arr 75002 Paris France,Paris,48.8690126,2.3368708
Hotel Barcelona Catedral,Capellans 4 Ciutat Vella 08002 Barcelona Spain,Barcelona,41.384829,2.1751277
Apollo Hotel Amsterdam,Apollolaan 2 Oud Zuid 1077 BA Amsterdam Netherlands,Amsterdam,52.3486098,4.8844292
Best Western Premier Kapital Op ra,34 rue de Moscou 8th arr 75008 Paris France,Paris,48.8814425,2.3235592
Shaftesbury Premier London Paddington,55 61 Westbourne Terrace Westminster Borough London W2 3UY United Kingdom,London,51.5153672,-0.1783271
Excelsior Hotel Gallia Luxury Collection Hotel,Piazza Duca D Aosta 9 Central Station 20124 Milan Italy,Milan,45.4857027,9.2020127
London Marriott Maida Vale,Plaza Parade Camden London NW6 5RP United Kingdom,London,51.5357597,-0.1902591
Enterprise Hotel Design Boutique,Corso Sempione 91 Fiera Milano City 20149 Milan Italy,Milan,45.4867005,9.1575137
Hotel Montalembert,3 Rue de Montalembert 7th arr 75007 Paris France,Paris,48.8567042,2.3277805
Hotel Le Saint Gregoire,43 Rue De l Abb Gr goire 6th arr 75006 Paris France,Paris,48.8471891,2.3260138
Radisson Blu Edwardian Berkshire,350 Oxford Street Westminster Borough London W1C 1BY United Kingdom,London,51.5146025,-0.1481978
Best Western Hotel St George,Viale Tunisia 9 Central Station 20124 Milan Italy,Milan,45.4770906,9.2054208
Hotel Rekord,Muntaner 352 Sarri St Gervasi 08021 Barcelona Spain,Barcelona,41.3985449,2.1438237
Arenas Atiram Hotels,Capitan Arenas 20 Les Corts 08034 Barcelona Spain,Barcelona,41.3904305,2.1262314
TownHouse 12,Piazza Gerusalemme 12 Sempione 20154 Milan Italy,Milan,45.4844028,9.1673528
Holiday Inn London Wembley,Empire Way Wembley Brent London HA9 8DS United Kingdom,London,51.5590955,-0.284704
The Chess Hotel,6 rue du Helder 9th arr 75009 Paris France,Paris,48.8716017,2.3349768
The May Fair Hotel,Stratton Street Mayfair Westminster Borough London W1J 8LT United Kingdom,London,51.5078943,-0.1436707
The Drayton Court Hotel,2 The Avenue Ealing London W13 8PH United Kingdom,London,51.5141842,-0.3192925
Best Western Le 18 Paris,51 rue Letort 18th arr 75018 Paris France,Paris,48.8966167,2.3434843
Hotel Spa Villa Olimpica Suites,Pallars 121 125 Sant Mart 08018 Barcelona Spain,Barcelona,41.3971434,2.1921947
Novotel Paris Centre Gare Montparnasse,17 Rue Du Cotentin 15th arr 75015 Paris France,Paris,48.838484,2.3150904
Marlin Waterloo,111 Westminster Bridge Road Lambeth London SE1 7JD United Kingdom,London,51.4990953,-0.1132136
Leonardo Hotel Vienna,Matrosengasse 6 8 06 Mariahilf 1060 Vienna Austria,Vienna,48.1945297,16.340327
Rochester Champs Elysees,92 Rue La Boetie 8th arr 75008 Paris France,Paris,48.8724945,2.3091549
Megaro Hotel,Belgrove Street Camden London WC1H 8AB United Kingdom,London,51.5294411,-0.1233745
Radisson Blu Edwardian Sussex,19 25 Granville Place Marble Arch Westminster Borough London W1H 6PA United Kingdom,London,51.5144381,-0.1558337
Terrass H tel Montmartre by MH,12 14 Rue Joseph De Maistre 18th arr 75018 Paris France,Paris,48.8865626,2.3329648
Golden Tulip Washington Opera,50 rue de Richelieu 1st arr 75001 Paris France,Paris,48.866242,2.3373169
Hotel Ares Eiffel,7 rue du G n ral de Larminat 15th arr 75015 Paris France,Paris,48.8503276,2.2982022
Hotel Bagu s,La Rambla 105 Ciutat Vella 08002 Barcelona Spain,Barcelona,41.3827894,2.1715636
Grange White Hall Hotel,2 5 Montague Street Bloomsbury Camden London WC1B 5BU United Kingdom,London,51.5203469,-0.1260893
Henley House Hotel,30 Barkston Gardens Kensington and Chelsea London SW5 0EN United Kingdom,London,51.4922348,-0.1914229
Hotel Okura Amsterdam,Ferdinand Bolstraat 333 Oud Zuid 1072 LH Amsterdam Netherlands,Amsterdam,52.3487635,4.8938829
H tel Raphael,17 Avenue Kl ber 16th arr 75016 Paris France,Paris,48.8713239,2.2937849
Mercure London Paddington Hotel,144 Praed St Paddington Westminster Borough London W2 1HU United Kingdom,London,51.5161139,-0.1749521
Radisson Blu Edwardian New Providence Wharf,5 Fairmont Avenue Canary Wharf Tower Hamlets London E14 9JB United Kingdom,London,51.5065578,-0.004514
Eccleston Square Hotel,37 Eccleston Square Westminster Borough London SW1V 1PB United Kingdom,London,51.4911924,-0.1449474
Hotel Wandl,Petersplatz 9 01 Innere Stadt 1010 Vienna Austria,Vienna,48.2097026,16.3703902
Holiday Inn London Bloomsbury,Coram Street Camden London WC1N 1HT United Kingdom,London,51.5241248,-0.1258066
Hotel Elys es Bassano,24 rue Bassano 16th arr 75016 Paris France,Paris,48.8689307,2.2974503
Catalonia Catedral,Arcs 10 Ciutat Vella 08002 Barcelona Spain,Barcelona,41.3846637,2.1740902
TWO Hotel Barcelona by Axel 4 Sup Adults Only,Calabria 90 92 Eixample 08015 Barcelona Spain,Barcelona,41.37913,2.1561186
Hotel Le Squara,3 rue Lepic 18th arr 75018 Paris France,Paris,48.884165,2.3328261
Millennium Gloucester Hotel London,4 18 Harrington Gardens Kensington and Chelsea London SW7 4LH United Kingdom,London,51.4935083,-0.1834346
Best Western Plus Seraphine Hammersmith Hotel,84 King Street Hammersmith and Fulham London W6 0QW United Kingdom,London,51.4926269,-0.2288598
Splendide Royal Paris,18 Rue du Cirque 8th arr 75008 Paris France,Paris,48.8709627,2.3154141
Hilton London Green Park,Half Moon Street Westminster Borough London W1J 7BN United Kingdom,London,51.5064534,-0.1456146
H tel Amastan Paris,34 rue Jean Mermoz 8th arr 75008 Paris France,Paris,48.8716831,2.3123759
Le Burgundy Paris,6 8 Rue Duphot 1st arr 75001 Paris France,Paris,48.8680055,2.3260075
Hotel Dupond Smith,2 rue des Guillemites 4th arr 75004 Paris France,Paris,48.857898,2.3571978
Legend Saint Germain by Elegancia,151 bis Rue de Rennes 6th arr 75006 Paris France,Paris,48.8453774,2.3256427
Hotel Monsieur,62 Rue Des Mathurins 8th arr 75008 Paris France,Paris,48.8735135,2.3217457
Catalonia Park Putxet,Putget 68 Sarri St Gervasi 08023 Barcelona Spain,Barcelona,41.4072812,2.1443116
Georgian House Hotel,35 39 St Georges Drive Westminster Borough London SW1V 4DG United Kingdom,London,51.490724,-0.143868
Le Relais Madeleine,11bis Rue Godot de Mauroy 9th arr 75009 Paris France,Paris,48.870961,2.3267678
Cram,Aribau 54 Eixample 08011 Barcelona Spain,Barcelona,41.3880549,2.1599602
Hotel Galileo,Corso Europa 9 Milan City Center 20122 Milan Italy,Milan,45.4642651,9.1960569
Hotel OFF Paris Seine,86 Quai D Austerlitz 13th arr 75013 Paris France,Paris,48.8427364,2.3672171
Park Plaza London Waterloo,6 Hercules Road Lambeth London SE1 7DP United Kingdom,London,51.4982412,-0.1134715
Evenia Rossello,Rossello 191 Eixample 08036 Barcelona Spain,Barcelona,41.3920254,2.1554675
H tel California Champs Elys es,16 rue de Berri 8th arr 75008 Paris France,Paris,48.8726335,2.3048084
Hotel des Tuileries Relais du Silence,10 rue Saint Hyacinthe 1st arr 75001 Paris France,Paris,48.8661705,2.331561
Club Quarters Hotel Lincoln s Inn Fields,61 Lincoln s Inn Fields Camden London WC2A 3JW United Kingdom,London,51.5160988,-0.1181749
Ayre Hotel Caspe,Caspe 103 Eixample 08013 Barcelona Spain,Barcelona,41.3961021,2.1794688
Ohla Eixample,C rsega 289 Eixample 08008 Barcelona Spain,Barcelona,41.3944574,2.1564353
Best Western Hotel Ascot,Via Lentasio 3 Milan City Center 20122 Milan Italy,Milan,45.4580137,9.1913676
Crowne Plaza London Ealing,Western Avenue Ealing London W5 1HG United Kingdom,London,51.5403942,-0.3697581
Hotel Le 10 BIS,10 Bis rue du D barcad re 17th arr 75017 Paris France,Paris,48.8780363,2.2864907
Hotel Esther a,Singel 303 309 Amsterdam City Center 1012 WJ Amsterdam Netherlands,Amsterdam,52.3705447,4.8886439
Hotel le Lapin Blanc,41 boulevard Saint Michel 5th arr 75005 Paris France,Paris,48.8491801,2.3423357
Grange Buckingham Hotel,39 40 Bedford Place Bloomsbury Camden London WC1B 5JT United Kingdom,London,51.5196124,-0.1239628
Clayton Crown Hotel London,152 Cricklewood Broadway Cricklewood London NW2 3ED United Kingdom,London,51.5561548,-0.2141824
Novotel London Waterloo,113 Lambeth Rd Lambeth London SE1 7LS United Kingdom,London,51.4948465,-0.1187481
H tel Bedford,17 rue de l Arcade 8th arr 75008 Paris France,Paris,48.8720593,2.3236802
ME London by Melia,336 337 Strand London Westminster Borough London WC2R 1HA United Kingdom,London,51.511879,-0.118552
Mercure Paris Bercy Biblioth que,6 Boulevard Vincent Auriol 13th arr 75013 Paris France,Paris,48.8370334,2.372322
H tel Keppler,10 Rue Kepler 16th arr 75016 Paris France,Paris,48.8699103,2.2973386
ARCOTEL Wimberger,Neubaug rtel 34 36 07 Neubau 1070 Vienna Austria,Vienna,48.2006001,16.3386333
Hotel Front Maritim,Paseo Garc a I Faria 69 71 Sant Mart 08019 Barcelona Spain,Barcelona,41.4037972,2.213767
Best Western Atlantic Hotel,Via Napo Torriani 24 Central Station 20124 Milan Italy,Milan,45.4830211,9.2033246
Holiday Inn Paris Gare de l Est,5 rue du 8 Mai 1945 10th arr 75010 Paris France,Paris,48.8758981,2.3590504
Ace Hotel London Shoreditch,100 Shoreditch High Street Hackney London E1 6JQ United Kingdom,London,51.5254162,-0.0772849
Best Western The Boltons Hotel London Kensington,19 21 Penywern Road Kensington and Chelsea London SW5 9TT United Kingdom,London,51.4907493,-0.1934627
H tel Beauchamps,24 rue de Ponthieu 8th arr 75008 Paris France,Paris,48.87096,2.3091617
The Chamberlain,130 135 Minories City of London London EC3N 1NU United Kingdom,London,51.5122457,-0.0757326
H tel Vernet,25 Rue Vernet 8th arr 75008 Paris France,Paris,48.871859,2.2978177
IH Hotels Milano Watt 13,Via Giacomo Watt 13 Famagosta 20143 Milan Italy,Milan,45.443791,9.152947
Rydges Kensington Hotel,61 Gloucester Road Kensington and Chelsea London SW7 4PE United Kingdom,London,51.4956883,-0.1827878
San Domenico House,29 31 Draycott Place Kensington and Chelsea London SW3 2SH United Kingdom,London,51.4917798,-0.1616049
Grange Clarendon Hotel,34 37 Bedford Place Bloomsbury Camden London WC1B 5JR United Kingdom,London,51.5197933,-0.1241844
Relais Saint Jacques,3 Rue Abb De L Ep e 5th arr 75005 Paris France,Paris,48.8430523,2.3422519
H tel Da Vinci Spa,25 rue des Saints P res 6th arr 75006 Paris France,Paris,48.8565778,2.3319767
Arioso,7 rue d Argenson 8th arr 75008 Paris France,Paris,48.8746066,2.3167195
Park Grand Paddington Court,27 Devonshire Terrace Westminster Borough London W2 3DP United Kingdom,London,51.5135555,-0.180002
Royal Garden Champs Elysees,218 220 rue du Faubourg St Honor 8th arr 75008 Paris France,Paris,48.8757155,2.3038781
Hilton London Hyde Park,129 Bayswater Road London W2 4RJ United Kingdom,London,51.51046,-0.1875844
Best Western Hotel Pension Arenberg Wien Zentrum,Stubenring 2 01 Innere Stadt 1010 Vienna Austria,Vienna,48.2107358,16.382147
Hilton London Angel Islington,53 Upper Street Islington London N1 0UY United Kingdom,London,51.5360906,-0.1048176
H tel des Ducs D Anjou,1 Rue Sainte Opportune 1st arr 75001 Paris France,Paris,48.8598229,2.347111
Holiday Inn Paris Op ra Grands Boulevards,30 32 Boulevard Poissonni re 9th arr 75009 Paris France,Paris,48.8715469,2.3439622
Dikker en Thijs Fenice Hotel,Prinsengracht 444 Amsterdam City Center 1017 KE Amsterdam Netherlands,Amsterdam,52.364971,4.8839827
Les Jardins De La Villa Spa,5 Rue Belidor 17th arr 75017 Paris France,Paris,48.8801757,2.2859534
LHP Hotel Napoleon,Via Ozanam 12 Citt Studi 20129 Milan Italy,Milan,45.4802415,9.2131919
Paris Marriott Champs Elysees Hotel,70 avenue des Champs Elysees 8th arr 75008 Paris France,Paris,48.8711365,2.3050482
Blakemore Hyde Park,30 Leinster Gardens Bayswater Westminster Borough London W2 3AN United Kingdom,London,51.5129736,-0.1837431
Le Grey Hotel,12 rue de Parme 9th arr 75009 Paris France,Paris,48.881407,2.3274204
Hotel Monceau Wagram,7 Rue Rennequin 17th arr 75017 Paris France,Paris,48.8808779,2.2989756
Hotel du Louvre in the Unbound Collection by Hyatt,Place Andr Malraux 1st arr 75001 Paris France,Paris,48.8639788,2.3352615
Hotel Indigo London Tower Hill,142 Minories City of London London EC3N 1LS United Kingdom,London,51.5128032,-0.07586
The Ritz London,150 Piccadilly Westminster Borough London W1J 9BR United Kingdom,London,51.5069446,-0.1415776
Radisson Blu Hotel Amsterdam,Rusland 17 Amsterdam City Center 1012 CK Amsterdam Netherlands,Amsterdam,52.3702469,4.8966743
Novotel London Greenwich,173 185 Greenwich High Rd Greenwich London SE10 8JA United Kingdom,London,51.4778583,-0.0137463
The Wittmore Adults Only,Riudarenes 7 Ciutat Vella 08002 Barcelona Spain,Barcelona,41.380939,2.1796095
Hotel Imperial A Luxury Collection Hotel,K rntner Ring 16 01 Innere Stadt 1015 Vienna Austria,Vienna,48.2012505,16.3731255
Oceania Paris Porte De Versailles,52 Rue Oradour sur Glane 15th arr 75015 Paris France,Paris,48.8303023,2.2842872
Graben Hotel,Dorotheergasse 3 01 Innere Stadt 1010 Vienna Austria,Vienna,48.2078955,16.3701084
Aparthotel Adagio Vienna City,Uraniastra e 2 01 Innere Stadt 1010 Vienna Austria,Vienna,48.2110845,16.3838405
Sydney House Chelsea,9 11 Sydney Street Kensington and Chelsea London SW3 6PU United Kingdom,London,51.4910062,-0.1717691
The Principal London,1 8 Russell Square Camden London WC1B 5BE United Kingdom,London,51.5226217,-0.1251602
Royal Passeig de Gracia,Passeig de Gracia 84 Eixample 08008 Barcelona Spain,Barcelona,41.3946775,2.162638
Sir Albert Hotel,Albert Cuypstraat 2 6 Oud Zuid 1072 CT Amsterdam Netherlands,Amsterdam,52.3544507,4.8875036
Courthouse Hotel London,19 21 Gt Marlborough St Westminster Borough London W1F 7HL United Kingdom,London,51.5143624,-0.1394483
Andreola Central Hotel,Via Domenico Scarlatti 24 Central Station 20124 Milan Italy,Milan,45.4836517,9.2078581
Golden Tulip Opera de Noailles,9 rue de la Michodi re 2nd arr 75002 Paris France,Paris,48.8696173,2.3346428
Atala Champs Elys es,10 rue Chateaubriand 8th arr 75008 Paris France,Paris,48.8735418,2.302442
Hotel Vilamar ,Vilamari 34 36 Eixample 08015 Barcelona Spain,Barcelona,41.3766732,2.1524478
Hotel Tocq,Via A de Tocqueville 7 D Garibaldi Station 20154 Milan Italy,Milan,45.4828787,9.186346
Hotel Casa Bonay,Gran Via de les Corts Catalanes 700 Eixample 08010 Barcelona Spain,Barcelona,41.3935967,2.1742718
The Ritz Carlton Vienna,Schubertring 5 7 01 Innere Stadt 1010 Vienna Austria,Vienna,48.2022742,16.3762615
Aparthotel Mariano Cubi Barcelona,Mariano Cubi 62 64 Sarri St Gervasi 08006 Barcelona Spain,Barcelona,41.3982129,2.1494179
Petit Palace Barcelona,Roger De Lluria 21 Esq Gran Via 662 Eixample 08037 Barcelona Spain,Barcelona,41.3909816,2.1714938
1K Hotel,13 Boulevard Du Temple 3rd arr 75003 Paris France,Paris,48.8639318,2.3658744
Grand Ferdinand Vienna Your Hotel In The City Center,Schubertring 10 12 01 Innere Stadt 1010 Vienna Austria,Vienna,48.2022415,16.3749336
Hotel Palace GL,Gran Via de les Corts Catalanes 668 Eixample 08010 Barcelona Spain,Barcelona,41.3916258,2.1716378
Catalonia Barcelona Plaza,Plaza Espa a 6 8 Sants Montju c 08014 Barcelona Spain,Barcelona,41.3750293,2.1491172
The Westin Palace,Piazza della Repubblica 20 Central Station 20124 Milan Italy,Milan,45.4790357,9.199028
H tel Saint Marc,36 Rue Saint Marc 2nd arr 75002 Paris France,Paris,48.8708863,2.3382128
Lindner Hotel Am Belvedere,Rennweg 12 03 Landstra e 1030 Vienna Austria,Vienna,48.1955998,16.3826989
H10 Casanova,Gran Via 559 Eixample 08012 Barcelona Spain,Barcelona,41.3842608,2.1609471
Mercure Paris Op ra Faubourg Montmartre,5 Rue de Montyon 9th arr 75009 Paris France,Paris,48.8729639,2.3444899
Eurostars Grand Marina Hotel GL,Moll de Barcelona WTC Ciutat Vella 08039 Barcelona Spain,Barcelona,41.371308,2.181698
Alma Barcelona GL,Mallorca 269 271 Eixample 08008 Barcelona Spain,Barcelona,41.3945074,2.1632659
Canal House,Keizersgracht 148 Amsterdam City Center 1015 CX Amsterdam Netherlands,Amsterdam,52.3763099,4.8862701
Newhotel Roblin,6 rue Chauveau Lagarde 8th arr 75008 Paris France,Paris,48.8714152,2.3239679
La Villa des Ternes,97 avenue des Ternes 17th arr 75017 Paris France,Paris,48.8803479,2.2858242
H tel Elysees Mermoz,30 Rue Jean Mermoz 8th arr 75008 Paris France,Paris,48.8715079,2.3122259
Ashburn Hotel,111 Cromwell Road Kensington and Chelsea London SW7 4DP United Kingdom,London,51.4945522,-0.1861213
H tel Horset Op ra Best Western Premier Collection,18 Rue d Antin 2nd arr 75002 Paris France,Paris,48.8691686,2.3337818
NH Hesperia Barcelona del Mar,Espronceda 6 Sant Mart 08005 Barcelona Spain,Barcelona,41.4014399,2.2100745
JUFA Hotel Wien,Mautner Markhof Gasse 50 11 Simmering 1110 Vienna Austria,Vienna,48.1756283,16.4200957
citizenM Tower of London,40 trinity square City of London London EC3N 4DJ United Kingdom,London,51.510237,-0.0764428
Comfort Inn Suites Kings Cross St Pancras,31 33 Argyle Street Camden London WC1H 8EP United Kingdom,London,51.5289499,-0.1232979
DoubleTree by Hilton London Islington,60 Pentonville Road Islington London N1 9LA United Kingdom,London,51.5322508,-0.1095714
H tel Aiglon Esprit de France,232 Boulevard Raspail 14th arr 75014 Paris France,Paris,48.8396623,2.3300582
The Hub Hotel,Via Privata Polonia 10 20157 Milan Italy,Milan,45.5138582,9.1194759
Novotel Paris Centre Tour Eiffel,61 Quai De Grenelle 15th arr 75015 Paris France,Paris,48.8500283,2.2834126
Sina The Gray,Via San Raffaele 6 Milan City Center 20121 Milan Italy,Milan,45.4655368,9.1914986
H tel Regina Op ra Grands Boulevards,11 Bis rue Mazagran 10th arr 75010 Paris France,Paris,48.8708508,2.3515882
Hotel La Lanterne,12 rue de la Montagne Sainte Genevi ve 5th arr 75005 Paris France,Paris,48.8489839,2.348383
Amp re,102 Avenue de Villiers 17th arr 75017 Paris France,Paris,48.8848583,2.2997023
InterContinental London Park Lane,1 Hamilton Place Park Lane Westminster Borough London W1J 7QY United Kingdom,London,51.5038632,-0.1504132
Hotel Die Port van Cleve,Nieuwezijds Voorburgwal 176 180 Amsterdam City Center 1012 SJ Amsterdam Netherlands,Amsterdam,52.3741426,4.8907741
Jumeirah Lowndes Hotel,Lowndes Street Kensington and Chelsea London SW1X 9ES United Kingdom,London,51.4993652,-0.1576613
Thistle Trafalgar Square The Royal Trafalgar,Whitcomb Street Trafalgar Square Westminster Borough London WC2H 7HG United Kingdom,London,51.509133,-0.130189
Ayre Hotel Rosell n,Rossell 390 Eixample 08025 Barcelona Spain,Barcelona,41.4047382,2.1727127
H tel Crayon Rouge by Elegancia,42 rue Croix des Petits Champs 1st arr 75001 Paris France,Paris,48.8644967,2.3405415
Hotel Georgette,36 rue du Grenier Saint Lazare 3rd arr 75003 Paris France,Paris,48.8632723,2.352691
A La Villa Madame,44 Rue Madame 6th arr 75006 Paris France,Paris,48.8488608,2.3315257
Hotel Whistler,36 rue de Saint Quentin 10th arr 75010 Paris France,Paris,48.879314,2.3560185
Hotel Xanadu,26 42 Bond Street Ealing London W5 5AA United Kingdom,London,51.5117907,-0.306071
Villa Montparnasse,2 Rue Boulard 14th arr 75014 Paris France,Paris,48.8349272,2.3295913
Paris Marriott Rive Gauche Hotel,17 Boulevard Saint Jacques 14th arr 75014 Paris France,Paris,48.8315962,2.3399796
Best Western Bretagne Montparnasse,33 rue Raymond Losserand 14th arr 75014 Paris France,Paris,48.8354314,2.321142
Hotel La Spezia Gruppo MiniHotel,Via La Spezia 25 Famagosta 20142 Milan Italy,Milan,45.4408963,9.1728003
Grand Visconti Palace,Viale Isonzo 14 Porta Romana 20135 Milan Italy,Milan,45.4471408,9.2070051
NH Amsterdam Centre,Stadhouderskade 7 Oud West 1054 ES Amsterdam Netherlands,Amsterdam,52.3630682,4.8794451
Park Hyatt Vienna,Am Hof 2 01 Innere Stadt 1010 Vienna Austria,Vienna,48.2105243,16.3683592
Crowne Plaza Paris R publique,10 Place De La R publique 11th arr 75011 Paris France,Paris,48.8673199,2.3656296
London Marriott Hotel West India Quay,22 Hertsmere Road Tower Hamlets London E14 4ED United Kingdom,London,51.5072713,-0.0211213
Sofitel Vienna Stephansdom,Praterstra e 1 02 Leopoldstadt 1020 Vienna Austria,Vienna,48.212857,16.37986
H tel Paris Bastille Boutet MGallery by Sofitel,22 24 Rue Faidherbe 11th arr 75011 Paris France,Paris,48.8519215,2.3839993
Hilton London Euston,17 18 Upper Woburn Place Camden London WC1H 0HT United Kingdom,London,51.5265189,-0.1303689
Splendid Etoile,1 Avenue Carnot 17th arr 75017 Paris France,Paris,48.874707,2.2936761
The Dylan Amsterdam,Keizersgracht 384 Amsterdam City Center 1016 GB Amsterdam Netherlands,Amsterdam,52.3654686,4.8798713
H tel Mathis Elys es,3 rue de Ponthieu 8th arr 75008 Paris France,Paris,48.8700325,2.3112736
Antares Hotel Rubens,Via Rubens 21 San Siro 20148 Milan Italy,Milan,45.4670579,9.1427822
Hotel De Hallen,Bellamyplein 47 Oud West 1053 AT Amsterdam Netherlands,Amsterdam,52.3677568,4.8682174
Saint James Albany Paris Hotel Spa,202 rue de Rivoli 1st arr 75001 Paris France,Paris,48.8642689,2.3308179
AC Hotel Diagonal L Illa a Marriott Lifestyle Hotel,Avenida Diagonal 555 Les Corts 08029 Barcelona Spain,Barcelona,41.3899609,2.135684
Number Sixteen,16 Sumner Place Kensington and Chelsea London SW7 3EG United Kingdom,London,51.4930905,-0.1755022
Das Triest Hotel,Wiedner Hauptstra e 12 04 Wieden 1040 Vienna Austria,Vienna,48.1974036,16.3673003
Ozo Hotel,Karspeldreef 2 Zuidoost 1101 CJ Amsterdam Netherlands,Amsterdam,52.3047669,4.9476868
Ilunion Bel Art,Lepanto 406 Horta Guinard 08025 Barcelona Spain,Barcelona,41.4101934,2.1695574
Knightsbridge Hotel,10 Beaufort Gardens Kensington and Chelsea London SW3 1PT United Kingdom,London,51.4980052,-0.1643238
The Square Milano Duomo,Via Albricci 2 4 Milan City Center 20122 Milan Italy,Milan,45.4608604,9.1890215
DoubleTree by Hilton Hotel London Marble Arch,4 Bryanston St Marble Arch Westminster Borough London W1H 7BY United Kingdom,London,51.514573,-0.15666
Four Points Sheraton Milan Center,Via Gerolamo Cardano 1 Central Station 20124 Milan Italy,Milan,45.4851889,9.198015
The Corner Hotel,Mallorca 178 Eixample 08036 Barcelona Spain,Barcelona,41.3890578,2.1565948
The Abbey Court Notting Hill,20 Pembridge Gardens Kensington and Chelsea London W2 4DU United Kingdom,London,51.5101401,-0.1968951
Amarante Beau Manoir,6 Rue de l Arcade 8th arr 75008 Paris France,Paris,48.870994,2.3235329
H tel des Champs Elys es,2 Rue d Artois 8th arr 75008 Paris France,Paris,48.8722884,2.3090359
Hotel Tour d Auvergne Opera,10 Rue de la Tour d Auvergne 9th arr 75009 Paris France,Paris,48.8789432,2.3448623
The Levante Parliament A Design Hotel,Auerspergstra e 9 08 Josefstadt 1080 Vienna Austria,Vienna,48.2083518,16.354532
Hotel Sanpi Milano,Via Lazzaro Palazzi 18 Central Station 20124 Milan Italy,Milan,45.4777623,9.203169
Gran Hotel Barcino,Jaume I 6 Ciutat Vella 08002 Barcelona Spain,Barcelona,41.3830582,2.1778267
Arthotel ANA Prime,Sch nbrunner Stra e 41 05 Margareten 1050 Vienna Austria,Vienna,48.1925582,16.3576071
The Athenaeum,116 Piccadilly Westminster Borough London W1J 7BJ United Kingdom,London,51.504716,-0.1475618
Mercure Paris Montmartre Sacr Coeur,3 Rue Caulaincourt 18th arr 75018 Paris France,Paris,48.8852794,2.3301021
Villa Opera Drouot,2 rue Geoffroy Marie 9th arr 75009 Paris France,Paris,48.8732231,2.3436097
Montfleuri,21 Avenue De La Grande Arm e 16th arr 75016 Paris France,Paris,48.8747153,2.2906388
Apex Temple Court Hotel,1 2 Serjeant s Inn Fleet Street City of London London EC4Y 1LL United Kingdom,London,51.5137335,-0.1087512
Hotel V Fizeaustraat,Fizeaustraat 2 Oost 1097 SC Amsterdam Netherlands,Amsterdam,52.3451511,4.9252372
Shaftesbury Metropolis London Hyde Park,78 84 Sussex Gardens Westminster Borough London W2 1UH United Kingdom,London,51.5166887,-0.1706147
COMO Metropolitan London,Old Park Lane Westminster Borough London W1K 1LB United Kingdom,London,51.5050355,-0.1500864
Melia Paris Notre Dame,7 Rue De L h tel Colbert 5th arr 75005 Paris France,Paris,48.8515198,2.3486511
TownHouse 33,Via Carlo Goldoni 33 Citt Studi 20129 Milan Italy,Milan,45.4693349,9.2142383
Baglioni Hotel London The Leading Hotels of the World,60 Hyde Park gate Kensington and Chelsea London SW7 5BB United Kingdom,London,51.5017224,-0.1846243
The Kings Head Hotel,214 High Street Acton London London W3 9NX United Kingdom,London,51.5079153,-0.2730145
The Justin James Hotel,43 Worple Road Wimbledon London SW19 4JZ United Kingdom,London,51.4202661,-0.211268
Albus Hotel Amsterdam City Centre,Vijzelstraat 49 Amsterdam City Center 1017 HE Amsterdam Netherlands,Amsterdam,52.365823,4.893243
H tel Moli re,21 rue Moli re 1st arr 75001 Paris France,Paris,48.8655293,2.3360102
Senator Barcelona Spa Hotel,Cardenal Reig 11 Les Corts 08028 Barcelona Spain,Barcelona,41.3777977,2.1135971
H tel du Minist re,31 Rue de Surene 8th arr 75008 Paris France,Paris,48.8712877,2.3191903
Le Pradey,5 Rue Saint Roch 1st arr 75001 Paris France,Paris,48.8645309,2.3315532
Mercure Paris Opera Louvre,95 Rue de Richelieu 2nd arr 75002 Paris France,Paris,48.8710895,2.3393461
Hyatt Regency Paris Etoile,3 Place du G n ral Koenig 17th arr 75017 Paris France,Paris,48.8802782,2.2843852
NH Collection Amsterdam Grand Hotel Krasnapolsky,Dam 9 Amsterdam City Center 1012 JS Amsterdam Netherlands,Amsterdam,52.3727067,4.8943658
Best Western Delphi Hotel,Apollolaan 101 105 Oud Zuid 1077 AN Amsterdam Netherlands,Amsterdam,52.3504558,4.8770194
Le Cinq Codet,5 rue Louis Codet 7th arr 75007 Paris France,Paris,48.8547869,2.3084819
Best Western Premier Hotel Couture,Delflandlaan 15 Slotervaart 1062 EA Amsterdam Netherlands,Amsterdam,52.3511137,4.8411629
London Marriott Hotel Regents Park,128 King Henry s Road Camden London NW3 3ST United Kingdom,London,51.5421476,-0.1703073
Onix Liceo,Nou de la Rambla 36 Ciutat Vella 08001 Barcelona Spain,Barcelona,41.3780229,2.1730782
The Bailey s Hotel London,140 Gloucester Road Kensington and Chelsea London SW7 4QH United Kingdom,London,51.4938733,-0.1824963
Hotel Prinz Eugen,Wiedner G rtel 14 04 Wieden 1040 Vienna Austria,Vienna,48.1877258,16.3781454
Hotel Capricorno,Schwedenplatz 3 4 01 Innere Stadt 1010 Vienna Austria,Vienna,48.2111522,16.3788631
Le Dokhan s a Tribute Portfolio Hotel,117 Rue Lauriston 16th arr 75116 Paris France,Paris,48.8663359,2.2867935
Hilton Vienna Plaza,Schottenring 11 01 Innere Stadt 1010 Vienna Austria,Vienna,48.2155236,16.3646858
Hotel Mademoiselle,7 Rue des Petits H tels 10th arr 75010 Paris France,Paris,48.8772493,2.3543043
Buddha Bar Hotel Paris,4 rue d Anjou 8th arr 75008 Paris France,Paris,48.8694695,2.3208564
Little Palace Hotel,4 rue Salomon de Caus 3rd arr 75003 Paris France,Paris,48.8675674,2.3539896
London Marriott Hotel Marble Arch,134 George Street Westminster Borough London W1H 5DN United Kingdom,London,51.5163841,-0.1635764
NH Collection Barcelona Podium,Bail n 4 6 Eixample 08010 Barcelona Spain,Barcelona,NA,NA
Mercer Hotel Barcelona,Dels Lledo 7 Ciutat Vella 08003 Barcelona Spain,Barcelona,41.3827,2.1791999
Barcelona Hotel Colonial,Via Layetana 3 Ciutat Vella 08003 Barcelona Spain,Barcelona,41.3822909,2.1807447
Palais Hansen Kempinski Vienna,Schottenring 24 01 Innere Stadt 1010 Vienna Austria,Vienna,48.2163149,16.3685103
Hotel Erzherzog Rainer,Wiedner Hauptstr 27 29 04 Wieden 1040 Vienna Austria,Vienna,48.1953229,16.3672882
The Cranley Hotel,10 Bina Gardens South Kensington Kensington and Chelsea London SW5 0LA United Kingdom,London,51.4916378,-0.1832833
Golden Tulip Bercy Gare de Lyon 209,209 211 rue de Charenton 12th arr 75012 Paris France,Paris,48.8393229,2.3892274
H tel Concorde Montparnasse,40 Rue du Commandant Ren Mouchotte 14th arr 75014 Paris France,Paris,48.8381079,2.318669
Club Quarters Hotel Trafalgar Square,8 Northumberland Avenue Westminster Borough London WC2N 5BY United Kingdom,London,51.506935,-0.126012
Hilton London Olympia,380 Kensington High Street Kensington and Chelsea London W14 8NL United Kingdom,London,51.4967399,-0.2064723
NH Milano Machiavelli,Via Lazzaretto 5 Central Station 20124 Milan Italy,Milan,45.4776167,9.2016244
Melia White House Hotel,Albany Street London NW1 3UP United Kingdom,London,51.5298597,-0.1444623
AZIMUT Hotel Vienna,Sonnwendgasse 8 10 Favoriten 1100 Vienna Austria,Vienna,48.1834787,16.3762765
H tel D Aubusson,33 Rue Dauphine 6th arr 75006 Paris France,Paris,48.8547329,2.3395277
Best Western S vres Montparnasse,153 Rue De Vaugirard 15th arr 75015 Paris France,Paris,48.843707,2.3155631
Holiday Inn London Kensington Forum,97 Cromwell Road Kensington and Chelsea London SW7 4DN United Kingdom,London,51.4942305,-0.1851141
Le Pigalle Hotel,9 rue frochot 9th arr 75009 Paris France,Paris,48.8816073,2.3371648
The Whitechapel,49 53 New Road Tower Hamlets London E1 1HH United Kingdom,London,51.5161286,-0.0624458
DoubleTree by Hilton London Ealing,2 8 Hanger Lane Ealing Common London W5 3HN United Kingdom,London,51.511521,-0.290706
Hotel d Orsay Esprit de France,93 Rue de Lille 7th arr 75007 Paris France,Paris,48.8603599,2.3230778
Camperio House Suites Apartments,Via Camperio 9 Milan City Center 20123 Milan Italy,Milan,45.466598,9.183064
Hotel Astor Saint Honor ,11 Rue d Astorg 8th arr 75008 Paris France,Paris,48.8728324,2.3193886
Hotel Parco di Sch nbrunn Vienna,Ratschkygasse 32 12 Meidling 1120 Vienna Austria,Vienna,48.1776236,16.3243588
Ritz Paris,15 Place Vend me 1st arr 75001 Paris France,Paris,48.8679466,2.3289593
Austria Trend Hotel Rathauspark Wien,Rathausstra e 17 01 Innere Stadt 1010 Vienna Austria,Vienna,48.2133054,16.3567884
Mercure Barcelona Condor,V a Augusta 127 Sarri St Gervasi 08006 Barcelona Spain,Barcelona,41.3999934,2.1452467
The Grand at Trafalgar Square,8 Northumberland Avenue Westminster Borough London WC2N 5BY United Kingdom,London,51.506935,-0.126012
UNA Hotel Mediterraneo,Via L Muratori 14 Porta Romana 20135 Milan Italy,Milan,45.451873,9.20548
Hidden Hotel by Elegancia,28 Rue de l Arc de Triomphe 17th arr 75017 Paris France,Paris,48.8775326,2.293458
NH Collection Milano President,Largo Augusto 10 Milan City Center 20122 Milan Italy,Milan,45.4630685,9.1979367
Hotel Lombardia,Viale Lombardia 74 76 Citt Studi 20131 Milan Italy,Milan,45.4872511,9.2237385
Hotel Daniel Paris,8 rue Fr d ric Bastiat 8th arr 75008 Paris France,Paris,48.8728492,2.3073663
Novotel Paris Vaugirard Montparnasse,257 Rue De Vaugirard 15th arr 75015 Paris France,Paris,48.8399018,2.3031011
Majestic Hotel Spa,30 Rue La P rouse 16th arr 75016 Paris France,Paris,48.8703672,2.2938868
Rocco Forte Brown s Hotel,33 Albemarle Street Mayfair Westminster Borough London W1S 4BP United Kingdom,London,51.5090558,-0.1421661
Dorset Square Hotel,39 40 Dorset Square Hotel Westminster Borough London NW1 6QN United Kingdom,London,51.5226361,-0.1602871
Mercure London Bloomsbury Hotel,130 134 Southampton Row Camden London WC1B 5AF United Kingdom,London,51.5210085,-0.1230966
Mercure Paris Place d Italie,25 Boulevard Auguste Blanqui 13th arr 75013 Paris France,Paris,48.830196,2.3529539
Austria Trend Hotel Ananas Wien,Sonnenhofgasse 8 10 05 Margareten 1050 Vienna Austria,Vienna,48.1915401,16.3546263
Holiday Inn London Camden Lock,30 Jamestown Road Camden London NW1 7BY United Kingdom,London,51.5404555,-0.1460833
Golden Tulip Amsterdam West,Molenwerf 1 1014 AG Amsterdam Netherlands,Amsterdam,52.385601,4.8470597
Best Western Tour Eiffel Invalides,35 Boulevard de la tour Maubourg 7th arr 75007 Paris France,Paris,48.8593152,2.3104179
H tel Baume,7 rue Casimir Delavigne 6th arr 75006 Paris France,Paris,48.8501522,2.3392782
W12 Rooms,54 Uxbridge Road Shepherds Bush Hammersmith and Fulham London W12 8LP United Kingdom,London,51.5045326,-0.2191174
The Ring Vienna s Casual Luxury Hotel,K rntner Ring 8 01 Innere Stadt 1010 Vienna Austria,Vienna,48.2017091,16.3710205
InterContinental Paris Avenue Marceau,64 Avenue Marceau 8th arr 75008 Paris France,Paris,48.8706373,2.2982095
Mandarin Oriental Barcelona,Passeig de Gr cia 38 40 Eixample 08007 Barcelona Spain,Barcelona,41.391393,2.1668467
Holiday Inn Vienna City,Margaretenstra e 53 05 Margareten 1050 Vienna Austria,Vienna,48.1935593,16.3616098
Mondrian London,20 Upper Ground Southwark London SE1 9PD United Kingdom,London,51.5084036,-0.1067988
Staybridge Suites London Stratford,10b Chestnut Plaza Westfield Stratford City Olympic Park Newham London E20 1GL United Kingdom,London,51.5426351,-0.0073272
Monsieur Cadet Hotel Spa Ex Meyerhold Spa ,4 rue Cadet 9th arr 75009 Paris France,Paris,48.8742767,2.3426276
Thistle Kensington Gardens,104 Bayswater Rd Westminster Borough London W2 3HL United Kingdom,London,51.5108439,-0.1839074
De Vere Devonport House,King William Walk Greenwich London SE10 9JW United Kingdom,London,51.480672,-0.0071375
Petit Palais Hotel De Charme,Via Molino Delle Armi 1 Angolo Corso Italia Milan City Center 20123 Milan Italy,Milan,45.4559784,9.1871812
Catalonia La Pedrera,C rcega 368 Eixample 08037 Barcelona Spain,Barcelona,41.3986093,2.1625037
Holiday Inn London Stratford City,10a Chestnut Plaza Westfield Stratford City Olympic Park Newham London E20 1GL United Kingdom,London,51.5426054,-0.0072708
Guitart Grand Passage,Muntaner 212 Eixample 08036 Barcelona Spain,Barcelona,41.3936071,2.1504611
Expo Hotel Barcelona,Mallorca 1 23 Sants Montju c 08014 Barcelona Spain,Barcelona,41.3792053,2.1427989
Fielding Hotel,4 Broad Court Bow Street Covent Garden Westminster Borough London WC2B 5QZ United Kingdom,London,51.5139315,-0.1219893
Alexandra Barcelona A DoubleTree by Hilton,Mallorca 251 Eixample 08008 Barcelona Spain,Barcelona,41.3931918,2.16152
Crowne Plaza Barcelona Fira Center,Avenida Rius y Taulet 1 3 Sants Montju c 08004 Barcelona Spain,Barcelona,41.3725246,2.1540788
Renaissance Amsterdam Hotel,Kattengat 1 Amsterdam City Center 1012 SZ Amsterdam Netherlands,Amsterdam,52.377955,4.894641
H10 Metropolitan 4 Sup,Rambla Catalunya 7 9 Eixample 08007 Barcelona Spain,Barcelona,41.3875467,2.1673975
UNA Hotel Cusani,Via Cusani 13 Milan City Center 20121 Milan Italy,Milan,45.4684251,9.1834161
Hotel Balmes,Mallorca 216 Eixample 08008 Barcelona Spain,Barcelona,41.3910621,2.1593373
Maison Albar H tel Paris Champs Elys es ex Mac Mahon ,3 avenue Mac Mahon 17th arr 75017 Paris France,Paris,48.8753837,2.2944651
H tel de La Tamise Esprit de France,4 rue d Alger 1st arr 75001 Paris France,Paris,48.8648656,2.3295756
Westside Arc de Triomphe Hotel,36 rue Pierre Demours 17th arr 75017 Paris France,Paris,48.8811741,2.2948337
Pullman Paris Centre Bercy,1 Rue De Libourne 12th arr 75012 Paris France,Paris,48.8315204,2.3870797
Copthorne Tara Hotel London Kensington,Scarsdale Place Kensington Kensington and Chelsea London W8 5SY United Kingdom,London,51.499046,-0.1917073
Hotel Dei Cavalieri,Piazza Giuseppe Missori 1 Milan City Center 20123 Milan Italy,Milan,45.4608547,9.1886179
Grange Tower Bridge Hotel,45 Prescot Street City of London London E1 8GP United Kingdom,London,51.5115509,-0.0714919
H tel Le M,20 bis rue de la Ga t 14th arr 75014 Paris France,Paris,48.8397623,2.3235324
Senator Hotel Vienna,Hernalser Hauptstra e 105 17 Hernals 1170 Vienna Austria,Vienna,48.2195864,16.3255339
Pulitzer Amsterdam,Prinsengracht 315 331 Amsterdam City Center 1016 GZ Amsterdam Netherlands,Amsterdam,52.3728353,4.883326
H tel Mayfair Paris,3 Rue Rouget De Lisle 1st arr 75001 Paris France,Paris,48.8661363,2.3260648
Courtyard by Marriott Amsterdam Arena Atlas,Hoogoorddreef 1 Zuidoost 1101 BA Amsterdam Netherlands,Amsterdam,52.3101182,4.9472918
Hotel Rathaus Wein Design,Lange Gasse 13 08 Josefstadt 1080 Vienna Austria,Vienna,48.2075294,16.3525967
Novotel Wien City,Aspernbr ckengasse 1 02 Leopoldstadt 1020 Vienna Austria,Vienna,48.2134246,16.3831309
Mercure Paris Porte d Orleans,13 Rue Fran ois Ory 92120 Paris France,Paris,48.8178079,2.3293636
The Mandeville Hotel,Mandeville Place Westminster Borough London W1U 2BE United Kingdom,London,51.5165165,-0.1509735
D clic Hotel,17 rue Duhesme 18th arr 75018 Paris France,Paris,48.8908018,2.3380204
Mercure Paris Champs Elys es,51 Rue Lauriston 16th arr 75016 Paris France,Paris,48.8699731,2.2909401
South Place Hotel,3 South Place City of London London EC2M 2AF United Kingdom,London,51.5189182,-0.0866009
Avenida Palace,Gran Via 605 Eixample 08007 Barcelona Spain,Barcelona,41.3891168,2.1671986
The Park City Grand Plaza Kensington Hotel,18 30 Lexham Gardens Kensington and Chelsea London W8 5JE United Kingdom,London,51.4954976,-0.1893691
Hotel Montaigne,6 Avenue Montaigne 8th arr 75008 Paris France,Paris,48.865467,2.3038811
The Exhibitionist Hotel,8 10 Queensberry Place Kensington and Chelsea London SW7 2EA United Kingdom,London,51.4947754,-0.177789
Hotel The Serras,Passeig de Colom 9 Ciutat Vella 08002 Barcelona Spain,Barcelona,41.3801815,2.180688
Portobello House,225 Ladbroke Grove Kensington and Chelsea London W10 6HQ United Kingdom,London,51.5199224,-0.2116636
Palazzo Segreti,Via San Tomaso 8 b Milan City Center 20121 Milan Italy,Milan,45.4672309,9.184154
Hotel Arkadenhof,Viriotgasse 5 09 Alsergrund 1090 Vienna Austria,Vienna,48.2307014,16.3552189
Nottingham Place Hotel,37 Nottingham Place Westminster Borough London W1U 5LT United Kingdom,London,51.522143,-0.153385
Catalonia Ramblas 4 Sup,Pelai 28 Ciutat Vella 08002 Barcelona Spain,Barcelona,41.3856387,2.1668274
Hotel Monge,55 rue Monge 5th arr 75005 Paris France,Paris,48.8447938,2.3524462
NH Sants Barcelona,Numancia 74 Les Corts 08029 Barcelona Spain,Barcelona,41.384591,2.1378107
BoB Hotel by Elegancia,30 rue Pernety 14th arr 75014 Paris France,Paris,48.8335233,2.3191194
Pullman Paris Tour Eiffel,18 Avenue De Suffren Entr e au 22 rue Jean Rey 15th arr 75015 Paris France,Paris,48.8555664,2.2926243
The LaLit London,181 Tooley Street Southwark London SE1 2JR United Kingdom,London,51.5032524,-0.078179
H10 Casa Mimosa 4 Sup,Pau Claris 179 Eixample 08037 Barcelona Spain,Barcelona,41.3962106,2.1621171
Monhotel Lounge SPA,1 3 Rue d Argentine 16th arr 75116 Paris France,Paris,48.8743481,2.2897334
H tel Bel Ami,7 11 Rue Saint Benoit 6th arr 75006 Paris France,Paris,48.8550298,2.3332104
Attica 21 Barcelona Mar,Proven als 10 Sant Mart 08019 Barcelona Spain,Barcelona,41.4052324,2.2117289
Hotel Garbi Millenni,Ronda Sant Pau 14 Ciutat Vella 08001 Barcelona Spain,Barcelona,41.3759896,2.167148
Hotel Indigo London Kensington,34 44 Barkston Gardens Kensington and Chelsea London SW5 0EW United Kingdom,London,51.4920287,-0.1917801
Grange Rochester Hotel,69 Vincent Square Westminster Borough London SW1P 2PA United Kingdom,London,51.4942654,-0.1366026
La Tremoille Paris,14 rue de la Tremoille 8th arr 75008 Paris France,Paris,48.8668589,2.3028215
Hotel Verneuil Saint Germain,8 rue de Verneuil 7th arr 75007 Paris France,Paris,48.8573706,2.3314669
Mercure London Bridge,71 79 Southwark Street Southwark London SE1 0JA United Kingdom,London,51.5052587,-0.099176
The Toren,Keizersgracht 164 Amsterdam City Center 1015 CZ Amsterdam Netherlands,Amsterdam,52.3758754,4.8859642
Hotel Moonlight,9 Knaresborough Place Kensington and Chelsea London SW5 0TP United Kingdom,London,51.4940285,-0.1910497
Hotel Alimara,Berruguete 126 Horta Guinard 08035 Barcelona Spain,Barcelona,41.4337561,2.147327
Best Western Premier Le Swann,15 rue de Constantinople 8th arr 75008 Paris France,Paris,48.8797331,2.3206003
The Beaumont Hotel,8 Balderton Street Brown Hart Gardens Westminster Borough London W1K 6TF United Kingdom,London,51.513055,-0.152257
The Langham London,Portland Place Westminster Borough London W1B 1JA United Kingdom,London,51.517876,-0.1440647
Hotel Pension Baron am Schottentor,W hringer Stra e 12 09 Alsergrund 1090 Vienna Austria,Vienna,NA,NA
Etoile Saint Ferdinand,36 rue Saint Ferdinand 17th arr 75017 Paris France,Paris,48.8777895,2.2872498
Hotel Granados 83,Enrique Granados 83 Eixample 08008 Barcelona Spain,Barcelona,41.391843,2.156844
Le Narcisse Blanc Spa,19 Boulevard De La Tour Maubourg 7th arr 75007 Paris France,Paris,48.8605125,2.3106533
Senato Hotel Milano,Via Senato 22 Milan City Center 20121 Milan Italy,Milan,45.4714062,9.1965303
Haymarket Hotel,1 Suffolk Place Westminster Borough London SW1Y 4HX United Kingdom,London,51.5084595,-0.1311382
Gran Hotel Torre Catalunya,Avenida Roma 2 4 Sants Montju c 08014 Barcelona Spain,Barcelona,41.3795572,2.1425457
The Queens Gate Hotel,31 34 Queen s Gate Kensington and Chelsea London SW7 5JA United Kingdom,London,51.4981225,-0.1799693
Roger de Ll ria,Roger de Lluria 28 Eixample 08010 Barcelona Spain,Barcelona,41.3910786,2.1717285
The Hoxton Shoreditch,81 Great Eastern Street Islington London EC2A 3HU United Kingdom,London,51.5255136,-0.082927
Hotel Eiffel Blomet,78 Rue Blomet 15th arr 75015 Paris France,Paris,48.8416787,2.3022862
The Sumner Hotel,54 Upper Berkeley Street Westminster Borough London W1H 7QR United Kingdom,London,51.5152892,-0.160898
Hilton Garden Inn Milan North,Via Lucio Giunio Columella 36 Distretto Viale Monza 20128 Milan Italy,Milan,45.5161671,9.2272778
Inntel Hotels Amsterdam Centre,Nieuwezijdskolk 19 Amsterdam City Center 1012 PV Amsterdam Netherlands,Amsterdam,52.3760456,4.8943917
La Maison Favart,5 Rue Marivaux 2nd arr 75002 Paris France,Paris,48.870808,2.3372737
Waldorf Astoria Amsterdam,Herengracht 542 556 Amsterdam City Center 1017 CG Amsterdam Netherlands,Amsterdam,52.364768,4.896945
Hilton Milan,Via Luigi Galvani 12 Central Station 20124 Milan Italy,Milan,45.4862032,9.200322
Bcn Urban Hotels Gran Rosellon,Rosell n 174 176 Eixample 08036 Barcelona Spain,Barcelona,41.4226648,2.1464261
Flemings Mayfair,Half Moon Street Westminster Borough London W1J 7BH United Kingdom,London,51.5064607,-0.1454198
Catalonia Atenas,Avenida Meridiana 151 Sant Mart 08026 Barcelona Spain,Barcelona,41.4110056,2.1866009
La Chambre du Marais,85 87 RUE DES ARCHIVES 3rd arr 75003 Paris France,Paris,48.8636168,2.3607998
Hotel Nestroy Wien,Rotensterngasse 7a 02 Leopoldstadt 1020 Vienna Austria,Vienna,48.2178332,16.3821636
Mercure Paris Montparnasse Raspail,207 Boulevard Raspail 14th arr 75014 Paris France,Paris,48.8412131,2.3302954
AC Hotel Irla a Marriott Lifestyle Hotel,Calvet 40 42 Sarri St Gervasi 08021 Barcelona Spain,Barcelona,41.3948175,2.1434702
Seraphine Kensington Gardens Hotel,7 9 High Street Kensington Kensington and Chelsea London W8 5NP United Kingdom,London,51.5021027,-0.187901
Hotel Le Sainte Beuve,9 Rue Sainte Beuve 6th arr 75006 Paris France,Paris,48.8438998,2.3294858
Best Western Op ra Batignolles,165 rue de Rome 17th arr 75017 Paris France,Paris,48.8870573,2.3143297
Hotel Trianon Rive Gauche,1 Bis Rue De Vaugirard 6th arr 75006 Paris France,Paris,48.8487675,2.3410376
TownHouse Galleria,Via Silvio Pellico 8 Milan City Center 20121 Milan Italy,Milan,45.4657842,9.1895321
Mercure Hotel Amsterdam City South,Joan Muyskenweg 10 Oost 1096 CJ Amsterdam Netherlands,Amsterdam,52.335182,4.9138688
Hotel Barcelona Center,Balmes 103 105 Eixample 08008 Barcelona Spain,Barcelona,41.3917169,2.1592614
London Marriott Hotel Park Lane,140 Park Lane Westminster Borough London W1K 7AA United Kingdom,London,51.5131428,-0.1576714
H tel des Academies et des Arts,15 Rue De La Grande Chaumi re 6th arr 75006 Paris France,Paris,48.8420669,2.3304091
H tel Pont Royal,5 7 Rue De Montalembert 7th arr 75007 Paris France,Paris,48.8565629,2.3273623
The Royal Park Hotel,3 Westbourne Terrace Lancaster Gate Westminster Borough London W2 3UL United Kingdom,London,51.5142054,-0.1766098
H tel Recamier,3 Bis Place Saint Sulpice 6th arr 75006 Paris France,Paris,48.8503493,2.3344305
H tel San R gis,12 Rue Jean Goujon 8th arr 75008 Paris France,Paris,48.8665788,2.3084447
Hotel Sunflower,Piazzale Lugano 10 Bovisa 20158 Milan Italy,Milan,45.498503,9.1664111
The Rockwell,181 Cromwell Road Kensington and Chelsea London SW5 0SF United Kingdom,London,51.4948059,-0.1926525
Silken Gran Hotel Havana,Gran V a de Les Corts Catalanes 647 Eixample 08010 Barcelona Spain,Barcelona,41.3927101,2.1722139
Warwick Paris Former Warwick Champs Elysees ,5 rue de Berri 8th arr 75008 Paris France,Paris,48.8722019,2.3030866
The Montcalm Marble Arch,2 Wallenberg Place Westminster Borough London W1H 7TN United Kingdom,London,51.5150522,-0.159239
The Capital,Basil Street Knightsbridge Kensington and Chelsea London SW3 1AT United Kingdom,London,51.4997486,-0.1615242
Klima Hotel Milano Fiere,Via Venezia Giulia 8 20157 Milan Italy,Milan,45.5147974,9.116606
Okko Hotels Paris Porte De Versailles,2 Rue du Colonel Pierre Avia 15th arr 75015 Paris France,Paris,48.8327729,2.2787597
Hotel Eitlj rg,Filmteichstra e 5 10 Favoriten 1100 Vienna Austria,Vienna,48.1513676,16.4064709
Hotel Gallitzinberg,Johann Staud Stra e 32 16 Ottakring 1160 Vienna Austria,Vienna,48.2145071,16.2845042
Au Manoir Saint Germain,153 Boulevard Saint Germain 6th arr 75006 Paris France,Paris,48.853688,2.3322667
Castille Paris Starhotels Collezione,33 Rue Cambon 1st arr 75001 Paris France,Paris,48.8682978,2.3268027
Hotel Maison Ath n e,19 Rue De Caumartin 9th arr 75009 Paris France,Paris,48.8713421,2.3280723
Nhow Milan,Via Tortona 35 Navigli 20144 Milan Italy,Milan,45.4510425,9.1606536
The Chelsea Harbour Hotel,Chelsea Harbour Hammersmith and Fulham London SW10 0XG United Kingdom,London,51.4756558,-0.1813888
Bentley London,27 33 Harrington Gardens Kensington and Chelsea London SW7 4JX United Kingdom,London,51.4928147,-0.1841753
The Rembrandt,11 Thurloe Place Knightsbridge Kensington and Chelsea London SW7 2RS United Kingdom,London,51.4959227,-0.1702917
Hilton London Tower Bridge,5 More London Place Tooley Street Southwark London SE1 2BY United Kingdom,London,51.504575,-0.082675
Vilana Hotel,Vilana 7 Sarri St Gervasi 08017 Barcelona Spain,Barcelona,41.4047934,2.1288527
Mercure Paris Opera Grands Boulevards,42 Rue Des Petites Ecuries 10th arr 75010 Paris France,Paris,48.8740668,2.3502172
Pertschy Palais Hotel,Habsburgergasse 5 01 Innere Stadt 1010 Vienna Austria,Vienna,48.2082256,16.3684123
Draycott Hotel,26 Cadogan Gardens Kensington and Chelsea London SW3 2RP United Kingdom,London,51.4930097,-0.159715
Hotel du Vin Cannizaro House Wimbledon,Westside Wimbledon Common Wimbledon London SW19 4UE United Kingdom,London,51.4242413,-0.2293503
InterContinental Wien,Johannesgasse 28 03 Landstra e 1030 Vienna Austria,Vienna,48.2019865,16.3789934
Starhotels Echo,Viale Andrea Doria 4 Central Station 20124 Milan Italy,Milan,45.4847398,9.2072916
Courtyard by Marriott Vienna Schoenbrunn,Sch nbrunner Schlossstra e 38 40 12 Meidling 1120 Vienna Austria,Vienna,48.184732,16.3211959
Mercure Vienna First,Desider Friedmann Platz 2 01 Innere Stadt 1010 Vienna Austria,Vienna,48.2114567,16.3738677
Hotel Pulitzer Paris,23 rue du Faubourg Montmartre 9th arr 75009 Paris France,Paris,48.8731996,2.3425446
Le Metropolitan a Tribute Portfolio Hotel,10 Place De Mexico 16th arr 75016 Paris France,Paris,48.8656973,2.2829776
Le Marcel,11 rue du 8 Mai 1945 10th arr 75010 Paris France,Paris,48.8761376,2.3572681
UNA Hotel Scandinavia,Via Giovanni Battista Fauch Sempione 20154 Milan Italy,Milan,45.4859983,9.1637603
Grange City Hotel,Coopers Row City of London London EC3N 2BQ United Kingdom,London,51.5110114,-0.0771251
Mokinba Hotels Baviera,Via Panfilo Castaldi 7 Central Station 20124 Milan Italy,Milan,45.4782808,9.1997755
Millennium Hotel Paris Opera,12 Boulevard Haussmann 9th arr 75009 Paris France,Paris,48.8724588,2.3378004
Chateau Frontenac,54 rue Pierre Charron 8th arr 75008 Paris France,Paris,48.8689468,2.3026559
Vincci Maritimo,Llull 340 Sant Mart 08019 Barcelona Spain,Barcelona,41.4082054,2.2124626
The Trafalgar Hilton,2 Spring Gardens Trafalgar Square Westminster Borough London SW1A 2TS United Kingdom,London,51.507374,-0.129135
NH Milano Touring,Via Tarchetti 2 Milan City Center 20121 Milan Italy,Milan,45.4769167,9.196665
Good Hotel London,Western Gateway Newham London E16 1FA United Kingdom,London,51.5084195,0.0253216
St James Court A Taj Hotel London,41 54 Buckingham Gate Westminster Borough London SW1E 6AF United Kingdom,London,51.4986732,-0.1376867
Best Western Allegro Nation,33 Avenue Du Docteur Arnold Netter 12th arr 75012 Paris France,Paris,48.8430891,2.4049867
Auteuil Tour Eiffel,8 10 Rue F licien David 16th arr 75016 Paris France,Paris,48.8506499,2.2750873
Mercure Amsterdam Sloterdijk Station,Naritaweg 1 Westpoort 1043 BP Amsterdam Netherlands,Amsterdam,52.3872884,4.8349748
Hotel G tico,Jaime I 14 Ciutat Vella 08002 Barcelona Spain,Barcelona,41.3835584,2.178311
Hotel Amadeus,Wildpretmarkt 5 01 Innere Stadt 1010 Vienna Austria,Vienna,48.2104468,16.3715781
Hotel Lam e,Rotenturmstra e 15 01 Innere Stadt 1010 Vienna Austria,Vienna,48.2102677,16.3741269
Novotel London Tower Bridge,10 Pepys Street City of London London EC3N 2NR United Kingdom,London,51.5106538,-0.0773676
Mercure Paris Gare Montparnasse,20 Rue De La Ga t 14th arr 75014 Paris France,Paris,NA,NA
Kingsway Hall Hotel,66 Great Queen Street Covent Garden Camden London WC2B 5BX United Kingdom,London,51.5158643,-0.1200625
Amba Hotel Marble Arch,Bryanston Street Marble Arch Westminster Borough London W1H 7EH United Kingdom,London,51.5144004,-0.1565506
Sixtytwo Hotel,Passeig de Gracia 62 Eixample 08007 Barcelona Spain,Barcelona,41.3930168,2.1646148
Le M ridien Barcelona,Ramblas 111 Ciutat Vella 08002 Barcelona Spain,Barcelona,41.3837453,2.171014
Hotel Pierre Milano,Via De Amicis 32 Milan City Center 20123 Milan Italy,Milan,45.4595203,9.1770004
Best Western Mornington Hotel Hyde Park,12 Lancaster Gate Lancaster Gate Westminster Borough London W2 3LG United Kingdom,London,51.5119933,-0.1782794
Hotel Spadari Al Duomo,Via Spadari 11 Milan City Center 20123 Milan Italy,Milan,45.463579,9.1869092
Hotel Barcelona Universal,Avinguda Paral lel 76 78 Ciutat Vella 08001 Barcelona Spain,Barcelona,41.375237,2.1684058
Maison Borella,Alzaia Naviglio Grande 8 Navigli 20144 Milan Italy,Milan,45.4521067,9.1758135
Negresco Princess 4 Sup,Roger de Lluria 16 18 Eixample 08010 Barcelona Spain,Barcelona,41.3905166,2.1725643
Art Hotel Navigli,Via Angelo Carlo Fumagalli 4 Navigli 20143 Milan Italy,Milan,45.4501306,9.1696481
Mercure Paris Notre Dame Saint Germain des Pr s,20 rue du Sommerard 5th arr 75005 Paris France,Paris,48.8503074,2.3450612
Vincci Bit,Josep Pla 69 Sant Mart 08019 Barcelona Spain,Barcelona,41.4114188,2.211756
Ibis Styles Paris Gare Saint Lazare,9 Rue de Constantinople 8th arr 75008 Paris France,Paris,48.8796596,2.3209155
Hallmark Hotel London Chigwell Prince Regent,Manor Road London IG8 8AE United Kingdom,London,51.6068054,0.0590416
Amba Hotel Charing Cross,The Strand Westminster Borough London WC2N 5HX United Kingdom,London,51.508236,-0.1261963
Brunelleschi Hotel,Via Baracchini 12 Milan City Center 20123 Milan Italy,Milan,45.461177,9.191047
Hotel 4 Barcelona,Doctor Trueta 164 Sant Mart 08005 Barcelona Spain,Barcelona,41.3959587,2.2008981
Hilton London Kensington Hotel,Holland Park Avenue Kensington and Chelsea London W11 4UL United Kingdom,London,51.5051084,-0.213266
H tel Le Walt,37 Avenue De La Motte Picquet 7th arr 75007 Paris France,Paris,48.8547161,2.306642
Hotel Imlauer Wien,Rotensterngasse 10 02 Leopoldstadt 1020 Vienna Austria,Vienna,48.2176776,16.3821364
Crowne Plaza London Kensington,100 Cromwell Road Kensington and Chelsea London SW7 4ER United Kingdom,London,51.495179,-0.183827
H tel Lancaster Paris Champs Elys es,7 rue de Berri 8th arr 75008 Paris France,Paris,48.8723438,2.3033378
H tel Arvor Saint Georges,8 rue Laferriere 9th arr 75009 Paris France,Paris,48.8785454,2.3384866
London Marriott Hotel Kensington,147 Cromwell Road Kensington and Chelsea London SW5 0TH United Kingdom,London,51.4944849,-0.1884174
Mercure Paris Centre Tour Eiffel,20 Rue Jean Rey 15th arr 75015 Paris France,Paris,48.8548641,2.2923181
Monument Hotel,Paseo de Gracia 75 Eixample 08008 Barcelona Spain,Barcelona,41.3939082,2.1622556
H tel De Castiglione,38 Rue Du Faubourg Saint Honore 8th arr 75008 Paris France,Paris,48.8691758,2.3205807
Best Western Le Jardin de Cluny,9 Rue du Sommerard 5th arr 75005 Paris France,Paris,48.8497553,2.3467616
Le Senat,10 rue de Vaugirard 6th arr 75006 Paris France,Paris,48.8491427,2.3397118
Holiday Inn Paris Gare de Lyon Bastille,11 15 Rue De Lyon 12th arr 75012 Paris France,Paris,48.8468064,2.3714789
Hotel Schild,Neustift am Walde 97 99 19 D bling 1190 Vienna Austria,Vienna,48.251195,16.2989165
H tel La Parizienne by Elegancia,33 Boulevard du Montparnasse 6th arr 75006 Paris France,Paris,48.8450894,2.3209503
K K Hotel Maria Theresia,Kirchberggasse 6 07 Neubau 1070 Vienna Austria,Vienna,48.2031622,16.3561999
Grange Strathmore Hotel,41 Queens Gate Gardens Kensington and Chelsea London SW7 5NB United Kingdom,London,51.4958184,-0.1813958
Hotel Design Secret de Paris,2 Rue De Parme 9th arr 75009 Paris France,Paris,48.8814056,2.3282568
25hours Hotel beim MuseumsQuartier,Lerchenfelder Stra e 1 3 07 Neubau 1070 Vienna Austria,Vienna,48.2064745,16.3546297
Hotel Kavalier,Linzer Stra e 165 14 Penzing 1140 Vienna Austria,Vienna,48.1940487,16.2971831
Duquesa de Cardona,Passeig Colom 12 Ciutat Vella 08002 Barcelona Spain,Barcelona,41.3798658,2.1805271
Cotton House Hotel Autograph Collection,Gran V a de les Corts Catalanes 670 Eixample 08010 Barcelona Spain,Barcelona,41.3915897,2.1720108
Novotel London Wembley,5 Olympic Way Wembley Brent London HA9 0NP United Kingdom,London,51.5611271,-0.2787261
H10 Cubik 4 Sup,V a Laietana 69 Ciutat Vella 08003 Barcelona Spain,Barcelona,41.388024,2.1731556
Eurostars Angli,Angli 60 Sarri St Gervasi 08017 Barcelona Spain,Barcelona,41.4031654,2.1231637
H tel Duc De St Simon,14 Rue St Simon 7th arr 75007 Paris France,Paris,48.8560685,2.3236846
Falkensteiner Hotel Wien Margareten,Margareteng rtel 142 05 Margareten 1050 Vienna Austria,Vienna,48.1868107,16.3440157
The Royal Horseguards,2 Whitehall Court Westminster Borough London SW1A 2EJ United Kingdom,London,51.5054185,-0.1241499
Shepherd s Bush Boutique Hotel,11 12 Poplar Mews Shepherd s Bush Hammersmith and Fulham London W12 7JS United Kingdom,London,51.5054544,-0.2262216
Hotel Marignan Champs Elys es,12 rue de Marignan 8th arr 75008 Paris France,Paris,48.8685093,2.3067895
H tel De Buci by MH,22 rue de Buci 6th arr 75006 Paris France,Paris,48.8538752,2.3366123
Olivia Plaza Hotel,Plaza de Catalunya 19 Ciutat Vella 08002 Barcelona Spain,Barcelona,41.3861459,2.1711594
H tel De Vend me,1 Place Vend me 1st arr 75001 Paris France,Paris,48.8668564,2.3286339
Carlyle Brera Hotel,Corso Garibaldi 84 Milan City Center 20121 Milan Italy,Milan,45.4769923,9.1844899
Austria Trend Hotel Savoyen Vienna,Rennweg 16 03 Landstra e 1030 Vienna Austria,Vienna,48.1950444,16.3844751
Room Mate Gerard,Ausi s Marc 34 Eixample 08010 Barcelona Spain,Barcelona,41.3919114,2.1765438
Best Western Blue Tower Hotel,Leeuwendalersweg 21 Bos en Lommer 1055 JE Amsterdam Netherlands,Amsterdam,52.3793659,4.8457179
citizenM London Bankside,20 Lavington Street Southwark London SE1 0NZ United Kingdom,London,51.5051507,-0.1004724
Abba Garden,Santa Rosa Esplugues 33 08950 Barcelona Spain,Barcelona,41.3854716,2.1018835
H tel Du Jeu De Paume,54 Rue Saint Louis En L Ile 4th arr 75004 Paris France,Paris,48.8520377,2.3557092
Hotel Atmospheres,29 31 rue des Ecoles 5th arr 75005 Paris France,Paris,48.8485387,2.3479852
Park International Hotel,117 129 Cromwell Road Kensington and Chelsea London SW7 4DS United Kingdom,London,51.4945144,-0.1866172
MARQUIS Faubourg St Honor Relais Ch teaux,8 rue d Anjou 8th arr 75008 Paris France,Paris,48.8698184,2.3208729
IH Hotels Milano Ambasciatori,Galleria Del Corso 3 Milan City Center 20122 Milan Italy,Milan,45.4644348,9.1952727
WestCord Art Hotel Amsterdam 4 stars,Spaarndammerdijk 304 Westerpark 1013 ZX Amsterdam Netherlands,Amsterdam,52.3924898,4.8683822
W London Leicester Square,10 Wardour Street Leicester Square Westminster Borough London W1D 6QF United Kingdom,London,51.510843,-0.1314287
Villa Alessandra,9 Place Boulnois 17th arr 75017 Paris France,Paris,48.8794223,2.2957628
Condes de Barcelona,Paseo de Gracia 73 Eixample 08008 Barcelona Spain,Barcelona,41.3935497,2.1627098
Park Grand London Kensington,33 37 Hogarth Road Kensington and Chelsea London SW5 0QQ United Kingdom,London,51.4938468,-0.1917582
Club Hotel Cortina,Hietzinger Hauptstra e 134 13 Hietzing 1130 Vienna Austria,Vienna,48.1877942,16.2727214
Taj 51 Buckingham Gate Suites and Residences,Buckingham Gate Westminster Borough London SW1E 6AF United Kingdom,London,51.498861,-0.1374897
NH Hesperia Barcelona Presidente,Avenida Diagonal 570 Sarri St Gervasi 08021 Barcelona Spain,Barcelona,41.3941338,2.1489569
Hotel Casa Camper,Elisabets 11 Ciutat Vella 08001 Barcelona Spain,Barcelona,41.3832414,2.1685298
Le 123 S bastopol Astotel,123 boulevard S bastopol 2nd arr 75002 Paris France,Paris,48.8675886,2.3531018
Rafayel Hotel Spa,34 Lombard Road Battersea London SW11 3RF United Kingdom,London,51.4703604,-0.1779869
Axel Hotel Barcelona Urban Spa Adults Only,Aribau 33 Eixample 08011 Barcelona Spain,Barcelona,41.3873478,2.1603987
Rosewood London,252 High Holborn Holborn Camden London WC1V 7EN United Kingdom,London,51.5173303,-0.1180966
The Levin Hotel,28 Basil Street Kensington and Chelsea London SW3 1AS United Kingdom,London,51.4998574,-0.161717
Le 123 Elysees Astotel,123 Rue Du Faubourg Saint Honor 8th arr 75008 Paris France,Paris,48.8730823,2.309659
H tel Champs lys es Plaza,35 Rue De Berri 8th arr 75008 Paris France,Paris,48.8737043,2.3061477
Eurostars Ramblas,La Rambla 22 24 Ciutat Vella 08002 Barcelona Spain,Barcelona,41.3780983,2.1762005
Novotel London City South,53 61 Southwark Bridge Road Southwark London SE1 9HH United Kingdom,London,51.5054832,-0.0951196
Mimi s Hotel Soho,56 57 Frith Street Westminster Borough London W1D 3JG United Kingdom,London,51.5140329,-0.1320651
H10 Itaca,Avenida Roma 22 30 Eixample 08015 Barcelona Spain,Barcelona,41.3810311,2.1455516
Gallery Hotel,Rossell 249 Eixample 08008 Barcelona Spain,Barcelona,41.3949242,2.1593099
Caesar Hotel,26 33 Queens Gardens Westminster Borough London W2 3BE United Kingdom,London,51.5134603,-0.1833081
DO CO Hotel Vienna,Stephansplatz 12 01 Innere Stadt 1010 Vienna Austria,Vienna,48.2082385,16.3715725
Hotel Louis 2,2 Rue Saint Sulpice 6th arr 75006 Paris France,Paris,48.8516148,2.3381293
B Montmartre,6 Rue Lecluse 17th arr 75017 Paris France,Paris,48.883631,2.3257643
Les Plumes Hotel,10 rue Lamartine 9th arr 75009 Paris France,Paris,48.8766269,2.3432886
Arion Cityhotel Vienna und Appartements,Hintschiggasse 1 10 Favoriten 1100 Vienna Austria,Vienna,48.1585332,16.3451115
Hotel Murmuri Barcelona,Rambla Catalunya 104 Eixample 08008 Barcelona Spain,Barcelona,41.3941625,2.1597836
Roomz Vienna,Paragonstra e 1 11 Simmering 1110 Vienna Austria,Vienna,NA,NA
H tel Gustave,34 Rue Viala 15th arr 75015 Paris France,Paris,48.8502052,2.289043
Le Tsuba Hotel,45 Rue des Acacias 17th arr 75017 Paris France,Paris,48.8777621,2.293177
The Waldorf Hilton,Aldwych Westminster Borough London WC2B 4DD United Kingdom,London,51.5131979,-0.1174504
Hotel JL No76,Jan Luijkenstraat 76 Oud Zuid 1071 CT Amsterdam Netherlands,Amsterdam,52.3595919,4.8801587
H tel Th r se,5 7 Rue Th r se 1st arr 75001 Paris France,Paris,48.8816306,2.2992146
INK Hotel Amsterdam MGallery by Sofitel,Nieuwezijds Voorburgwal 67 Amsterdam City Center 1012 RE Amsterdam Netherlands,Amsterdam,52.3754926,4.8929878
Radisson Blu Hotel Milan,Via Villapizzone 24 Certosa 20156 Milan Italy,Milan,45.500667,9.1445874
Starhotels Business Palace,Via Pietro Gaggia 3 Ripamonti Corvetto 20139 Milan Italy,Milan,45.43784,9.230901
Garden Elys e,12 rue Saint Didier 16th arr 75016 Paris France,Paris,48.8663444,2.2881979
Chasse Hotel,Chassestraat 62 64 De Baarsjes 1057 JJ Amsterdam Netherlands,Amsterdam,52.3696719,4.8614475
Hotel D Este,Viale Bligny 23 Milan City Center 20136 Milan Italy,Milan,45.4510397,9.1920911
citizenM Amsterdam,Prinses Irenestraat 30 Zuideramstel 1077 WX Amsterdam Netherlands,Amsterdam,52.3419432,4.8759604
Majestic Hotel Spa Barcelona GL,Passeig de Gracia 68 Eixample 08007 Barcelona Spain,Barcelona,41.3935179,2.1639813
Arbor Hyde Park,36 37 Lancaster Gate Westminster Borough London W2 3NA United Kingdom,London,51.5126488,-0.1803795
The Marylebone Hotel,47 Welbeck Street Westminster Borough London W1G 8DN United Kingdom,London,51.5180207,-0.1500567
Hotel 1898,La Rambla 109 Ciutat Vella 08002 Barcelona Spain,Barcelona,41.3834673,2.1712016
Hotel Indigo Barcelona Plaza Catalunya,Gran Via de las Corts Catalanes 629 Eixample 08010 Barcelona Spain,Barcelona,41.391362,2.1700953
Renaissance Barcelona Hotel,Pau Clar s 122 Eixample 08009 Barcelona Spain,Barcelona,NA,NA
Courtyard by Marriott Vienna Prater Messe,Trabrennstra e 4 02 Leopoldstadt 1020 Vienna Austria,Vienna,48.2130607,16.4133973
De L Europe Amsterdam,Nieuwe Doelenstraat 2 14 Amsterdam City Center 1012 CP Amsterdam Netherlands,Amsterdam,52.3678779,4.8948936
Hilton London Metropole,225 Edgware Road Westminster Borough London W2 1JU United Kingdom,London,51.5195688,-0.170521
NH Amsterdam Museum Quarter,Hobbemakade 50 Oud Zuid 1071 XL Amsterdam Netherlands,Amsterdam,52.3560923,4.8858229
Leonardo Hotel Milan City Center,Via Messina 10 Sempione 20154 Milan Italy,Milan,45.482442,9.1756982
Apex London Wall Hotel,7 9 Copthall Avenue City of London London EC2R 7NJ United Kingdom,London,51.5160484,-0.0880181
R Kipling by Happyculture,65 rue Blanche 9th arr 75009 Paris France,Paris,48.8820838,2.3315849
Pakat Suites Hotel,Mommsengasse 5 04 Wieden 1040 Vienna Austria,Vienna,48.19183,16.3770876
Hotel Espa a Ramblas,Sant Pau 9 11 Ciutat Vella 08001 Barcelona Spain,Barcelona,41.3799209,2.1728181
Holiday Inn Paris Gare Montparnasse,79 81 avenue du Maine 14th arr 75014 Paris France,Paris,48.8382916,2.3230188
K West Hotel Spa,Richmond Way Hammersmith and Fulham London W14 0AX United Kingdom,London,51.5013149,-0.2174459
Hotel L Antoine,10 12 rue de Charonne 11th arr 75011 Paris France,Paris,48.8524215,2.3743832
Tryp Barcelona Condal Mar Hotel,Crist bal de Moura 138 Sant Mart 08019 Barcelona Spain,Barcelona,41.4126508,2.2090895
The Goring,15 Beeston Place Westminster Borough London SW1W 0JW United Kingdom,London,51.4975621,-0.145551
Armani Hotel Milano,Via Manzoni 31 Milan City Center 20121 Milan Italy,Milan,45.470532,9.19302
Abba Sants,Numancia 32 Sants Montju c 08029 Barcelona Spain,Barcelona,41.3825777,2.1400103
Sanderson A Morgans Hotel,50 Berners Street Westminster Borough London W1T 3NG United Kingdom,London,51.5174853,-0.1372109
Radisson Blu Edwardian Kenilworth,97 Great Russell Street Bloomsbury Camden London WC1B 3LB United Kingdom,London,51.5179725,-0.1280495
Hotel Stefanie,Taborstra e 12 02 Leopoldstadt 1020 Vienna Austria,Vienna,48.2142766,16.3801779
Room Mate Carla,Mallorca 288 Eixample 08037 Barcelona Spain,Barcelona,41.3962658,2.1662153
The Colonnade,2 Warrington Crescent Westminster Borough London W9 1ER United Kingdom,London,51.5243286,-0.1846623
Glam Milano,Piazza Duca D Aosta 4 6 Central Station 20124 Milan Italy,Milan,45.4838504,9.2034067
Royal Ramblas,Las Ramblas 117 Ciutat Vella 08002 Barcelona Spain,Barcelona,41.3842838,2.1707092
Hotel Claridge Paris,37 rue Fran ois 1er 8th arr 75008 Paris France,Paris,48.8684243,2.3036244
Maxim Op ra,13 rue Geoffroy Marie 9th arr 75009 Paris France,Paris,48.8738557,2.3444232
Mokinba Hotels King,Corso Magenta 19 Milan City Center 20123 Milan Italy,Milan,45.4656023,9.1778675
NH Collection Amsterdam Doelen,Nieuwe Doelenstraat 24 Amsterdam City Center 1012 CP Amsterdam Netherlands,Amsterdam,52.3681919,4.8957609
Malmaison London,18 21 Charterhouse Square Islington London EC1M 6AH United Kingdom,London,51.520943,-0.1004581
Shaftesbury Suites London Marble Arch,41 Great Cumberland Place Westminster Borough London W1H 7LG United Kingdom,London,51.515755,-0.1603335
H tel Brighton Esprit de France,218 rue de Rivoli 1st arr 75001 Paris France,Paris,48.8649306,2.3290844
Molitor Paris MGallery by Sofitel,2 avenue la Porte Molitor 16th arr 75016 Paris France,Paris,48.8448902,2.252833
DoubleTree By Hilton London Excel,Excel 2 Festoon Way Royal Victoria Dock Newham London E16 1RH United Kingdom,London,51.507377,0.038657
Andaz London Liverpool Street,40 Liverpool Street City of London London EC2M 7QN United Kingdom,London,51.5172825,-0.0812451
Bradford Elys es Astotel,10 rue Saint Philippe du Roule 8th arr 75008 Paris France,Paris,48.8729676,2.3081178
Eurostars Embassy,Landstra er Hauptstra e 120 03 Landstra e 1030 Vienna Austria,Vienna,48.1964001,16.3958668
Element Amsterdam,Arend Janszoon Ernststraat 577 Zuideramstel 1082 LD Amsterdam Netherlands,Amsterdam,52.3312406,4.8774466
Mercure Wien Zentrum,Fleischmarkt 1a 01 Innere Stadt 1010 Vienna Austria,Vienna,48.2114087,16.3746469
The Berkeley,Wilton Place Knightsbridge Westminster Borough London SW1X 7RL United Kingdom,London,51.5020912,-0.1577795
Hilton Diagonal Mar Barcelona,Passeig del Taulat 262 264 Sant Mart 08019 Barcelona Spain,Barcelona,41.4084334,2.2178205
Hotel Da Vinci,Via Senigallia 6 20161 Milan Italy,Milan,45.5331372,9.1711019
Eurohotel Diagonal Port,Lope de Vega 4 Sant Mart 08005 Barcelona Spain,Barcelona,41.4006708,2.2087844
Hampshire Hotel Rembrandt Square Amsterdam,Amstelstraat 17 Amsterdam City Center 1017 DA Amsterdam Netherlands,Amsterdam,52.3663466,4.8985764
Franklin Roosevelt,18 rue Clement Marrot 8th arr 75008 Paris France,Paris,48.8678432,2.3033075
H10 Universitat,Ronda Universitat 21 Eixample 08007 Barcelona Spain,Barcelona,41.3869565,2.1665338
One Aldwych,1 Aldwych Westminster Borough London WC2B 4BZ United Kingdom,London,51.5117832,-0.1194172
Edouard 7 Paris Op ra,39 Avenue de l Op ra 2nd arr 75002 Paris France,Paris,48.8683133,2.3330851
NH Collection Barcelona Gran Hotel Calder n,Rambla Catalunya 26 Eixample 08007 Barcelona Spain,Barcelona,41.3894654,2.1662651
Austria Trend Hotel Bosei Wien,Gutheil Schoder Gasse 7B 10 Favoriten 1100 Vienna Austria,Vienna,48.1629737,16.3404024
Amsterdam Canal Residence,Weteringschans 251 Amsterdam City Center 1017 XJ Amsterdam Netherlands,Amsterdam,52.3594783,4.895853
Renaissance Paris Le Parc Trocadero Hotel,55 57 Avenue Raymond Poincare 16th arr 75016 Paris France,Paris,48.8673099,2.2856528
Holiday Inn Milan Garibaldi Station,Via Ugo Bassi 1 A Ang Via C Farini Garibaldi Station 20159 Milan Italy,Milan,45.488764,9.183057
Arthotel ANA Boutique Six,Webgasse 23 06 Mariahilf 1060 Vienna Austria,Vienna,48.1941905,16.3462578
The Beaufort,33 Beaufort Gardens Kensington and Chelsea London SW3 1PP United Kingdom,London,51.4978466,-0.164156
Dukes Hotel,35 St James s Place Westminster Borough London SW1A 1NY United Kingdom,London,51.5055381,-0.1396885
WestCord Fashion Hotel Amsterdam,Hendrikje Stoffelstraat 1 Slotervaart 1058 GC Amsterdam Netherlands,Amsterdam,52.357655,4.844576
Grand H tel Du Palais Royal,4 Rue De Valois 1st arr 75001 Paris France,Paris,48.8630829,2.3378592
Park Plaza Sherlock Holmes London,108 Baker Street Westminster Borough London W1U 6LJ United Kingdom,London,51.5209191,-0.1566567
Hotel Park Lane Paris,4 Rue La Boetie 8th arr 75008 Paris France,Paris,48.8745879,2.3188143
Best Western PLUS Epping Forest,Epping Forest 30 Oak Hill London IG8 9NY United Kingdom,London,51.603207,0.010607
AC Hotel Sants a Marriott Lifestyle Hotel,Passeig de Sant Antoni 36 40 Sants Montju c 08014 Barcelona Spain,Barcelona,41.3775577,2.1384686
Apollofirst Boutique Hotel,Apollolaan 123 125 Oud Zuid 1077 AP Amsterdam Netherlands,Amsterdam,52.350396,4.8756404
45 Park Lane Dorchester Collection,45 Park Lane Westminster Borough London W1K 1PN United Kingdom,London,51.5063709,-0.1515359
Elys es R gencia,41 Avenue Marceau 16th arr 75016 Paris France,Paris,48.8686434,2.2984054
Hotel Grums Barcelona,Palaud ries 26 Sants Montju c 08004 Barcelona Spain,Barcelona,41.3727844,2.1721134
Park Plaza Westminster Bridge London,Westminster Bridge Road Lambeth London SE1 7UT United Kingdom,London,51.5009609,-0.1165913
Holiday Inn Paris Montmartre,23 Rue Damr mont 18th arr 75018 Paris France,Paris,NA,NA
Mercure Paris 15 Porte de Versailles,6 Rue Saint Lambert 15th arr 75015 Paris France,Paris,48.8382542,2.2903494
Mercure Paris Opera Garnier,4 Rue de L Isly 8th arr 75008 Paris France,Paris,48.8749511,2.3259532
NH Amsterdam Zuid,Van Leijenberghlaan 221 Zuideramstel 1082 GG Amsterdam Netherlands,Amsterdam,52.3266672,4.8800884
Best Western Hotel Astoria,Viale Murillo 9 Fiera Milano City 20149 Milan Italy,Milan,45.4725167,9.1439198
Fairmont Rey Juan Carlos I,Avenida Diagonal 661 671 Les Corts 08028 Barcelona Spain,Barcelona,41.3835246,2.1096141
Best Western Premier Faubourg 88,88 rue du Faubourg Poissoni re 10th arr 75010 Paris France,Paris,48.8776756,2.3493159
K K H tel Cayr Saint Germain des Pr s,4 Boulevard Raspail 7th arr 75007 Paris France,Paris,48.8553117,2.3254628
Zenit Borrell,Comte Borrell 208 Eixample 08029 Barcelona Spain,Barcelona,41.3859873,2.1514021
Banke H tel,20 Rue La Fayette 9th arr 75009 Paris France,Paris,48.8735736,2.335965
Hotel Sezz Paris,6 Avenue Fr miet 16th arr 75016 Paris France,Paris,48.8566336,2.2852607
AC Hotel Paris Porte Maillot by Marriott,6 rue Gustave Charpentier 17th arr 75017 Paris France,Paris,48.8820046,2.2818538
Ramada Plaza Milano,Via Stamira D Ancona 27 Distretto Viale Monza 20127 Milan Italy,Milan,45.501946,9.2277569
M venpick Hotel Amsterdam City Centre,Piet Heinkade 11 Zeeburg 1019 BR Amsterdam Netherlands,Amsterdam,52.3781016,4.9142508
The Westbury A Luxury Collection Hotel Mayfair London,Bond Street Mayfair Westminster Borough London W1S 2YF United Kingdom,London,51.5144418,-0.146432
My Bloomsbury,11 13 Bayley Street Bedford Square Camden London WC1B 3HD United Kingdom,London,51.5188555,-0.1319172
Ibis Styles Milano Palmanova,Via Palmanova 153 20132 Milan Italy,Milan,45.5045259,9.246461
Hotel Manin,Via Manin 7 Milan City Center 20121 Milan Italy,Milan,45.4739801,9.1960671
Vienna Sporthotel,Baumgasse 83 03 Landstra e 1030 Vienna Austria,Vienna,48.191373,16.4082294
Hotel Mercure La Sorbonne Saint Germain des Pr s,14 Rue de la Sorbonne 5th arr 75005 Paris France,Paris,48.8493499,2.3430569
London Marriott Hotel Grosvenor Square,Grosvenor Square Westminster Borough London W1K 6JP United Kingdom,London,51.511579,-0.1500193
Gardette Park Hotel,1 Rue Du G n ral Blaise 11th arr 75011 Paris France,Paris,48.8610265,2.3788974
Crowne Plaza Amsterdam South,George Gershwinlaan 101 Zuideramstel 1082 MT Amsterdam Netherlands,Amsterdam,52.3357326,4.8743947
Hotel Casa Fuster G L Monumento,Passeig de Gracia 132 Gr cia 08008 Barcelona Spain,Barcelona,41.3980162,2.1581229
H tel Diva Opera,11 rue de Tr vise 9th arr 75009 Paris France,Paris,48.8732706,2.3450746
Grange Holborn Hotel,Southampton Row Bloomsbury Camden London WC1B 4AR United Kingdom,London,51.519616,-0.1218432
Innkeeper s Lodge London Greenwich,291 Greenwich High Road Greenwich Greenwich London SE10 8NA United Kingdom,London,51.4801631,-0.0097201
H tel de Banville,166 Boulevard Berthier 17th arr 75017 Paris France,Paris,48.8864673,2.2948911
NH Milano Palazzo Moscova,Viale Monte Grappa 12 Garibaldi Station 20124 Milan Italy,Milan,45.480968,9.189977
Mercure Paris Bastille Marais,53 Rue Richard Lenoir 11th arr 75011 Paris France,Paris,48.8571207,2.3805581
The Gates Diagonal Barcelona,Avenida Diagonal 205 Sant Mart 08018 Barcelona Spain,Barcelona,41.4036219,2.1902808
Palais Coburg Residenz,Coburgbastei 4 01 Innere Stadt 1010 Vienna Austria,Vienna,48.2058584,16.3766545
Hotel Ronda Lesseps,Ballester 77 81 Gr cia 08023 Barcelona Spain,Barcelona,41.408641,2.1478143
Best Western Nouvel Orl ans Montparnasse,25 avenue du General Leclerc 14th arr 75014 Paris France,Paris,48.8309896,2.3297301
Zenit Barcelona,Santal 8 Sarri St Gervasi 08021 Barcelona Spain,Barcelona,41.3949199,2.1468594
BEST WESTERN PLUS Amedia Wien,Landstra er Hauptstra e 155 03 Landstra e 1030 Vienna Austria,Vienna,48.1923791,16.3994512
H tel La Comtesse by Elegancia,29 Avenue De Tourville 7th arr 75007 Paris France,Paris,48.853865,2.3072019
Idol Hotel,16 rue d Edimbourg 8th arr 75008 Paris France,Paris,48.8795369,2.3202966
Sunotel Central,Gran V a De Les Corts Catalanes 570 Eixample 08011 Barcelona Spain,Barcelona,41.3841429,2.1616896
Barcel Milan,Via Giorgio Stephenson 55 20157 Milan Italy,Milan,45.51152,9.1241306
Atahotel Contessa Jolanda,Via Murat 21 Niguarda 20159 Milan Italy,Milan,45.4984161,9.1904375
Hotel Mediolanum,Via Mauro Macchi 1 Central Station 20124 Milan Italy,Milan,45.4813423,9.2039494
The Lodge Hotel Putney,52 54 Upper Richmond Road Wandsworth London SW15 2RN United Kingdom,London,51.4572991,-0.2055425
Prince de Galles a Luxury Collection hotel Paris,33 avenue George V 8th arr 75008 Paris France,Paris,48.869143,2.3006526
Hotel Capitol Milano,Via Cimarosa 6 Fiera Milano City 20144 Milan Italy,Milan,45.4661781,9.1588367
H tel Square Louvois,12 Rue de Louvois 2nd arr 75002 Paris France,Paris,48.8684165,2.336869
Le Marceau Bastille,13 Rue Jules Cesar 12th arr 75012 Paris France,Paris,48.8490691,2.3697484
InterContinental Paris Le Grand,2 Rue Scribe 9th arr 75009 Paris France,Paris,48.8708391,2.3303651
HCC St Moritz,Diputaci 262 264 Eixample 08007 Barcelona Spain,Barcelona,41.3908486,2.1680745
Col n Hotel Barcelona,Avinguda Catedral 7 Ciutat Vella 08002 Barcelona Spain,Barcelona,41.3849613,2.1756666
Hotel Eden,110 rue Blomet 15th arr 75015 Paris France,Paris,48.8405612,2.2991035
Snob Hotel by Elegancia,86 Rue Saint Denis 1st arr 75001 Paris France,Paris,48.8622723,2.3495707
K K Palais Hotel,Rudolfsplatz 11 01 Innere Stadt 1010 Vienna Austria,Vienna,48.2138096,16.3714293
Sansi Diputacio,234 Diputacio Eixample 08007 Barcelona Spain,Barcelona,41.3882234,2.1644551
The Tophams Hotel,28 Ebury Street Westminster Borough London SW1W 0LU United Kingdom,London,51.4957436,-0.1477528
First Hotel Paris Tour Eiffel,2 Bd Garibaldi 15th arr 75015 Paris France,Paris,48.8475112,2.3022198
Mill sime H tel,15 Rue Jacob 6th arr 75006 Paris France,Paris,48.8550236,2.3350786
DoubleTree by Hilton Hotel Amsterdam NDSM Wharf,Ndsm Plein 28 Amsterdam Noord 1033 WB Amsterdam Netherlands,Amsterdam,52.4001813,4.8936653
Bloomsbury Palace Hotel,29 31 Gower Street Camden London WC1E 6HG United Kingdom,London,51.5207945,-0.1310845
DoubleTree by Hilton London Chelsea,Imperial Road Hammersmith and Fulham London SW6 2GA United Kingdom,London,51.475172,-0.1870629
Park Grand London Hyde Park,78 82 Westbourne Terrace Westminster Borough London W2 6QA United Kingdom,London,51.5157316,-0.1802179
Hotel V Nesplein,Nes 49 Amsterdam City Center 1012 KD Amsterdam Netherlands,Amsterdam,52.3711037,4.8936787
Club Quarters Hotel Gracechurch,7 Gracechurch Street City of London London EC3V 0DR United Kingdom,London,51.5127964,-0.0847973
The Guesthouse Vienna,F hrichgasse 10 01 Innere Stadt 1010 Vienna Austria,Vienna,48.2051299,16.369036
St James Hotel Club Mayfair,7 8 Park Place Westminster Borough London SW1A 1LP United Kingdom,London,51.5061587,-0.1402803
Andaz Amsterdam Prinsengracht A Hyatt Hotel,Prinsengracht 587 Amsterdam City Center 1067 HT Amsterdam Netherlands,Amsterdam,52.3678368,4.8830788
Thistle Holborn The Kingsley,Bloomsbury Way Camden London WC1A 2SD United Kingdom,London,51.5179659,-0.1234343
The Westbridge Hotel,335 337 High Street Stratford Newham London E15 2TF United Kingdom,London,51.5373904,-0.0023367
Novotel Suites Paris Expo Porte de Versailles,4 Boulevard Brune 14th arr 75014 Paris France,Paris,48.827388,2.305478
H tel Regent s Garden,6 Rue Pierre Demours 17th arr 75017 Paris France,Paris,48.8797513,2.2919634
W Barcelona,Pla a Rosa dels Vents 1 Passeig Joan de Borbo Ciutat Vella 08039 Barcelona Spain,Barcelona,41.368437,2.1901534
Best Western Hotel Mirage,Viale Certosa 104 106 Certosa 20156 Milan Italy,Milan,45.4947129,9.1418864
Alma Boutique Hotel,Hafnersteig 7 01 Innere Stadt 1010 Vienna Austria,Vienna,48.2112491,16.3776519
Grand Pigalle Hotel,29 rue Victor Mass 9th arr 75009 Paris France,Paris,48.880856,2.3375085
Mercure Paris Gare De Lyon TGV,2 place Louis Armand 12th arr 75012 Paris France,Paris,48.8442949,2.3730938
Hampshire Hotel The Manor Amsterdam,Linnaeusstraat 89 Oost 1093 EK Amsterdam Netherlands,Amsterdam,52.3591467,4.9263601
Catalonia Diagonal Centro,Balmes 142 146 Eixample 08008 Barcelona Spain,Barcelona,41.3938632,2.1568039
Best Western Premier Trocadero La Tour,5 bis rue Massenet 16th arr 75016 Paris France,Paris,48.8583127,2.2795075
H tel Hor,160 Rue La Fayette 10th arr 75010 Paris France,Paris,48.8793427,2.3577745
Hotel Kaiserin Elisabeth,Weihburggasse 3 01 Innere Stadt 1010 Vienna Austria,Vienna,48.2072348,16.372238
Mercure Paris Tour Eiffel Pont Mirabeau,10 Avenue Emile Zola 15th arr 75015 Paris France,Paris,48.8460269,2.2788281
The Franklin Hotel Starhotels Collezione,24 Egerton Gardens Kensington and Chelsea London SW3 2DB United Kingdom,London,51.4960283,-0.1686355
Ako Suites Hotel,Diputaci 195 Eixample 08011 Barcelona Spain,Barcelona,41.3861153,2.1611899
Hotel Le Placide Saint Germain Des Pr s,6 Rue Saint Placide 6th arr 75006 Paris France,Paris,48.8498439,2.3244253
Pillows Anna van den Vondel Amsterdam,Anna van den Vondelstraat 6 Oud West 1054 GZ Amsterdam Netherlands,Amsterdam,52.3607413,4.8695315
Great Northern Hotel A Tribute Portfolio Hotel London,King s Cross St Pancras International Station Pancras Road Camden London N1C 4TB United Kingdom,London,51.531427,-0.126133
Strandhotel Alte Donau,Wagramer Stra e 51 22 Donaustadt 1220 Vienna Austria,Vienna,48.2390022,16.4292329
The Academy,21 Gower Street Camden London WC1E 6HG United Kingdom,London,51.5205441,-0.1308091
BEST WESTERN Maitrise Hotel Maida Vale,53 59 Kilburn High Road Maida Vale London Camden London NW6 5SB United Kingdom,London,51.5366053,-0.1919832
The Henrietta Hotel,14 Henrietta Street Westminster Borough London WC2E 8QH United Kingdom,London,51.5109079,-0.1238221
Mayflower Hotel Apartments,26 28 Trebovir Rd Kensington and Chelsea London SW5 9NJ United Kingdom,London,51.4916677,-0.1947475
Best Western Hotel Major,Viale Isonzo 2 Porta Romana 20135 Milan Italy,Milan,45.4472099,9.2090967
Hotel Plaza Athenee Paris,25 Avenue Montaigne 8th arr 75008 Paris France,Paris,48.8661932,2.3042141
Novotel Suites Paris Montreuil Vincennes,22 Avenue du professeur lemierre 20th arr 75020 Paris France,Paris,48.8554268,2.4152555
The Cavendish London,81 Jermyn Street Westminster Borough London SW1Y 6JF United Kingdom,London,51.5077459,-0.1378733
Hotel Am Konzerthaus Vienna MGallery by Sofitel,Am Heumarkt 35 37 03 Landstra e 1030 Vienna Austria,Vienna,48.1996129,16.3773546
Hotel America Barcelona,Provenza 195 Eixample 08008 Barcelona Spain,Barcelona,41.3919083,2.1573318
Le Relais M dicis,5 place de l Od on 6th arr 75006 Paris France,Paris,48.8497618,2.3392336
Mercure London Kensington Hotel,1a Lexham Gardens Kensington and Chelsea London W8 5JJ United Kingdom,London,51.4950098,-0.1906195
The Savoy,Strand Westminster Borough London WC2R 0EU United Kingdom,London,51.5111922,-0.1194006
Best Western Premier Op ra Faubourg Ex Hotel Jules ,49 Rue La Fayette 9th arr 75009 Paris France,Paris,48.8753359,2.3414617
Catalonia Magdalenes,Magdalenes 13 15 Ciutat Vella 08002 Barcelona Spain,Barcelona,41.3861283,2.1745291
NH Amsterdam Schiller,Rembrandtplein 26 36 Amsterdam City Center 1017 CV Amsterdam Netherlands,Amsterdam,52.3657092,4.8966912
Melia Vienna,Donau City Stra e 7 22 Donaustadt 1220 Vienna Austria,Vienna,48.231911,16.4129493
Atahotel Linea Uno,Viale Monza 139 Distretto Viale Monza 20125 Milan Italy,Milan,45.50054,9.2208089
Mercure Secession Wien,Getreidemarkt 5 06 Mariahilf 1060 Vienna Austria,Vienna,48.200561,16.3647063
Hotel Lumen Paris Louvre,15 Rue Des Pyramides 1st arr 75001 Paris France,Paris,48.8652582,2.3329632
HCC Regente,Rambla de Catalunya 76 Eixample 08008 Barcelona Spain,Barcelona,41.3922919,2.1622256
Ramada Apollo Amsterdam Centre,Staalmeesterslaan 410 Slotervaart 1057 PH Amsterdam Netherlands,Amsterdam,52.3681299,4.8440847
Novotel Milano Linate Aeroporto,Via Mecenate 121 20138 Milan Italy,Milan,45.4481878,9.2570459
Nell Hotel Suites,60 rue Richer 9th arr 75009 Paris France,Paris,48.8741002,2.3426357
Best Western Premier Kaiserhof Wien,Frankenberggasse 10 04 Wieden 1040 Vienna Austria,Vienna,48.1975497,16.3686397
H tel Mansart Esprit de France,5 rue des Capucines 1st arr 75001 Paris France,Paris,48.8684776,2.3298238
IH Hotels Milano Puccini,Corso Buenos Aires 33 Central Station 20124 Milan Italy,Milan,45.4794406,9.2096756
Hazlitt s,6 Frith Street Soho Westminster Borough London W1D 3JA United Kingdom,London,51.5143447,-0.1318157
Acta Atrium Palace,Gran Via Corts Catalanes 656 Eixample 08010 Barcelona Spain,Barcelona,41.390913,2.1706981
Hotel Clerici,Via Clerici 11 Milan City Center 20121 Milan Italy,Milan,45.4667717,9.1871001
Best Western Hotel City,Corso Buenos Aires 42 5 Central Station 20124 Milan Italy,Milan,45.4858877,9.2042827
Hotel Oscar,33 rue Marbeuf 8th arr 75008 Paris France,Paris,48.8694755,2.3046954
Windsor Hotel Milano,Via Galileo Galilei 2 Central Station 20124 Milan Italy,Milan,45.4794587,9.1951427
Hotel Bristol,Via Domenico Scarlatti 32 Central Station 20124 Milan Italy,Milan,45.4845769,9.2065256
Hotel Am Schubertring,Schubertring 11 01 Innere Stadt 1010 Vienna Austria,Vienna,48.2017277,16.375463
Idea Hotel Milano San Siro,Via Gaetano Airaghi 125 20153 Milan Italy,Milan,45.4720654,9.0777871
Best Western Paris Gare Saint Lazare,18 rue de Constantinople 8th arr 75008 Paris France,Paris,48.8803752,2.319591
Park Avenue Baker Street,173 Gloucester Place Westminster Borough London NW1 6DX United Kingdom,London,51.5241452,-0.1609907
Hotel Santa Marta Suites,Via Santa Marta 4 Milan City Center 20123 Milan Italy,Milan,45.4630441,9.183607
Le Roch Hotel Spa,28 rue Saint Roch 1st arr 75001 Paris France,Paris,48.8661991,2.3328826
Windermere Hotel,142 To 144 Warwick Way Victoria Westminster Borough London SW1V 4JE United Kingdom,London,51.4903724,-0.1459218
Rathbone,30 Rathbone Street West End Westminster Borough London W1T 1LB United Kingdom,London,51.5186801,-0.1354055
Steigenberger Hotel Herrenhof,Herrengasse 10 01 Innere Stadt 1010 Vienna Austria,Vienna,48.2097958,16.3658705
Crowne Plaza London Docklands,Royal Victoria Dock Western Gateway Newham London E16 1AL United Kingdom,London,51.5083537,0.0198855
Hotel Amsterdam De Roode Leeuw,Damrak 93 94 Amsterdam City Center 1012 LP Amsterdam Netherlands,Amsterdam,52.373704,4.893591
Hotel Panache,1 rue Geoffroy Marie 9th arr 75009 Paris France,Paris,48.8732543,2.343239
Forest Hill Paris la Villette,28 av Corentin Cariou 19th arr 75019 Paris France,Paris,48.8969854,2.3852745
Landmark London,222 Marylebone Road Westminster Borough London NW1 6JQ United Kingdom,London,51.519016,-0.166267
Park Lane Mews Hotel,2 Stanhope Row Park Lane Westminster Borough London W1J 7BS United Kingdom,London,51.5059334,-0.1489418
Hampshire Hotel Amsterdam American,Leidsekade 97 Amsterdam City Center 1017 PN Amsterdam Netherlands,Amsterdam,52.363889,4.881302
Mandarin Oriental Hyde Park London,66 Knightsbridge Westminster Borough London SW1X 7LA United Kingdom,London,51.5022081,-0.1599428
Windsor Opera,10 Rue Gabriel Laumain 10th arr 75010 Paris France,Paris,48.8734851,2.3485111
Gartenhotel Altmannsdorf Hotel 1,Hoffingergasse 26 28 12 Meidling 1120 Vienna Austria,Vienna,48.1640345,16.3216061
Amadi Panorama Hotel,Ijburglaan 539 Zeeburg 1087 BE Amsterdam Netherlands,Amsterdam,52.3588806,4.9886041
Gran Hotel La Florida,Carretera Vallvidrera Tibidabo 83 93 Horta Guinard 08035 Barcelona Spain,Barcelona,41.4253332,2.1211028
Hyatt Regency London The Churchill,30 Portman Square Westminster Borough London W1H 7BH United Kingdom,London,51.5156471,-0.1572443
The Zetter Hotel,86 88 Clerkenwell Road Islington London EC1M 5RJ United Kingdom,London,51.522672,-0.1036841
Das Opernring Hotel,Opernring 11 01 Innere Stadt 1010 Vienna Austria,Vienna,48.2026449,16.3671054
H tel Waldorf Trocad ro,97 rue Lauriston 16th arr 75016 Paris France,Paris,48.8672694,2.2878666
H tel de Lille,40 rue de Lille 7th arr 75007 Paris France,Paris,48.8585626,2.3299138
St George Hotel,49 Gloucester Place Marble Arch Westminster Borough London W1U 8JE United Kingdom,London,51.5182768,-0.1583511
Derag Livinghotel Kaiser Franz Joseph Vienna,Sieveringer Stra e 4 19 D bling 1190 Vienna Austria,Vienna,NA,NA
Vice Versa,213 rue de la Croix Nivert 15th arr 75015 Paris France,Paris,48.8363819,2.2897793
Hotel Romana Residence,Corso di Porta Romana 64 Milan City Center 20122 Milan Italy,Milan,45.4572218,9.1937008
Novotel London Paddington,3 Kingdom Street Sheldon Square Westminster Borough London W2 6BD United Kingdom,London,51.519032,-0.1825943
Novotel Milano Nord Ca Granda,Viale Suzzani 13 Bicocca Zara 20162 Milan Italy,Milan,45.506502,9.1965192
Primero Primera,Doctor Carulla 25 Sarri St Gervasi 08017 Barcelona Spain,Barcelona,41.4002812,2.1297427
11 Cadogan Gardens,11 Cadogan Gardens Sloane Square Kensington and Chelsea London SW3 2RJ United Kingdom,London,51.4936161,-0.1592347
La Maison Champs Elys es,8 Rue Jean Goujon 8th arr 75008 Paris France,Paris,48.866676,2.3089908
Le A,4 rue d Artois 8th arr 75008 Paris France,Paris,48.8723844,2.3088663
Mercure Paris Alesia,185 Boulevard Brune 14th arr 75014 Paris France,Paris,48.8237487,2.324056
Amadi Park Hotel,Eerste Constantijn huygensstraat 26G Oud West 1054 BR Amsterdam Netherlands,Amsterdam,52.364962,4.873495
Uptown Palace,Via Santa Sofia 10 Milan City Center 20122 Milan Italy,Milan,45.4574655,9.1919138
H10 London Waterloo,284 To 302 Waterloo Road Southwark London SE1 8RQ United Kingdom,London,51.4988817,-0.1062888
Austria Trend Hotel Park Royal Palace Vienna,Schlossallee 8 14 Penzing 1140 Vienna Austria,Vienna,48.191339,16.3165873
La Villa Maillot,143 Avenue De Malakoff 16th arr 75016 Paris France,Paris,48.875551,2.2835191
Hotel Principe Di Savoia,Piazza Della Repubblica 17 Central Station 20124 Milan Italy,Milan,45.479888,9.1962982
Hotel Manzoni,Via Santo Spirito 20 Milan City Center 20121 Milan Italy,Milan,45.470238,9.195347
Holiday Inn London Brent Cross,Tilling Road London NW2 1LP United Kingdom,London,51.5731061,-0.2233332
Adria Boutique Hotel,88 Queens Gate Kensington and Chelsea London SW7 5AB United Kingdom,London,51.4933372,-0.1788931
Hotel du Collectionneur Arc de Triomphe,51 57 rue de Courcelles 8th arr 75008 Paris France,Paris,48.8769204,2.3069132
Hotel Vueling Bcn by HC,Gran Via 550 Eixample 08011 Barcelona Spain,Barcelona,41.3831641,2.1604736
Upper Diagonal,Manuel Girona 7 21 Sarri St Gervasi 08034 Barcelona Spain,Barcelona,41.39038,2.121
Best Western Maitrise Hotel Edgware Road,346 348 Edgware Road Westminster Borough London W2 1EA United Kingdom,London,51.521148,-0.171346
Bassano,15 Rue de Bassano 16th arr 75016 Paris France,Paris,48.8690596,2.2971078
NH Collection Wien Zentrum,Mariahilfer Stra e 78 07 Neubau 1070 Vienna Austria,Vienna,48.1979979,16.3483314
H tel Balzac,6 rue Balzac 8th arr 75008 Paris France,Paris,48.8732785,2.3004174
Catalonia Barcelona 505,Muntaner 505 Sarri St Gervasi 08022 Barcelona Spain,Barcelona,41.4034965,2.1370426
Francois 1er,7 Rue Magellan 8th arr 75008 Paris France,Paris,48.8701887,2.2997281
Best Western Antares Hotel Concorde,Viale Monza 132 Distretto Viale Monza 20127 Milan Italy,Milan,45.502453,9.2218364
Maison Souquet,10 rue de Bruxelles 9th arr 75009 Paris France,Paris,48.88366,2.3313845
Mercure Paris Arc de Triomphe Etoile,27 avenue des Ternes 17th arr 75017 Paris France,Paris,48.8782679,2.294852
Hotel Carrobbio,Via Medici 3 Milan City Center 20123 Milan Italy,Milan,45.4606597,9.1810947
Meli Milano,Via Masaccio 19 Fiera Milano City 20149 Milan Italy,Milan,45.4792738,9.1459546
COMO The Halkin,Halkin Street Westminster Borough London SW1X 7DJ United Kingdom,London,51.4988977,-0.1562015
Acta CITY47,Nicaragua 47 Sants Montju c 08029 Barcelona Spain,Barcelona,41.383515,2.1407396
Melia Barcelona Sky 4 Sup,Diagonal Pere IV 272 Sant Mart 08005 Barcelona Spain,Barcelona,41.4061636,2.2008956
Hotel Vondel Amsterdam,Vondelstraat 18 30 Oud West 1054 GE Amsterdam Netherlands,Amsterdam,52.3625662,4.8779225
Best Western Plus de Neuville Arc de Triomphe,3 Rue Verniquet 17th arr 75017 Paris France,Paris,48.8869128,2.3004034
Op ra Marigny,11 Rue de l Arcade 8th arr 75008 Paris France,Paris,48.871723,2.3235377
Renaissance Paris Republique Hotel Spa,40 Rue Rene Boulanger 10th arr 75010 Paris France,Paris,48.8687804,2.3610196
H tel Juliana Paris,10 12 rue Cognacq Jay 7th arr 75007 Paris France,Paris,48.8619373,2.3040298
Four Seasons Hotel George V Paris,31 Avenue George V 8th arr 75008 Paris France,Paris,48.8687512,2.3001692
Platine Hotel Spa,20 rue de l Ing nieur Robert Keller 15th arr 75015 Paris France,Paris,48.8473459,2.2832408
Mercure Hotel Amsterdam West,Oude Haagseweg 20 Slotervaart 1066 BW Amsterdam Netherlands,Amsterdam,52.3375677,4.8178172
H tel France d Antin Op ra,22 rue d Antin 2nd arr 75002 Paris France,Paris,48.8692566,2.3339369
Henry VIII,23 Leinster Gardens Westminster Borough London W2 3AN United Kingdom,London,51.5124655,-0.182274
H tel Barri re Le Fouquet s,46 Avenue George V 8th arr 75008 Paris France,Paris,48.8710709,2.3013119
Aloft London Excel,One Eastern Gateway Royal Victoria Dock Newham London E16 1FR United Kingdom,London,51.5083719,0.0355768
Staybridge Suites London Vauxhall,100 Vauxhall Walk Lambeth London SE11 5AL United Kingdom,London,51.4891226,-0.1205639
Mercure Paris Porte De Versailles Expo,36 38 Rue Du Moulin 92170 Paris France,Paris,48.8268251,2.2912033
DoubleTree by Hilton Amsterdam Centraal Station,Oosterdoksstraat 4 Amsterdam City Center 1011 DK Amsterdam Netherlands,Amsterdam,52.376752,4.904618
St Martins Lane A Morgans Original,45 St Martin s Lane Westminster Borough London WC2N 4HX United Kingdom,London,51.5104696,-0.1265824
The Pillar Hotel,19 Brent Street Brent Cross London NW4 2EU United Kingdom,London,51.583236,-0.216868
L Empire Paris,48 Rue De L arbre Sec 1st arr 75001 Paris France,Paris,48.8607764,2.3427564
Hotel Regina,Bergara 2 4 Eixample 08002 Barcelona Spain,Barcelona,41.3858891,2.1681652
Hilton London Wembley,Lakeside Way Brent London HA9 0BU United Kingdom,London,51.5576962,-0.2835263
H tel Regina,2 place des Pyramides 1st arr 75001 Paris France,Paris,48.8637503,2.3320406
Hotel Schani Wien,Karl Popper Stra e 22 10 Favoriten 1100 Vienna Austria,Vienna,48.1824271,16.3808291
Amarante Champs Elys es,19 Rue Vernet 8th arr 75008 Paris France,Paris,48.8717649,2.2983855
Hotel Vienna,Gro e Stadtgutgasse 31 02 Leopoldstadt 1020 Vienna Austria,Vienna,48.2196722,16.3863588
Le 7 Eiffel Hotel,17 bis rue Am lie 7th arr 75007 Paris France,Paris,48.8585193,2.3077243
Hotel Miramar Barcelona GL,Plaza Carlos Iba ez 3 Sants Montju c 08038 Barcelona Spain,Barcelona,41.3703041,2.17141
H tel Westminster,13 Rue De La Paix 2nd arr 75002 Paris France,Paris,48.8693409,2.3310263
Park Grand London Lancaster Gate,14 16 Craven Hill Lancaster Gate Westminster Borough London W2 3DU United Kingdom,London,51.5132069,-0.1807816
Milestone Hotel Kensington,1 Kensington Court Kensington and Chelsea London W8 5DL United Kingdom,London,51.5020425,-0.1866541
H10 Port Vell 4 Sup,Pas de Sota Muralla 9 Ciutat Vella 08003 Barcelona Spain,Barcelona,41.3815625,2.1838458
Hotel Ambassador,K rntner Stra e 22 01 Innere Stadt 1010 Vienna Austria,Vienna,48.2057193,16.3710878
Hotel Zeitgeist Vienna Hauptbahnhof,Sonnwendgasse 15 10 Favoriten 1100 Vienna Austria,Vienna,48.1829645,16.3776709
Hampton by Hilton Amsterdam Centre East,Panama Laan 188 196 Zeeburg 1019 AZ Amsterdam Netherlands,Amsterdam,52.3714428,4.9346331
Villa Eugenie,167 rue de Rome 17th arr 75017 Paris France,Paris,48.8871283,2.314205
Arthotel ANA Westbahn,Pelzgasse 1 15 Rudolfsheim F nfhaus 1150 Vienna Austria,Vienna,48.1979514,16.336318
Le Mathurin Hotel Spa,43 Rue des Mathurins 8th arr 75008 Paris France,Paris,48.8732068,2.3239015
Mokinba Hotels Montebianco,Via Monte Rosa 90 Fiera Milano City 20149 Milan Italy,Milan,45.4788051,9.1446276
Hilton Vienna,Am Stadtpark 1 03 Landstra e 1030 Vienna Austria,Vienna,48.2062268,16.3833767
The Nadler Soho,10 Carlisle Street Westminster Borough London W1D 3BR United Kingdom,London,51.5147387,-0.1341108
Holiday Inn London Whitechapel,5 Cavell Street Tower Hamlets London E1 2BP United Kingdom,London,51.5154006,-0.0572364
Catalonia Born,Rec Comtal 16 18 Ciutat Vella 08003 Barcelona Spain,Barcelona,41.3896916,2.1798661
Hotel The Peninsula Paris,19 avenue Kleber 16th arr 75116 Paris France,Paris,48.8710605,2.2933537
DoubleTree By Hilton Milan,Via Ludovico Di Breme 77 Certosa 20156 Milan Italy,Milan,45.5005657,9.1383663
Ch teau Monfort Relais Ch teaux,Corso Concordia 1 Milan City Center 20129 Milan Italy,Milan,45.4682358,9.2073799
Room Mate Giulia,Silvio Pellico 4 Milan City Center 20121 Milan Italy,Milan,45.4651371,9.1895249
Kube Hotel Ice Bar,1 5 Passage Ruelle 18th arr 75018 Paris France,Paris,48.88657,2.3588332
Hotel Das Tigra,Tiefer Graben 14 20 01 Innere Stadt 1010 Vienna Austria,Vienna,48.2121772,16.3680771
La Villa Haussmann,132 Boulevard Haussmann 8th arr 75008 Paris France,Paris,48.8753446,2.3167161
Pullman Paris Montparnasse,19 Rue du Commandant Ren Mouchotte 14th arr 75014 Paris France,Paris,48.8382943,2.3210421
Mercure Grand Hotel Biedermeier Wien,Landstra er Hauptstra e 28 03 Landstra e 1030 Vienna Austria,Vienna,48.2038688,16.3887039
Hotel SB Diagonal Zero Barcelona 4 Sup,Pla a de Llevant s n Sant Mart 08019 Barcelona Spain,Barcelona,41.4111652,2.2192012
Ambassade Hotel,Herengracht 341 Amsterdam City Center 1016 AZ Amsterdam Netherlands,Amsterdam,52.369391,4.8871721
DoubleTree by Hilton Hotel London Tower of London,7 Pepys Street City of London London EC3N 4AF United Kingdom,London,51.5108412,-0.0780581
Avo Hotel,82 Dalston Lane Hackney London E8 3AH United Kingdom,London,51.5460628,-0.0700817
Plaza Tour Eiffel,32 Rue Greuze 16th arr 75016 Paris France,Paris,48.8645647,2.2821827
Timhotel Op ra Blanche Fontaine,34 Rue Fontaine 9th arr 75009 Paris France,Paris,48.8825781,2.3334805
Sofitel Paris Arc De Triomphe,14 Rue Beaujon 8th arr 75008 Paris France,Paris,48.8751845,2.3013214
Golden Tulip Amsterdam Riverside,Provincialeweg 38 Zuidoost 1108 AB Amsterdam Netherlands,Amsterdam,52.3154533,4.9962997
My Chelsea,35 Ixworth Place Kensington and Chelsea London SW3 3QX United Kingdom,London,51.4919083,-0.1684398
The Dorchester Dorchester Collection,53 Park Lane Westminster Borough London W1K 1QA United Kingdom,London,51.5074007,-0.1524593
The Montcalm At Brewery London City,52 Chiswell Street City of London London EC1Y 4SD United Kingdom,London,51.5208155,-0.0915319
Mercure Josefshof Wien,Josefsgasse 4 6 08 Josefstadt 1080 Vienna Austria,Vienna,48.2085627,16.3541687
Vincci Gala,Ronda Sant Pere 32 Eixample 08010 Barcelona Spain,Barcelona,41.3895263,2.1747136
Catalonia Square 4 Sup,Ronda Sant Pere 9 Eixample 08010 Barcelona Spain,Barcelona,41.3885658,2.1712991
Crowne Plaza London Battersea,Bridges Court Road Battersea London SW11 3BE United Kingdom,London,51.4689559,-0.1787256
Hotel Indigo London Paddington,16 London Street Paddington Westminster Borough London W2 1HL United Kingdom,London,51.5150534,-0.1739974
Montcalm Royal London House City of London,22 25 Finsbury Square City Islington London EC2A 1DX United Kingdom,London,51.5218066,-0.0856081
The Curtain,45 Curtain Road Hackney London EC2A 4PJ United Kingdom,London,51.5237209,-0.0806178
H tel Belloy Saint Germain By Happyculture,2 Rue Racine 6th arr 75006 Paris France,Paris,48.8503901,2.3422527
Antica Locanda Dei Mercanti,Via San Tomaso 6 Milan City Center 20121 Milan Italy,Milan,45.467298,9.1846982
Hotel DO Pla a Reial G L ,Pla a Reial 1 Ciutat Vella 08001 Barcelona Spain,Barcelona,41.3799929,2.1748256
Hotel Spa La Belle Juliette,92 Rue Du Cherche Midi 6th arr 75006 Paris France,Paris,48.8474426,2.3223783
Melia Paris Champs Elys es,102 Avenue Victor Hugo 16th arr 75016 Paris France,Paris,48.8688962,2.2827459
Baglioni Hotel Carlton The Leading Hotels of the World,Via Senato 5 Milan City Center 20121 Milan Italy,Milan,45.4691663,9.1984454
Hotel Dieci,Largo Rio de Janeiro 12 Citt Studi 20133 Milan Italy,Milan,45.4738012,9.2239702
Best Western Premier Op ra Opal,19 Rue Tronchet 8th arr 75008 Paris France,Paris,48.8722588,2.3257608
Hotel Bachaumont,18 rue Bachaumont 2nd arr 75002 Paris France,Paris,48.8663208,2.3450399
H tel Victor Hugo Paris Kl ber,19 Rue Copernic 16th arr 75016 Paris France,Paris,48.8690198,2.2891278
Silken Ramblas,Pintor Fortuny 13 Ciutat Vella 08001 Barcelona Spain,Barcelona,41.3830117,2.1700699
Maison Albar Hotel Paris Op ra Diamond,4 rue de la P pini re 8th arr 75008 Paris France,Paris,NA,NA
Hotel Crivi s,Corso di Porta Vigentina 46 Milan City Center 20122 Milan Italy,Milan,45.4529643,9.1962217
Clayton Hotel Chiswick,626 Chiswick High St Chiswick London W4 5RY United Kingdom,London,51.4924184,-0.2784701
H tel Le Marianne,11 rue Paul Baudry 8th arr 75008 Paris France,Paris,48.8725794,2.3075779
The Student Hotel Amsterdam City,Wibautstraat 129 Oost 1091 GL Amsterdam Netherlands,Amsterdam,52.3546649,4.9131641
Hotel Eug ne en Ville,6 rue Buffault 9th arr 75009 Paris France,Paris,48.8750119,2.3416769
H tel Fabric,31 rue de la Folie M ricourt 11th arr 75011 Paris France,Paris,48.8629329,2.3723823
Hotel Vignon,23 Rue Vignon 8th arr 75008 Paris France,Paris,48.8717146,2.3261812
Exe Laietana Palace,Via Laietana 17 Ciutat Vella 08003 Barcelona Spain,Barcelona,41.3833541,2.1794038
TheWesley,81 103 Euston Street Camden London NW1 2EZ United Kingdom,London,51.5265353,-0.1361682
Balmoral Champs Elys es,6 rue du General Lanrezac 17th arr 75017 Paris France,Paris,48.8759855,2.293938
Hotel Xenia Autograph Collection,160 Cromwell Road Kensington Kensington and Chelsea London SW5 0TL United Kingdom,London,51.4946905,-0.1910197
Barcel Sants,Plaza Paisos Catalans s n Sants Montju c 08014 Barcelona Spain,Barcelona,41.3798964,2.1412433
Durrants Hotel,George Street Westminster Borough London W1H 5BJ United Kingdom,London,51.5179386,-0.1529794
St Ermin s Hotel Autograph Collection,2 Caxton Street Westminster Borough London SW1H 0QW United Kingdom,London,51.498905,-0.1339093
Canary Riverside Plaza Hotel,46 Westferry Circus Tower Hamlets London E14 8RS United Kingdom,London,51.5066991,-0.0280208
ME Milan Il Duca,Piazza della Repubblica 13 Central Station 20124 Milan Italy,Milan,45.4793852,9.1961308
The Gore Hotel Starhotels Collezione,190 Queen s Gate Kensington and Chelsea London SW7 5EX United Kingdom,London,51.5001979,-0.1795357
Goodenough Club,23 Mecklenburgh Square Camden London WC1N 2AD United Kingdom,London,51.525535,-0.1180354
Hilton Garden Inn Vienna South,Hertha Firnberg Stra e 5 10 Favoriten 1100 Vienna Austria,Vienna,48.1667886,16.344908
STRAF a Member of Design Hotels ,Via San Raffaele 3 Milan City Center 20121 Milan Italy,Milan,45.465237,9.191247
The Hari London,20 Chesham Place Kensington and Chelsea London SW1X 8HQ United Kingdom,London,51.4973203,-0.1562558
Hotel Astra Opera Astotel,29 rue Caumartin 9th arr 75009 Paris France,Paris,48.8718321,2.3278866
Le Pavillon de la Reine Spa,28 place des Vosges 3rd arr 75003 Paris France,Paris,48.8562725,2.3660412
COQ Hotel Paris,15 rue Edouard Manet 13th arr 75013 Paris France,Paris,48.8328764,2.3572531
H tel Original Paris,8 Boulevard Beaumarchais 11th arr 75011 Paris France,Paris,48.8546989,2.3691899
Style Hotel,Via delle Erbe 1 Milan City Center 20121 Milan Italy,Milan,45.4708973,9.1840992
ADI Doria Grand Hotel,Viale Andrea Doria 22 Central Station 20124 Milan Italy,Milan,45.4853717,9.2115837
Hilton London Canary Wharf,South Quay Marsh Wall Tower Hamlets London E14 9SH United Kingdom,London,51.5007324,-0.01655
Hotel Marconi,Via Fabio Filzi 3 Central Station 20124 Milan Italy,Milan,45.4868744,9.2018407
Eurostars Cristal Palace,Diputaci 257 Eixample 08007 Barcelona Spain,Barcelona,41.3897945,2.1660575
pentahotel Vienna,Margaretenstra e 92 05 Margareten 1050 Vienna Austria,Vienna,48.1899743,16.3567007
Hotel Tiziano Park Vita Parcour Gruppo MiniHotels,Via Tiziano 6 Fiera Milano City 20145 Milan Italy,Milan,45.4709657,9.1566242
Hotel Magna Pars Small Luxury Hotels of the World,Via Forcella 6 Navigli 20144 Milan Italy,Milan,45.4524879,9.1669784
Holiday Inn Amsterdam,De Boelelaan 2 Zuideramstel 1083 HJ Amsterdam Netherlands,Amsterdam,52.3351951,4.8885354
Hotel Atlanta,W hringer Stra e 33 35 09 Alsergrund 1090 Vienna Austria,Vienna,NA,NA
Hotel Indigo Paris Opera,2 Rue Edouard VII 9th arr 75009 Paris France,Paris,48.8704371,2.329236
Aparthotel Arai 4 Superior,Avinyo 30 Ciutat Vella 08002 Barcelona Spain,Barcelona,41.3807517,2.1772425
Holiday Inn London Mayfair,3 Berkeley Street Westminster Borough London W1J 8NE United Kingdom,London,51.507746,-0.1422993
Sercotel Amister Art Hotel Barcelona,Avenida Roma 93 95 Eixample 08029 Barcelona Spain,Barcelona,41.3844072,2.1514584
Novotel Paris Centre Bercy,85 Rue De Bercy 12th arr 75012 Paris France,Paris,48.8384558,2.3805885
Vienna Marriott Hotel,Parkring 12a 01 Innere Stadt 1010 Vienna Austria,Vienna,48.2050967,16.3770928
Best Western Palm Hotel,64 76 Hendon Way London NW2 2NL United Kingdom,London,51.5634756,-0.2042758
Apex City Of London Hotel,No 1 Seething Lane City of London London EC3N 4AX United Kingdom,London,51.5104624,-0.0795502
Hotel Portello Gruppo Minihotel,Via G Silva 12 Fiera Milano City 20149 Milan Italy,Milan,45.4802503,9.1494925
Hotel Arts Barcelona,Marina 19 21 08005 Barcelona Spain,Barcelona,41.3865424,2.1969665
Park Plaza Vondelpark Amsterdam,Koninginneweg 34 36 Oud Zuid 1075 CZ Amsterdam Netherlands,Amsterdam,52.3542655,4.8664365
The Connaught,Carlos Place Westminster Borough London W1K 2AL United Kingdom,London,51.5101556,-0.1496314
The Bloomsbury Hotel,16 22 Great Russell Street Camden London WC1B 3NN United Kingdom,London,51.5171671,-0.1290534
London Elizabeth Hotel,Lancaster Terrace Hyde Park Westminster Borough London W2 3PF United Kingdom,London,51.5120219,-0.1762414
Hotel Topazz,Lichtensteg 3 01 Innere Stadt 1010 Vienna Austria,Vienna,48.210285,16.373579
The Marble Arch London,31 Great Cumberland Place Westminster Borough London W1H 7TA United Kingdom,London,51.5151247,-0.1600656
Hotel De Vigny,9 11 rue Balzac 8th arr 75008 Paris France,Paris,48.8738672,2.3005894
Kensington House Hotel,15 16 Prince Of Wales Terrace Kensington and Chelsea London W8 5PQ United Kingdom,London,51.5012329,-0.1859937
IntercityHotel Wien,Mariahilfer Stra e 122 Ecke Kaiserstra e 1 3 07 Neubau 1070 Vienna Austria,Vienna,48.1965878,16.3413729
Best Western Plus Elys e Secret,5 rue de Ponthieu 8th arr 75008 Paris France,Paris,48.8701247,2.311141
H tel Etoile Saint Honor by Happyculture,214 rue du Faubourg Saint Honor 8th arr 75008 Paris France,Paris,48.8756508,2.3041568
St Paul s Hotel,153 Hammersmith Road Hammersmith and Fulham London W14 0QL United Kingdom,London,51.4934752,-0.2153256
Park Plaza London Riverbank,18 Albert Embankment Lambeth London SE1 7TJ United Kingdom,London,51.4913737,-0.1214194
Claris Hotel Spa GL,Pau Claris 150 Eixample 08009 Barcelona Spain,Barcelona,41.3944848,2.1651078
Millennium Hotel London Knightsbridge,17 25 Sloane Street Knightsbridge Kensington and Chelsea London SW1X 9NU United Kingdom,London,51.4999683,-0.1599927
Petit Palace Boqueria Garden,Boquer a 10 Ciutat Vella 08002 Barcelona Spain,Barcelona,41.3812223,2.1739622
Saint Georges Hotel,14 15 Langham Place Westminster Borough London W1B 2QS United Kingdom,London,51.517839,-0.1424476
Hotel Mercure Wien Westbahnhof,Felberstra e 4 15 Rudolfsheim F nfhaus 1150 Vienna Austria,Vienna,48.1983543,16.3375246
Hotel Pulitzer,Bergara 8 Eixample 08002 Barcelona Spain,Barcelona,41.386136,2.1682914
Hotel Malte Astotel,63 rue de Richelieu 2nd arr 75002 Paris France,Paris,48.8672474,2.33738
Dorsett Shepherds Bush,58 Shepherds Bush Green Hammersmith and Fulham London W12 8QE United Kingdom,London,51.5039399,-0.2244232
London City Suites,42 46 Chiswell Street City of London London EC1Y 4SB United Kingdom,London,51.5206309,-0.0915341
H tel Ad le Jules,2 4bis Cit Rougemont 9th arr 75009 Paris France,Paris,48.8721062,2.3451384
Hotel Corvinus,Mariahilfer Stra e 57 59 06 Mariahilf 1060 Vienna Austria,Vienna,48.1990335,16.3525051
Hotel Mailberger Hof,Annagasse 7 01 Innere Stadt 1010 Vienna Austria,Vienna,48.204183,16.3726664
Holiday Inn Amsterdam Arena Towers,Hoogoorddreef 66 Zuidoost 1101 BE Amsterdam Netherlands,Amsterdam,52.3096835,4.9422614
NH Danube City,Wagramer Stra e 21 22 Donaustadt 1220 Vienna Austria,Vienna,48.2353789,16.4219737
Hilton Barcelona,Avenida Diagonal 589 591 Les Corts 08014 Barcelona Spain,Barcelona,41.388682,2.1316368
Le Meridien Piccadilly,21 Piccadilly Westminster Borough London W1J 0BH United Kingdom,London,51.5094835,-0.1362538
Mandarin Oriental Milan,Via Andegari 9 Milan City Center 20121 Milan Italy,Milan,45.4694772,9.1909325
DoubleTree by Hilton London Hyde Park,150 Bayswater Road Kensington and Chelsea London W2 4RT United Kingdom,London,51.5100362,-0.190657
Grand Hotel et de Milan,Via Manzoni 29 Milan City Center 20121 Milan Italy,Milan,45.4699058,9.1925024
Goralska R sidences H tel Paris Bastille,7 Boulevard Bourdon 4th arr 75004 Paris France,Paris,48.8482842,2.3657251
Doubletree By Hilton London Greenwich,Catherine Grove Greenwich Greenwich London SE10 8BB United Kingdom,London,51.474469,-0.019428
Holiday Inn Paris Saint Germain des Pr s,92 rue de Vaugirard 6th arr 75006 Paris France,Paris,48.846837,2.3258066
Best Western Premier Louvre Saint Honor ,141 rue St Honor 1st arr 75001 Paris France,Paris,48.861711,2.340674
Hotel degli Arcimboldi,Viale Sarca 336 Bicocca Zara 20125 Milan Italy,Milan,45.5257221,9.2150033
Holiday Inn Paris Notre Dame,4 rue Danton 6th arr 75006 Paris France,Paris,48.8528427,2.3422256
citizenM London Shoreditch,6 Holywell Lane Hackney London EC2A 3ET United Kingdom,London,51.5241373,-0.0786983
Melia Barcelona Sarri ,Avenida Sarri 50 Les Corts 08029 Barcelona Spain,Barcelona,41.391058,2.141706
Timhotel Op ra Grands Magasins,35 Rue La Bruy re 9th arr 75009 Paris France,Paris,48.8794682,2.3334957
Phileas Hotel,24 Rue d Amsterdam 9th arr 75009 Paris France,Amsterdam,48.8768854,2.3270623
Hotel Royal,Singerstra e 3 01 Innere Stadt 1010 Vienna Austria,Vienna,48.2078727,16.3724042
Morgan Mees,2e Hugo de Grootstraat 2 6 Westerpark 1052 LC Amsterdam Netherlands,Amsterdam,52.3743712,4.8746196
Duquesa Suites Barcelona,Pla a Antonio L pez 5 Ciutat Vella 08002 Barcelona Spain,Barcelona,41.3810421,2.1814294
Catalonia Port,Ample 1 Pla a Duc de Medinaceli Ciutat Vella 08002 Barcelona Spain,Barcelona,41.378751,2.17873
Grupotel Gran Via 678,Gran Via de les Corts Catalanes 678 Eixample 08010 Barcelona Spain,Barcelona,41.392344,2.1729157
Hotel du Petit Moulin,29 31 rue de Poitou 3rd arr 75003 Paris France,Paris,48.8615843,2.3620652
La Villa Royale,2 Rue Duperr 9th arr 75009 Paris France,Paris,48.8821595,2.3367444
Les Jardins Du Marais,74 rue Amelot 11th arr 75011 Paris France,Paris,48.8605219,2.3680239
Renaissance Paris Vendome Hotel,4 Rue Du Mont Thabor 1st arr 75001 Paris France,Paris,48.8654532,2.3295231
Hotel Des Saints Peres Esprit de France,65 rue des Saints P res 6th arr 75006 Paris France,Paris,48.8534026,2.3299043
Conservatorium Hotel,Van Baerlestraat 27 Oud Zuid 1071 AN Amsterdam Netherlands,Amsterdam,52.358631,4.8786236
Shangri La Hotel Paris,10 Avenue D I na 16th arr 75016 Paris France,Paris,48.8637135,2.2934759
Grand Hotel Saint Michel,19 Rue Cujas 5th arr 75005 Paris France,Paris,48.8478399,2.342254
Lansbury Heritage Hotel,117 Poplar High Street Tower Hamlets London E14 0AE United Kingdom,London,51.5090985,-0.0157302
Mercure Paris 19 Philharmonie La Villette,216 Avenue Jean Jaures 19th arr 75019 Paris France,Paris,48.8886969,2.3945403
Austria Trend Hotel Anatol Wien,Webgasse 26 06 Mariahilf 1060 Vienna Austria,Vienna,48.1945774,16.346356
Saint SHERMIN bed breakfast champagne,Rilke Platz 7 04 Wieden 1040 Vienna Austria,Vienna,48.1978409,16.367087
TRYP Paris Op ra,3 Boulevard Montmartre 2nd arr 75002 Paris France,Paris,48.8713619,2.3426375
Artus Hotel by MH,34 Rue de Buci 6th arr 75006 Paris France,Paris,48.8535639,2.3360169
The Rookery,Peters Lane Cowcross Street Islington London EC1M 6DS United Kingdom,London,51.520171,-0.102463
Conrad London St James,22 28 Broadway Westminster Borough London SW1H 0BH United Kingdom,London,51.4993927,-0.1329128
Urban Lodge Hotel,Arlandaweg 10 Westpoort 1043 EW Amsterdam Netherlands,Amsterdam,52.3856494,4.834443
Sansi Pedralbes,Avenida Pearson 1 3 Les Corts 08034 Barcelona Spain,Barcelona,41.39367,2.1115418
Chambiges Elys es,8 rue Chambiges 8th arr 75008 Paris France,Paris,48.8668048,2.3039465
Villa Lut ce Port Royal,52 rue Jenner 13th arr 75013 Paris France,Paris,48.8364204,2.3603332
Sofitel London St James,6 Waterloo Place Westminster Borough London SW1Y 4AN United Kingdom,London,51.5076044,-0.132266
The Cumberland A Guoman Hotel,Great Cumberland Place Westminster Borough London W1H 7DL United Kingdom,London,51.514879,-0.1606501
The Montague On The Gardens,15 Montague St Bloomsbury Camden London WC1B 5BJ United Kingdom,London,51.520181,-0.1256957
Hotel La Villa Saint Germain Des Pr s,29 Rue Jacob 6th arr 75006 Paris France,Paris,48.8553486,2.3340736
The Park Tower Knightsbridge a Luxury Collection Hotel,101 Knightsbridge Westminster Borough London SW1X 7RN United Kingdom,London,51.5014191,-0.1625805
Mercure Paris Pigalle Sacre Coeur,21 Boulevard De Clichy 9th arr 75009 Paris France,Paris,48.8823398,2.3364764
Starhotels Ritz,Via Spallanzani 40 Central Station 20129 Milan Italy,Milan,45.4779041,9.2094965
Hilton London Paddington,146 Praed Street Westminster Borough London W2 1EE United Kingdom,London,51.515632,-0.175737
Hotel Parc Saint Severin Esprit de France,22 Rue de La Parcheminerie 5th arr 75005 Paris France,Paris,48.8518584,2.3447798
Grosvenor House A JW Marriott Hotel,Park Lane Westminster Borough London W1K 7TN United Kingdom,London,51.5082019,-0.1545589
Hotel Wagner,Via M Buonarroti 13 Fiera Milano City 20149 Milan Italy,Milan,45.4684949,9.1550355
Park Hyatt Milano,Via Tommaso Grossi 1 Milan City Center 20121 Milan Italy,Milan,45.4654912,9.1889612
Fletcher Hotel Amsterdam,Schepenbergweg 50 Zuidoost 1105 AT Amsterdam Netherlands,Amsterdam,52.2924567,4.9444338
Maison Albar Hotel Paris C line,23 25 rue de Pont Neuf 1st arr 75001 Paris France,Paris,48.8606187,2.344401
Melia Paris Tour Eiffel,35 Rue Jean Goujon 8th arr 75008 Paris France,Paris,48.8651994,2.3045076
Ambassadors Bloomsbury,12 Upper Woburn Place Camden London WC1H 0HX United Kingdom,London,51.5266618,-0.1296571
Best Western Ducs de Bourgogne,19 Rue Du Pont Neuf 1st arr 75001 Paris France,Paris,48.8603483,2.3440535
Hotel Balmoral,Via Augusta 5 08006 Barcelona Spain,Barcelona,41.3961294,2.1551626
UNA Maison Milano,Via Mazzini 4 Milan City Center 20123 Milan Italy,Milan,45.4633289,9.1884242
Four Seasons Hotel London at Park Lane,Hamilton Place Park Lane Westminster Borough London W1J 7DR United Kingdom,London,51.504439,-0.149911
Hilton London Bankside,2 8 Great Suffolk Street Southwark London SE1 0UG United Kingdom,London,51.5056956,-0.101525
K K Hotel Picasso,Passeig de Picasso 26 30 Ciutat Vella 08003 Barcelona Spain,Barcelona,41.3866227,2.1840722
Gainsborough Hotel,7 11 Queensberry Place Kensington and Chelsea London SW7 2DL United Kingdom,London,51.4948416,-0.1772056
Ten Manchester Street Hotel,8 12 Manchester Street Westminster Borough London W1U 4DG United Kingdom,London,51.5188,-0.153839
Ilunion Almirante,Via Laietana 42 Ciutat Vella 08003 Barcelona Spain,Barcelona,41.3860521,2.176157
Hotel Champs Elys es Friedland by Happyculture,177 rue du faubourg Saint Honor 8th arr 75008 Paris France,Paris,48.8750848,2.3048372
Hotel Le Chat Noir,68 Boulevard De Clichy 18th arr 75018 Paris France,Paris,48.8836255,2.3340538
H10 Art Gallery 4 Sup,Enric Granados 62 64 Eixample 08008 Barcelona Spain,Barcelona,41.392018,2.157066
Dutch Design Hotel Artemis,John M Keynesplein 2 Slotervaart 1066 EP Amsterdam Netherlands,Amsterdam,52.3417894,4.824952
Hotel VIU Milan,6 Via Aristotile Fioravanti Garibaldi Station 20154 Milan Italy,Milan,45.488764,9.183057
The Harmonie Vienna,Harmoniegasse 5 7 09 Alsergrund 1090 Vienna Austria,Vienna,48.2199427,16.3598984
Pullman London St Pancras,100 110 Euston Road Camden London NW1 2AJ United Kingdom,London,51.5286766,-0.1283489
The Piccadilly London West End,65 73 Shaftesbury Avenue Westminster Borough London W1D 6EX United Kingdom,London,51.5121957,-0.1318384
Hotel Am Stephansplatz,Stephansplatz 9 01 Innere Stadt 1010 Vienna Austria,Vienna,48.2087646,16.3721138
Relais Christine,3 Rue Christine 6th arr 75006 Paris France,Paris,48.8542454,2.339956
H tel Duo,11 Rue Du Temple 4th arr 75004 Paris France,Paris,48.8581186,2.3529369
Hotel Beethoven Wien,Papagenogasse 6 06 Mariahilf 1060 Vienna Austria,Vienna,48.2000165,16.3641802
LaGare Hotel Milano Centrale MGallery by Sofitel,Via Gian Battista Pirelli 20 Central Station 20124 Milan Italy,Milan,45.484237,9.198858
City Hotel Deutschmeister,Gr nentorgasse 30 09 Alsergrund 1090 Vienna Austria,Vienna,NA,NA
Hotel Cafe Royal,68 Regent Street West End Mayfair Westminster Borough London W1B 4DY United Kingdom,London,51.5100916,-0.1359431
ADI Hotel Poliziano Fiera,Via Poliziano 11 Sempione 20154 Milan Italy,Milan,45.4837173,9.1649371
Grange Fitzrovia Hotel,20 28 Bolsover Street Westminster Borough London W1W 5NB United Kingdom,London,51.521759,-0.1425381
H tel Monna Lisa Champs Elys es,97 rue La Bo tie 8th arr 75008 Paris France,Paris,48.874853,2.3245798
Lancaster London,Lancaster Terrace Westminster Borough London W2 2TY United Kingdom,London,51.5119446,-0.179939
Sir Adam Hotel,Overhoeksplein 7 Amsterdam Noord 1031 KS Amsterdam Netherlands,Amsterdam,52.3840358,4.9028572
L Hotel Pergol se Paris,3 Rue Pergolese 16th arr 75116 Paris France,Paris,48.8756618,2.2863468
Hotel Villa Lafayette Paris IX,46 Rue De Tr vise 9th arr 75009 Paris France,Paris,48.8760884,2.3456465
Park Plaza London Park Royal,628 Western Avenue London W3 0TA United Kingdom,London,51.527262,-0.282992
H10 Marina Barcelona,Avenida Bogatell 64 68 Sant Mart 08005 Barcelona Spain,Barcelona,41.393227,2.1927427
DoubleTree by Hilton London Docklands Riverside,265 Rotherhithe Street Southwark London SE16 5HW United Kingdom,London,51.5043483,-0.0334436
NH Carlton Amsterdam,Vijzelstraat 4 Amsterdam City Center 1017 HK Amsterdam Netherlands,Amsterdam,52.3663727,4.8930505
H tel R de Paris Boutique Hotel,41 rue de Clichy 9th arr 75009 Paris France,Paris,48.8799239,2.3288332
H tel Chaplain Paris Rive Gauche,11 Bis Rue Jules Chaplain 6th arr 75006 Paris France,Paris,48.8427564,2.3305636
Hotel La Place,17 Nottingham Place Westminster Borough London W1U 5LG United Kingdom,London,51.5215257,-0.1533039
Grand Hotel Downtown,Eerste Constantijn Huygensstraat 10A Oud West 1054 BR Amsterdam Netherlands,Amsterdam,52.36513,4.8729422
ABaC Restaurant Hotel Barcelona GL Monumento,Avenida Tibidabo 1 Sarri St Gervasi 08022 Barcelona Spain,Barcelona,41.4106944,2.136294
Le M ridien Etoile,81 boulevard Gouvion Saint Cyr 17th arr 75017 Paris France,Paris,48.8794646,2.2849548
Hotel Lloyd,Corso di Porta Romana 48 Milan City Center 20122 Milan Italy,Milan,45.4580781,9.1924205
Occidental Atenea Mar Adults Only,Paseo Garc a Faria 37 47 Sant Mart 08019 Barcelona Spain,Barcelona,41.4023621,2.2119049
Boundary Rooms Suites,2 4 Boundary Street Hackney London E2 7DD United Kingdom,London,51.5244224,-0.0764614
Austria Trend Parkhotel Sch nbrunn Wien,Hietzinger Hauptstra e 10 14 13 Hietzing 1130 Vienna Austria,Vienna,48.1866506,16.3023375
Hotel Raffaello,Viale Certosa 108 Certosa 20156 Milan Italy,Milan,45.494861,9.141551
London Hilton on Park Lane,22 Park Lane Westminster Borough London W1K 1BE United Kingdom,London,51.5055513,-0.1501698
Victoire Germain,9 rue Gr goire de Tours 6th arr 75006 Paris France,Paris,48.853299,2.337993
Holiday Inn London Kensington,Wrights Lane Kensington and Chelsea London W8 5SP United Kingdom,London,51.499981,-0.1928791
InterContinental Amstel Amsterdam,Professor Tulpplein 1 Amsterdam City Center 1018 GX Amsterdam Netherlands,Amsterdam,52.3600068,4.9051643
H tel Le Royal Monceau Raffles Paris,37 Avenue Hoche 8th arr 75008 Paris France,Paris,48.8756359,2.3004967
The Nadler Victoria,10 Palace Place Westminster Borough London SW1E 5BW United Kingdom,London,51.4990259,-0.1427453
New Linden Hotel,59 Leinster Square Kensington and Chelsea London W2 4PS United Kingdom,London,51.5133832,-0.1926617
Swiss tel Amsterdam,Damrak 96 Amsterdam City Center 1012 LP Amsterdam Netherlands,Amsterdam,52.3735266,4.8933041
Hotel City Central,Taborstra e 8 A 02 Leopoldstadt 1020 Vienna Austria,Vienna,NA,NA
Imperial Riding School Renaissance Vienna Hotel,Ungargasse 60 03 Landstra e 1030 Vienna Austria,Vienna,48.1966396,16.3863822
H tel Montmartre Mon Amour,7 Rue Paul Albert 18th arr 75018 Paris France,Paris,48.886687,2.3449332
Batty Langley s,12 Folgate Street City of London London E1 6BX United Kingdom,London,51.5208575,-0.0779503
Millennium Copthorne Hotels at Chelsea Football Club,Fulham Road Stamford Bridge Hammersmith and Fulham London SW6 1HS United Kingdom,London,51.481663,-0.1909565
Crowne Plaza London The City,19 New Bridge Street City of London London EC4V 6DB United Kingdom,London,51.5122429,-0.1045036
The Kensington Hotel,109 113 Queen s Gate Kensington and Chelsea London SW7 5LR United Kingdom,London,51.4925478,-0.1780611
Hotel Stendhal Place Vend me Paris MGallery by Sofitel,22 Rue Danielle Casanova 1st arr 75002 Paris France,Paris,48.8681455,2.3313064
Relais H tel du Vieux Paris,9 rue Git le Coeur 6th arr 75006 Paris France,Paris,48.8538608,2.3429487
Trinit Haussmann,41 rue Jean Baptiste Pigalle 9th arr 75009 Paris France,Paris,48.8800565,2.3342353
Radisson Blu Edwardian Mercer Street,20 Mercer Street Covent Garden Camden London WC2H 9HD United Kingdom,London,51.5139275,-0.1271506
Hotel Silver,Via Riccardo Lombardi 9 11 20153 Milan Italy,Milan,45.4589731,9.0687506
Villa Beaumarchais,5 rue des Arquebusiers 3rd arr 75003 Paris France,Paris,48.8589516,2.3670407
Der Wilhelmshof,Kleine Stadtgutgasse 4 02 Leopoldstadt 1020 Vienna Austria,Vienna,48.2185837,16.3881339
Mercure Milano Regency,Via G Arimondi 12 Sempione 20155 Milan Italy,Milan,45.4897688,9.1549451
London Suites,230 A Mile End Road Tower Hamlets London E1 4LJ United Kingdom,London,51.5215508,-0.0469238
H tel de Varenne,44 rue de Bourgogne 7th arr 75007 Paris France,Paris,48.8570275,2.3170282
Le Relais Montmartre,6 Rue Constance 18th arr 75018 Paris France,Paris,48.8854538,2.3335809
The Leonard Hotel,15 Seymour Street Westminster Borough London W1H 7JW United Kingdom,London,51.5147071,-0.1578291
Savoy Hotel Amsterdam,Ferdinand Bolstraat 194 Oud Zuid 1072 LW Amsterdam Netherlands,Amsterdam,52.3497431,4.8911908
Hotel Le Pera,17 Rue de Caumartin 9th arr 75009 Paris France,Paris,48.871309,2.3277079
Hotel de France Wien,Schottenring 3 01 Innere Stadt 1010 Vienna Austria,Vienna,48.2146623,16.3627994
Hotel Auriga,Via G B Pirelli 7 Central Station 20124 Milan Italy,Milan,45.4858877,9.2042827
Grange St Paul s Hotel,10 Godliman Street City of London London EC4V 5AJ United Kingdom,London,51.5127625,-0.0997157
Staunton Hotel B B,13 15 Gower Street Camden London WC1E 6HE United Kingdom,London,51.520378,-0.1303414
The One Barcelona GL,277 Carrer de Proven a Eixample 08037 Barcelona Spain,Barcelona,41.3961448,2.1631674
Best Western Seraphine Kensington Olympia,225 High Street Kensington Kensington and Chelsea London W8 6SA United Kingdom,London,51.4992791,-0.1973593
Rosa Grand Milano Starhotels Collezione,Piazza Fontana 3 Milan City Center 20122 Milan Italy,Milan,45.4638223,9.1940273
Mercure Paris 17 me Saint Lazare Monceau,99 Bis Rue De Rome 17th arr 75017 Paris France,Paris,48.8837472,2.3186342
Small Luxury Hotel Altstadt Vienna,Kirchengasse 41 07 Neubau 1070 Vienna Austria,Vienna,48.2047761,16.3512515
Four Seasons Hotel Milano,Via Ges 6 8 Milan City Center 20121 Milan Italy,Milan,45.469339,9.195108
Fifty Four Boutique Hotel,54 Queens Gate Kensington and Chelsea London SW7 5JW United Kingdom,London,51.4963008,-0.1796853
Grand Hotel Wien,K rntner Ring 9 01 Innere Stadt 1010 Vienna Austria,Vienna,48.2021105,16.3720841
Le Saint Hotel Paris,3 rue du Pr aux Clercs 7th arr 75007 Paris France,Paris,48.8565421,2.3303504
Luxury Suites Amsterdam,Oudeschans 75 Amsterdam City Center 1011 KW Amsterdam Netherlands,Amsterdam,52.3702613,4.9032489
Hotel Daniel Vienna,Landstra er G rtel 5 03 Landstra e 1030 Vienna Austria,Vienna,NA,NA
TownHouse Duomo,Via Silvio Pellico 2 Milan City Center 20121 Milan Italy,Milan,45.4648822,9.1893265
Mercure Tour Eiffel Grenelle,64 Boulevard de Grenelle 15th arr 75015 Paris France,Paris,48.850448,2.2928845
Bilderberg Garden Hotel,Dijsselhofplantsoen 7 Oud Zuid 1077 BJ Amsterdam Netherlands,Amsterdam,52.3511447,4.8740764
Hotel ViennArt am Museumsquartier,Breite Gasse 9 07 Neubau 1070 Vienna Austria,Vienna,48.2035677,16.356445
FourSide Hotel Suites Vienna,Freytaggasse 25 27 21 Floridsdorf 1210 Vienna Austria,Vienna,48.2565936,16.4031426
Bulgari Hotel London,171 Knightsbridge Westminster Borough London SW7 1DW United Kingdom,London,51.5015721,-0.1628511
Hotel Serhs Rivoli Rambla,La Rambla 128 Ciutat Vella 08002 Barcelona Spain,Barcelona,41.3843222,2.1712893
Best Western Aulivia Op ra,4 Rue des Petites Ecuries 10th arr 75010 Paris France,Paris,48.8730552,2.3540112
The Victoria,10 West Temple Sheen London SW14 7RT United Kingdom,London,51.4611219,-0.2756216
Hyatt Regency Amsterdam,Sarphatistraat 104 Amsterdam City Center 1018 GV Amsterdam Netherlands,Amsterdam,52.3617751,4.9118187
Residence Henri IV,50 rue des Bernardins 5th arr 75005 Paris France,Paris,48.8481917,2.3490316
H tel Powers,52 rue Francois 1er 8th arr 75008 Paris France,Paris,48.8691409,2.3031503
H tel Cristal Champs Elys es,9 Rue de Washington 8th arr 75008 Paris France,Paris,48.8726814,2.3020866
Hotel Le petit Paris,214 rue Saint Jacques 5th arr 75005 Paris France,Paris,48.8452789,2.342295
Bermondsey Square Hotel A Bespoke Hotel,Tower Bridge Road Southwark London SE1 3UN United Kingdom,London,51.4991134,-0.0790969
Relais Du Louvre,19 Rue Des Pretres Saint Germain L Auxerrois 1st arr 75001 Paris France,Paris,48.8592264,2.340996
Ham Yard Hotel,One Ham Yard Westminster Borough London W1D 7DT United Kingdom,London,51.511174,-0.1349904
Novotel Paris 17,34 Avenue Porte d Asni res 17th arr 75017 Paris France,Paris,48.8920485,2.3023791
Hotel Sans Souci Wien,Burggasse 2 07 Neubau 1070 Vienna Austria,Vienna,48.204576,16.3563661
Drawing Hotel,17 rue de Richelieu 1st arr 75001 Paris France,Paris,48.8644382,2.3359148
The Ned,Poultry 27 City of London London EC2R 8AJ United Kingdom,London,51.5135929,-0.0907833
The Zetter Townhouse Clerkenwell,49 50 St John s Square Islington London EC1V 4JJ United Kingdom,London,51.5231564,-0.1035134
Britannia International Hotel Canary Wharf,163 Marsh Wall Docklands Tower Hamlets London E14 9SJ United Kingdom,London,51.5019097,-0.0232208
Hotel Best Western PLUS Alfa Aeropuerto,Calle K s n Entrada principal Mercabarna Sants Montju c 08040 Barcelona Spain,Barcelona,41.3283758,2.1129638
Hotel mbit Barcelona,Roger de Ll ria 17 Eixample 08010 Barcelona Spain,Barcelona,41.3907821,2.1717426
The Lanesborough,Hyde Park Corner Westminster Borough London SW1X 7TA United Kingdom,London,51.50303,-0.15242
Shaftesbury Hyde Park International,52 56 Inverness Terrace Westminster Borough London W2 3LB United Kingdom,London,51.5123968,-0.186124
Mercure Vaugirard Paris Porte De Versailles,69 Boulevard Victor 15th arr 75015 Paris France,Paris,48.8330649,2.2879617
H tel F licien by Elegancia,21 rue F licien David 16th arr 75016 Paris France,Paris,48.8493082,2.2743626
Intercontinental London The O2,1 Waterview Drive Greenwich London SE10 0TW United Kingdom,London,51.5024348,-0.0002497
Corus Hotel Hyde Park,Lancaster Gate Westminster Borough London W2 3LG United Kingdom,London,51.5119446,-0.179939
Hotel Midmost,Pelayo 14 Ciutat Vella 08001 Barcelona Spain,Barcelona,41.3856173,2.1659487
Sina De La Ville,Via Hoepli 6 Milan City Center 20121 Milan Italy,Milan,45.465957,9.192297
Best Western Premier Marais Grands Boulevards,112 boulevard de S bastopol 3rd arr 75003 Paris France,Paris,48.8687425,2.3541761
The Cleveland,39 40 Cleveland Square Westminster Borough London W2 6DA United Kingdom,London,51.5139692,-0.1828202
Les Matins de Paris Spa,3 rue Clauzel 9th arr 75009 Paris France,Paris,48.878932,2.3394182
Belfast,10 avenue Carnot 17th arr 75017 Paris France,Paris,48.8756435,2.2938788
Barcel Raval,Rambla del Raval 17 21 Ciutat Vella 08001 Barcelona Spain,Barcelona,41.3790126,2.1696339
The Ampersand Hotel,10 Harrington Road Kensington and Chelsea London SW7 3ER United Kingdom,London,51.4943077,-0.1755579
Renaissance Paris Arc de Triomphe Hotel,39 Avenue de Wagram 17th arr 75017 Paris France,Paris,48.8772093,2.2968266
Room Mate Anna,Carrer de Arag 271 Eixample 08007 Barcelona Spain,Barcelona,41.3929366,2.1653954
Hotel Mentana,Via Morigi 2 Milan City Center 20123 Milan Italy,Milan,45.4622972,9.1814695
Holiday Inn Paris Elys es,24 Rue De Miromesnil 8th arr 75008 Paris France,Paris,48.8730437,2.3161144
Hotel Square,3 Rue De Boulainvilliers 16th arr 75016 Paris France,Paris,48.851589,2.2777274
Norfolk Towers Paddington,34 Norfolk Place Paddington Westminster Borough London W2 1QW United Kingdom,London,51.5162883,-0.1721078
Hotel Carlton s Montmartre,55 Bld Rochechouart 9th arr 75009 Paris France,Paris,48.8819068,2.3410005
Suite Hotel 900 m zur Oper,Wiedner Hauptstra e 44 04 Wieden 1040 Vienna Austria,Vienna,48.1935235,16.3669145
9Hotel Republique,7 9 Rue Pierre Chausson 10th arr 75010 Paris France,Paris,48.8708419,2.3605864
K K Hotel George,1 15 Templeton Place Earl s Court Kensington and Chelsea London SW5 9NB United Kingdom,London,51.4918878,-0.1949706
NYX Milan,Piazza Quattro Novembre 3 Central Station 20124 Milan Italy,Milan,45.4868745,9.2018406
Hotel Gran Derby Suites,Loreto 28 Les Corts 08029 Barcelona Spain,Barcelona,41.3900104,2.1422396
Sall s Hotel Pere IV,Pallars 128 130 Sant Mart 08018 Barcelona Spain,Barcelona,41.3969273,2.192267
Catalonia Rigoletto,Sabino de Arana 22 24 Les Corts 08028 Barcelona Spain,Barcelona,41.385817,2.1256789
H tel Bourgogne Montana by MH,3 rue de Bourgogne 7th arr 75007 Paris France,Paris,48.8601927,2.318423
Hotel Royal Elys es,6 Avenue Victor Hugo 16th arr 75116 Paris France,Paris,48.8729666,2.2926226
Suites H tel Helzear Champs Elys es,49 Avenue Marceau 16th arr 75116 Paris France,Paris,48.8691399,2.2981024
Chiswick Rooms,407 Goldhawk Rd Chiswick London W6 0SA United Kingdom,London,51.4937409,-0.244896
Seven Hotel,20 rue Berthollet 5th arr 75005 Paris France,Paris,48.8389823,2.3455528
Hotel Op ra Richepanse,14 Rue du Chevalier de Saint George 1st arr 75001 Paris France,Paris,48.8686931,2.325211
W Amsterdam,Spuistraat 175 Amsterdam City Center 1012 VN Amsterdam Netherlands,Amsterdam,52.3727871,4.8900059
Acca Palace,Via Giovanni Nicotera 9 Niguarda 20161 Milan Italy,Milan,45.5099969,9.1739942
Melia Paris Vendome,8 Rue Cambon 1st arr 75001 Paris France,Paris,48.8668228,2.3257729
Hotel Abbot,Avenida Roma 23 Eixample 08029 Barcelona Spain,Barcelona,41.3815028,2.1449138
Royal Saint Honore,221 Rue Saint Honore 1st arr 75001 Paris France,Paris,48.8658792,2.3298903
Boutique H tel Konfidentiel,64 Rue de l Arbre Sec 1st arr 75001 Paris France,Paris,48.8612535,2.3426256
Cordial Theaterhotel Wien,Josefst dter Stra e 22 08 Josefstadt 1080 Vienna Austria,Vienna,NA,NA
Hotel Liberty,Viale Bligny 56 Milan City Center 20136 Milan Italy,Milan,45.4508673,9.1948659
Sheraton Grand London Park Lane,Piccadilly Westminster Borough London W1J 7BX United Kingdom,London,51.5092876,-0.1370062
Hotel Mozart,Piazza Gerusalemme 6 Sempione 20154 Milan Italy,Milan,45.4834133,9.1666361
Sofitel Paris Le Faubourg,15 Rue Boissy d Anglas 8th arr 75008 Paris France,Paris,48.868414,2.3213247
The Pelham Starhotels Collezione,15 Cromwell Place Kensington and Chelsea London SW7 2LA United Kingdom,London,51.4943935,-0.1750169
Villa Panth on,41 Rue Des Ecoles 5th arr 75005 Paris France,Paris,48.8488044,2.3469889
H tel Le Relais Saint Germain,9 Carrefour de l Od on 6th arr 75006 Paris France,Paris,48.8519208,2.338878
Radisson Blu Edwardian Vanderbilt,68 86 Cromwell Road Kensington Kensington and Chelsea London SW7 5BT United Kingdom,London,51.4953691,-0.1818966
Twenty Nevern Square Hotel,20 Nevern Square Kensington and Chelsea London SW5 9PD United Kingdom,London,51.4915712,-0.1963192
Rainers Hotel Vienna,Gudrunstra e 184 10 Favoriten 1100 Vienna Austria,Vienna,48.1791893,16.3625367
Novotel London Canary Wharf,40 Marsh Wall Tower Hamlets London E14 9TP United Kingdom,London,51.5011704,-0.0232607
Holiday Inn London West,4 Portal Way Gypsy Corner A40 London W3 6RT United Kingdom,London,51.5210117,-0.2628618
Eurostars Bcn Design,Passeig de Gr cia 29 Eixample 08007 Barcelona Spain,Barcelona,41.3907208,2.1660732
Olivia Balmes Hotel,Balmes 117 Eixample 08008 Barcelona Spain,Barcelona,41.392095,2.158493
Hotel Johann Strauss,Favoritenstra e 12 04 Wieden 1040 Vienna Austria,Vienna,48.1949694,16.3692624
Ilunion Barcelona,Ramon Turr 196 198 Sant Mart 08005 Barcelona Spain,Barcelona,41.3989322,2.2024183
Radisson Blu Champs Elys es Paris,78 Bis Avenue Marceau 8th arr 75008 Paris France,Paris,48.8719212,2.2971404
Hotel Villa Emilia,Calabria 115 117 Eixample 08015 Barcelona Spain,Barcelona,41.3802469,2.1541149
Novotel London Blackfriars,46 Blackfriars Road Southwark London SE1 8NZ United Kingdom,London,51.5050165,-0.1049831
Atlantis Hotel Vienna,Wurzbachgasse 21 15 Rudolfsheim F nfhaus 1150 Vienna Austria,Vienna,48.2037451,16.3356767
St Pancras Renaissance Hotel London,Euston Road Camden London NW1 2AR United Kingdom,London,51.5267769,-0.1324905
Le Parisis Paris Tour Eiffel,102 Bd De Grenelle 15th arr 75015 Paris France,Paris,48.8494851,2.2955063
Falkensteiner Hotel Wien Zentrum Schottenfeld,Schottenfeldgasse 74 07 Neubau 1070 Vienna Austria,Vienna,48.2048494,16.343618
Park Plaza Victoria Amsterdam,Damrak 1 5 Amsterdam City Center 1012 LG Amsterdam Netherlands,Amsterdam,52.377278,4.897818
Crowne Plaza Milan City,Via Melchiorre Gioia 73 Central Station 20124 Milan Italy,Milan,45.4896727,9.2006406
AC Hotel Milano a Marriott Lifestyle Hotel,Via Tazzoli 2 Garibaldi Station 20154 Milan Italy,Milan,45.4851799,9.1831189
Hotel Derby,Loreto 21 25 Les Corts 08029 Barcelona Spain,Barcelona,41.3897735,2.1419762
The Zetter Townhouse Marylebone,28 30 Seymour Street Westminster Borough London W1H 7JB United Kingdom,London,51.514839,-0.1586656
NH Milano Grand Hotel Verdi,Via Melchiorre Gioia 6 Garibaldi Station 20124 Milan Italy,Milan,45.4814923,9.192023
Hotel Cavour,Via Fatebenefratelli 21 Milan City Center 20121 Milan Italy,Milan,45.4726942,9.1943911
FourSide Hotel Vienna City Center,Grieshofgasse 11 12 Meidling 1120 Vienna Austria,Vienna,48.1825159,16.3322428
Hotel Villa Saxe Eiffel,9 Villa de Saxe 7th arr 75007 Paris France,Paris,48.849758,2.3095213
Park Inn by Radisson Uno City Vienna,Wagramer Stra e 16 18 22 Donaustadt 1220 Vienna Austria,Vienna,48.2340799,16.4210093
The Bryson Hotel,124 Clerkenwell Rd Camden London EC1R 5DJ United Kingdom,London,51.5220869,-0.1082443
Hotel Well and Come,Girona 158 Eixample 08037 Barcelona Spain,Barcelona,41.3991773,2.1656134
Radisson Blu Edwardian Grafton,130 Tottenham Court Road Camden London W1T 5AY United Kingdom,London,51.5241386,-0.1380807
Sofitel Legend The Grand Amsterdam,Oudezijds Voorburgwal 197 Amsterdam City Center 1012 EX Amsterdam Netherlands,Amsterdam,52.370835,4.895403
Qualys Hotel Nasco,Corso Sempione 69 Fiera Milano City 20149 Milan Italy,Milan,45.4848809,9.1596461
Fleming s Conference Hotel Wien,Neubaug rtel 26 28 07 Neubau 1070 Vienna Austria,Vienna,48.1995177,16.3388225
Radisson Blu Edwardian Hampshire,31 36 Leicester Square Westminster Borough London WC2H 7LH United Kingdom,London,51.509963,-0.129797
Royal Saint Michel,3 Boulevard Saint Michel 5th arr 75005 Paris France,Paris,48.8528364,2.3440803
Starhotels Tourist,Viale Fulvio Testi 300 Bicocca Zara 20126 Milan Italy,Milan,45.5266395,9.2131549
H tel De Sers Champs Elys es Paris,41 Avenue Pierre 1er de Serbie 8th arr 75008 Paris France,Paris,48.8683593,2.3002117
Bianca Maria Palace Hotel,Viale Bianca Maria 4 Milan City Center 20129 Milan Italy,Milan,45.4635445,9.2068649
Hotel Les Bains Paris,7 Rue Du Bourg L abb 3rd arr 75003 Paris France,Paris,48.863828,2.3519345
Claridge s,41 43 Brook Street Westminster Borough London W1K 4HJ United Kingdom,London,51.5125035,-0.1477438
The Premier Notting Hill,5 7 Princes Square Kensington and Chelsea London W2 4NP United Kingdom,London,51.5127453,-0.1926437
Best Western Premier Op ra Li ge,9 Rue De Li ge 9th arr 75009 Paris France,Paris,48.8795947,2.3280695
Austria Trend Hotel Astoria Wien,K rntner Stra e 32 34 01 Innere Stadt 1010 Vienna Austria,Vienna,48.2044655,16.3702399
La Clef Tour Eiffel,83 avenue Kl ber 16th arr 75016 Paris France,Paris,48.8647019,2.2886425
Best Western Madison Hotel,Via Privata Leopoldo Gasparotto 8 Central Station 20124 Milan Italy,Milan,45.4881471,9.2016609
Pershing Hall,49 rue Pierre Charron 8th arr 75008 Paris France,Paris,48.8691325,2.3021659
Best Western Plus Hotel Blue Square,Slotermeerlaan 80 Geuzenveld Slotermeer 1064 HD Amsterdam Netherlands,Amsterdam,52.3786823,4.8207833
AC Hotel Barcelona Forum a Marriott Lifestyle Hotel,Paseo Taulat 278 Sant Mart 08019 Barcelona Spain,Barcelona,41.4101306,2.2188047
Hotel Boutique Duomo,Via Mac Mahon 45 Sempione 20155 Milan Italy,Milan,45.4909585,9.1614268
Austria Trend Hotel Doppio Wien,Rennweg 99 Rinnboeckstrasse 1 03 Landstra e 1030 Vienna Austria,Vienna,48.1854312,16.404884
Amsterdam Marriott Hotel,Stadhouderskade 12 Oud West 1054 ES Amsterdam Netherlands,Amsterdam,52.362514,4.8800077
Barcelona Princess,Avenida Diagonal 1 Sant Mart 08019 Barcelona Spain,Barcelona,41.4109715,2.2186535
Royal Garden Hotel,2 24 Kensington High St Kensington and Chelsea London W8 4PT United Kingdom,London,51.5027022,-0.1882164
H tel de Jos phine BONAPARTE,10 rue d Ormesson 4th arr 75004 Paris France,Paris,48.8555319,2.3621212
Le G n ral H tel,5 7 rue Rampon 11th arr 75011 Paris France,Paris,48.8662695,2.3668616
Club Quarters Hotel St Paul s,24 Ludgate Hill City of London London EC4M 7DR United Kingdom,London,51.5139298,-0.101126
Pestana Arena Barcelona,Consell de Cent 51 53 Sants Montju c 08014 Barcelona Spain,Barcelona,41.376801,2.1460443
Great St Helen Hotel,36 Great st Helens City of London London EC3A 6AP United Kingdom,London,51.5149583,-0.0823869
Best Western Mercedes Arc de Triomphe,128 avenue de Wagram 17th arr 75017 Paris France,Paris,48.8848292,2.3035189
My Home In Paris,5 Rue De Malte 11th arr 75011 Paris France,Paris,48.8636049,2.3688352
Simply Rooms Suites,21 Avonmore Road Kensington Hammersmith and Fulham London W14 8RP United Kingdom,London,51.4944875,-0.2070605
NH Wien Belvedere,Rennweg 12a 03 Landstra e 1030 Vienna Austria,Vienna,48.1954348,16.383429
Exe Vienna,Ottakringer Stra e 34 36 17 Hernals 1170 Vienna Austria,Vienna,48.2149414,16.3365285
Hotel Le Mareuil,51 Rue de Malte 11th arr 75011 Paris France,Paris,48.8659899,2.3674149
Duret,30 Rue Duret 16th arr 75016 Paris France,Paris,48.8752553,2.286653
ARCOTEL Kaiserwasser Superior,Wagramer Stra e 8 22 Donaustadt 1220 Vienna Austria,Vienna,48.231915,16.417026
Holiday Inn London Oxford Circus,57 59 Welbeck Street Westminster Borough London W1G 9BL United Kingdom,London,51.516843,-0.1495574
Boutique Hotel Notting Hill,Westeinde 26 Amsterdam City Center 1017 ZP Amsterdam Netherlands,Amsterdam,52.3583821,4.8988777
Hotel Saint Dominique,62 Rue Saint Dominique 7th arr 75007 Paris France,Paris,48.8599998,2.3087425
Mercure Paris Gobelins Place d Italie,8 bis Avenue de la Soeur Rosalie 13th arr 75013 Paris France,Paris,48.8321231,2.3536172
Hotel Neri,San Sever 5 Ciutat Vella 08002 Barcelona Spain,Barcelona,41.3832498,2.1753483
Hotel Michelangelo,Piazza Luigi di Savoia 6 Central Station 20124 Milan Italy,Milan,45.4845143,9.2057532
Hotel Landhaus Fuhrgassl Huber,Rathstra e 24 Neustift am Walde 19 D bling 1190 Vienna Austria,Vienna,48.2508693,16.304957
Am Spiegeln,Johann H rbiger Gasse 30 23 Liesing 1230 Vienna Austria,Vienna,48.1537005,16.2825822
Petit Palace Museum,Diputacion 250 Eixample 08007 Barcelona Spain,Barcelona,41.3888014,2.1653738
Holiday Inn Paris Montparnasse Pasteur,10 rue Gager Gabillot 15th arr 75015 Paris France,Paris,48.8376887,2.3063102
Hotel Margot House,Paseo de Gracia 46 Eixample 08007 Barcelona Spain,Barcelona,41.3918805,2.1660363
Hotel Arena, s Gravesandestraat 55 Oost 1092 AA Amsterdam Netherlands,Amsterdam,52.3605759,4.9159683
M by Montcalm Shoreditch London Tech City,151 157 City Road Shoreditch Islington London EC1V 1JS United Kingdom,London,51.5278465,-0.0889473
The Westbourne Hyde Park,51 Gloucester Terrace Westminster Borough London W2 3DQ United Kingdom,London,51.5131074,-0.1778707
Park Plaza County Hall London,1 Addington Street Lambeth London SE1 7RY United Kingdom,London,51.5014001,-0.1160092
Commodore Hotel,50 Lancaster Gate Westminster Borough London W2 3NA United Kingdom,London,51.5124496,-0.1795215
Bilderberg Hotel Jan Luyken,Jan Luykenstraat 58 Oud Zuid 1071 CS Amsterdam Netherlands,Amsterdam,52.3599196,4.8810128
Royal Hotel Champs Elys es,33 avenue de Friedland 8th arr 75008 Paris France,Paris,48.8740463,2.300196
Medinaceli,Duc De Medinaceli 8 Ciutat Vella 08002 Barcelona Spain,Barcelona,41.3781685,2.1786627
Le Grand H tel de Normandie,4 rue Amsterdam 9th arr 75009 Paris France,Amsterdam,48.8759461,2.3270955
Suites H tel Helzear Montparnasse,40 rue Liancourt 14th arr 75014 Paris France,Paris,48.8346811,2.3255098
Hotel Opera Cadet,24 rue Cadet 9th arr 75009 Paris France,Paris,48.8754371,2.3434586
The Yard Milano,Piazza XXIV Maggio 8 Milan City Center 20123 Milan Italy,Milan,45.453152,9.179172
TH Street Duomo,Via Santa Radegonda 14 Milan City Center 20121 Milan Italy,Milan,45.4657568,9.1916674
H tel Madison by MH,143 Boulevard Saint Germain 6th arr 75006 Paris France,Paris,48.8531641,2.3344097
Novotel Barcelona City,Avenida Diagonal 201 Sant Mart 08018 Barcelona Spain,Barcelona,41.4038774,2.1911894
IH Hotels Milano Gioia,Via della Giustizia 10 D Bicocca Zara 20125 Milan Italy,Milan,45.49952,9.206138
Mercer House B ria BCN,Boria 24 26 Ciutat Vella 08003 Barcelona Spain,Barcelona,41.3846844,2.1791065
Paddington Court Executive Rooms,3 Devonshire Terrace Westminster Borough London W2 3DN United Kingdom,London,51.5138357,-0.1797976
Pestana Chelsea Bridge Hotel Spa,354 Queenstown Road Battersea London SW8 4AE United Kingdom,London,51.4815995,-0.1481053
The Laslett,8 Pembridge Garden Kensington and Chelsea London W2 4DU United Kingdom,London,51.5095259,-0.1967234
H tel de la Bourdonnais,111 avenue de la Bourdonnais 7th arr 75007 Paris France,Paris,48.8550466,2.304583
Novotel Paris Les Halles,8 Place Marguerite de Navarre 1st arr 75001 Paris France,Paris,48.8607299,2.3465326
Strand Palace Hotel,372 Strand Westminster Borough London WC2R 0JJ United Kingdom,London,51.5110993,-0.1208673
Hotel Sacher Wien,Philharmoniker Stra e 4 01 Innere Stadt 1010 Vienna Austria,Vienna,48.2038793,16.3698086
DoubleTree by Hilton London West End,92 Southampton Row Camden London WC1B 4BH United Kingdom,London,51.5201065,-0.1221393
Hotel Louvre Montana,12 rue Saint Roch 1st arr 75001 Paris France,Paris,48.8644627,2.3318473
Napoleon Paris,40 avenue de Friedland 8th arr 75008 Paris France,Paris,48.8743885,2.2980915
Grand Hotel Central,Via Laietana 30 Ciutat Vella 08003 Barcelona Spain,Barcelona,41.3849695,2.1776631
Radisson Blu Edwardian Bloomsbury Street,9 13 Bloomsbury Street Nr Covent Garden Camden London WC1B 3QD United Kingdom,London,51.517608,-0.1276253
Hotel Am Parkring,Parkring 12 01 Innere Stadt 1010 Vienna Austria,Vienna,48.2056333,16.3778615
Grange Wellington Hotel,71 Vincent Square Westminster Borough London SW1P 2PA United Kingdom,London,51.4944319,-0.1363756
Best Western Hotel Montmartre Sacr Coeur,66 Boulevard Barb s 18th arr 75018 Paris France,Paris,48.888539,2.3498459
The Mirror Barcelona,Corcega 255 Eixample 08036 Barcelona Spain,Barcelona,41.3930406,2.1545393
Hotel Les Rives de Notre Dame,15 Quai Saint Michel 5th arr 75005 Paris France,Paris,48.8532269,2.3457159
Hotel Cavendish,75 Gower Street Camden London WC1E 6HJ United Kingdom,London,51.5220522,-0.132414
Park Hotel,Stadhouderskade 25 Oud Zuid 1071 ZD Amsterdam Netherlands,Amsterdam,52.3613814,4.8832594
Corendon Vitality Hotel Amsterdam,Aletta Jacobslaan 7 Slotervaart 1066 BP Amsterdam Netherlands,Amsterdam,52.3466449,4.8310984
Le Tourville Eiffel,16 avenue de Tourville 7th arr 75007 Paris France,Paris,48.8542681,2.3078116
Hilton Vienna Danube Waterfront,Handelskai 269 02 Leopoldstadt 1020 Vienna Austria,Vienna,48.2140659,16.4217627
Grand Hotel Amr th Amsterdam,Prins Hendrikkade 108 Amsterdam City Center 1011 AK Amsterdam Netherlands,Amsterdam,52.3744149,4.9041443
Hotel Palais Strudlhof,Pasteurgasse 1 09 Alsergrund 1090 Vienna Austria,Vienna,48.2217697,16.3578738
The Hoxton Amsterdam,Herengracht 255 Amsterdam City Center 1016 BJ Amsterdam Netherlands,Amsterdam,52.3718665,4.8873794
H tel Exquis by Elegancia,71 Rue de Charonne 11th arr 75011 Paris France,Paris,48.8536854,2.3805796
Hotel Odeon Saint Germain,13 rue Saint Sulpice 6th arr 75006 Paris France,Paris,48.8513515,2.3375084
IH Hotels Milano Lorenteggio,Via Lorenteggio 278 Lorenteggio 20152 Milan Italy,Milan,45.4436132,9.1161094
Paris Marriott Opera Ambassador Hotel,16 boulevard Haussmann 9th arr 75009 Paris France,Paris,48.8728351,2.3362507
Silken Concordia,Paral lel 115 Sants Montju c 08004 Barcelona Spain,Barcelona,41.3747873,2.1611846
Starhotels Anderson,Piazza Luigi di Savoia 20 Central Station 20124 Milan Italy,Milan,45.4852549,9.2069501
DoubleTree by Hilton London Westminster,30 John Islip St Westminster Borough London SW1P 4DD United Kingdom,London,51.4932356,-0.1269082
88 Studios,88 Holland Road Kensington and Chelsea London W14 8BN United Kingdom,London,51.4992789,-0.2090733
Schlosshotel R mischer Kaiser,Annagasse 16 01 Innere Stadt 1010 Vienna Austria,Vienna,48.2040859,16.3725046
The Hoxton Holborn,199 206 High Holborn Camden London WC1V 7BD United Kingdom,London,51.5172398,-0.1220324
Hotel Les Th tres,98 Rue De Clery 2nd arr 75002 Paris France,Paris,48.8694768,2.3515065
Banks Mansion All Inclusive Hotel,Herengracht 519 525 Amsterdam City Center 1017 BV Amsterdam Netherlands,Amsterdam,52.3653868,4.8931979
Bulgari Hotel Milano,Via Privata Fratelli Gabba 7 B Milan City Center 20121 Milan Italy,Milan,45.4701334,9.1897405
The Wellesley Knightsbridge a Luxury Collection Hotel London,11 Knightsbridge Westminster Borough London SW1X 7LY United Kingdom,London,51.502485,-0.1539265
Grange Blooms Hotel,7 Montague Street Bloomsbury Camden London WC1B 5BP United Kingdom,London,51.5196913,-0.1254243
The Chesterfield Mayfair,35 Charles Street Mayfair Westminster Borough London W1J 5EB United Kingdom,London,51.5076899,-0.1471358
Hotel Berna,Via Napo Torriani 18 Central Station 20124 Milan Italy,Milan,45.4826692,9.2034371
Hotel Scribe Paris Opera by Sofitel,1 Rue Scribe 9th arr 75009 Paris France,Paris,48.8704175,2.3296832
Ofelias Hotel 4 Sup,Llan 24 Eixample 08015 Barcelona Spain,Barcelona,41.3957584,2.1822402
Hotel Saint Petersbourg Opera,35 Rue Caumartin 9th arr 75009 Paris France,Paris,48.872174,2.328075
Admiral Hotel,Via Domodossola 16 Fiera Milano City 20145 Milan Italy,Milan,45.480515,9.160063
Victoria Palace Hotel,6 Rue Blaise Desgoffe 6th arr 75006 Paris France,Paris,48.8457587,2.3243071
Sheraton Diana Majestic,Viale Piave 42 Milan City Center 20129 Milan Italy,Milan,45.4736557,9.2066824
Aparthotel Atenea Barcelona,Joan G ell 207 211 Les Corts 08028 Barcelona Spain,Barcelona,41.3862689,2.1291786
Hotel Cambon,3 Rue Cambon 1st arr 75001 Paris France,Paris,48.866435,2.3251076
Thistle Euston,Cardington Street Euston Camden London NW1 2LP United Kingdom,London,51.5291423,-0.1372782
Le Meurice,228 Rue De Rivoli 1st arr 75001 Paris France,Paris,48.8653685,2.328218
H tel Les Dames du Panth on,19 place du Panth on 5th arr 75005 Paris France,Paris,48.845743,2.34493
MiHotel,Via Dei Fontanili 26 Ripamonti Corvetto 20141 Milan Italy,Milan,45.4405621,9.1921165
Millennium Hotel London Mayfair,44 Grosvenor Square Westminster Borough London W1K 2HP United Kingdom,London,51.510574,-0.1509951
DoubleTree by Hilton London Victoria,2 Bridge Place Victoria Westminster Borough London SW1V 1QA United Kingdom,London,51.49398,-0.143372
Le Meridien Vienna,Robert Stolz Platz 1 01 Innere Stadt 1010 Vienna Austria,Vienna,48.2027296,16.3661211
Acevi Villarroel,Villarroel 106 Eixample 08011 Barcelona Spain,Barcelona,41.3853781,2.1567228
L H tel,13 rue des Beaux Arts 6th arr 75006 Paris France,Paris,48.8562272,2.3351758
Hotel Chavanel,22 Rue Tronchet 8th arr 75008 Paris France,Paris,48.8721692,2.3262681
Nu Hotel,Via Feltre 19 B Citt Studi 20132 Milan Italy,Milan,45.4911829,9.2393614
The Soho Hotel,4 Richmond Mews Westminster Borough London W1D 3DH United Kingdom,London,51.5139805,-0.1337948
Austria Trend Hotel Schloss Wilhelminenberg Wien,Savoyenstra e 2 16 Ottakring 1160 Vienna Austria,Vienna,NA,NA
Hotel Plaza Elys es,177 Boulevard Haussmann 8th arr 75008 Paris France,Paris,48.8746128,2.3056956
Boutiquehotel Das Tyrol,Mariahilfer Stra e 15 06 Mariahilf 1060 Vienna Austria,Vienna,48.2008957,16.3592496
Best Western Plus Hotel Galles,Piazza Lima 2 Central Station 20124 Milan Italy,Milan,45.4805847,9.2117326
Derby Alma,8 Avenue Rapp 7th arr 75007 Paris France,Paris,48.8605031,2.3006606
Hotel Park Villa,Hasenauerstra e 12 19 D bling 1190 Vienna Austria,Vienna,NA,NA
United Lodge Hotel and Apartments,368 370 Green Lanes London N4 1DA United Kingdom,London,51.5743549,-0.0977567
Grange Beauchamp Hotel,24 27 Bedford Place Bloomsbury Camden London WC1B 5JH United Kingdom,London,51.5203266,-0.1245891
Hotel Roemer Amsterdam,Roemer Visscherstraat 8 10 Oud West 1054 EV Amsterdam Netherlands,Amsterdam,52.3617577,4.8780052
The College Hotel,Roelof Hartstraat 1 Oud Zuid 1071 VE Amsterdam Netherlands,Amsterdam,52.3527675,4.88373
Eiffel Trocad ro,35 Rue Benjamin Franklin 16th arr 75016 Paris France,Paris,48.8613055,2.2862823
Fleming s Selection Hotel Wien City,Josefst dter Stra e 10 12 08 Josefstadt 1080 Vienna Austria,Vienna,NA,NA
Best Western Plus 61 Paris Nation Hotel,61 rue de la Voute 12th arr 75012 Paris France,Paris,48.8465653,2.4102405
Danubius Hotel Regents Park,18 Lodge Road Near Baker Street And Marylebone Westminster Borough London NW8 7JT United Kingdom,London,51.529257,-0.168358
Hotel Maison FL,6 Rue De La Tour 16th arr 75016 Paris France,Paris,48.8396395,2.2663056
Appartement Hotel an der Riemergasse,Riemergasse 8 01 Innere Stadt 1010 Vienna Austria,Vienna,48.2071576,16.3765913
H tel Le Bellechasse Saint Germain,8 Rue De Bellechasse 7th arr 75007 Paris France,Paris,48.8597024,2.3239701
Hotel Boltzmann,Boltzmanngasse 8 09 Alsergrund 1090 Vienna Austria,Vienna,48.2216779,16.3567111
Park Plaza Victoria London,239 Vauxhall Bridge Road Westminster Borough London SW1V 1EQ United Kingdom,London,51.4942539,-0.1414756
The London EDITION,10 Berners Street Westminster Borough London W1T 3NP United Kingdom,London,51.5167472,-0.135965
41,41 Buckingham Palace Road Westminster Borough London SW1W 0PS United Kingdom,London,51.4981471,-0.1436492
The Portobello Hotel,22 Stanley Gardens Kensington and Chelsea London W11 2NG United Kingdom,London,51.512257,-0.2034244
Karma Sanctum Soho Hotel,20 Warwick Street Westminster Borough London W1B 5NF United Kingdom,London,51.5116049,-0.1383145
Sloane Square Hotel,Sloane Square Kensington and Chelsea London SW1W 8EG United Kingdom,London,51.4927325,-0.1573708
NH City Centre Amsterdam,Spuistraat 288 292 Amsterdam City Center 1012 VX Amsterdam Netherlands,Amsterdam,52.3697554,4.8887815
Hotel Mercure Milano Solari,Via Pietro Orseolo 1 Navigli 20144 Milan Italy,Milan,45.4565757,9.1684824
Hotel Les Bulles De Paris,32 rue des Ecoles 5th arr 75005 Paris France,Paris,48.849147,2.3471935
Best Western Amiral Hotel,98 Avenue d Italie 13th arr 75013 Paris France,Paris,48.8252307,2.3569005
Ayre Hotel Gran V a,Gran V a de les Corts Catalanes 322 Sants Montju c 08004 Barcelona Spain,Barcelona,41.3732462,2.1474351
Catalonia Passeig de Gr cia 4 Sup,Gran Via de les Corts Catalanes 644 Eixample 08007 Barcelona Spain,Barcelona,41.3901396,2.1696699
The RE London Shoreditch,419 437 Hackney Road London E2 8PP United Kingdom,London,51.531979,-0.061598
Madeleine Plaza,33 place de la Madeleine 8th arr 75008 Paris France,Paris,48.8710402,2.3248014
H tel Thoumieux,79 rue Saint Dominique 7th arr 75007 Paris France,Paris,48.8595985,2.3088076
H10 Urquinaona Plaza,Pla a Urquinaona 2 Eixample 08010 Barcelona Spain,Barcelona,41.3892128,2.1726015
